{"type": "FeatureCollection", "features": [{"type": "Feature", "properties": {"level": 1020.0}, "geometry": {"type": "LineString", "coordinates": [[7.9688, 50.5], [7.98, 50.5061], [8.0, 50.5053], [8.02, 50.5053], [8.0361, 50.52], [8.0381, 50.54], [8.04, 50.5405], [8.0409, 50.54], [8.06, 50.5301], [8.08, 50.523], [8.1, 50.5264], [8.1153, 50.52], [8.12, 50.5176], [8.14, 50.5176], [8.1505, 50.52], [8.16, 50.5216], [8.18, 50.5227], [8.1902, 50.52], [8.2, 50.5153], [8.22, 50.5098], [8.2219, 50.52], [8.22, 50.5341], [8.2187, 50.54], [8.22, 50.5407], [8.24, 50.5467], [8.26, 50.5439], [8.28, 50.5478], [8.3, 50.5505], [8.32, 50.549], [8.3386, 50.56], [8.34, 50.5605], [8.3424, 50.56], [8.36, 50.5412], [8.3788, 50.56], [8.38, 50.5603], [8.3813, 50.56], [8.3813, 50.54], [8.38, 50.5361], [8.3675, 50.52], [8.36, 50.5162], [8.34, 50.5163], [8.3255, 50.5]]}}, {"type": "Feature", "properties": {"level": 1020.0}, "geometry": {"type": "LineString", "coordinates": [[8.42, 50.5286], [8.4164, 50.54], [8.42, 50.5436], [8.44, 50.5411], [8.4418, 50.54], [8.44, 50.5381], [8.42, 50.5286]]}}, {"type": "Feature", "properties": {"level": 1020.0}, "geometry": {"type": "LineString", "coordinates": [[7.6985, 51.08], [7.7, 51.0774], [7.72, 51.0623], [7.7235, 51.08], [7.74, 51.0958], [7.76, 51.0958], [7.7647, 51.1], [7.78, 51.1062], [7.7965, 51.12], [7.8, 51.1218], [7.82, 51.1226], [7.84, 51.1333], [7.8489, 51.14], [7.84, 51.1534], [7.82, 51.1534], [7.8, 51.1577], [7.78, 51.1525], [7.76, 51.1542], [7.74, 51.1543], [7.72, 51.1532], [7.7, 51.1411], [7.6854, 51.14], [7.68, 51.1396], [7.6707, 51.12], [7.68, 51.1061], [7.6885, 51.1], [7.6985, 51.08]]}}, {"type": "Feature", "properties": {"level": 1020.0}, "geometry": {"type": "LineString", "coordinates": [[7.907, 51.18], [7.92, 51.1629], [7.9274, 51.18], [7.92, 51.186], [7.907, 51.18]]}}, {"type": "Feature", "properties": {"level": 1020.0}, "geometry": {"type": "LineString", "coordinates": [[8.5, 51.3474], [8.4931, 51.34], [8.48, 51.3329], [8.46, 51.3303], [8.44, 51.3243], [8.42, 51.3227], [8.4148, 51.32], [8.4, 51.3138], [8.38, 51.3119], [8.36, 51.3046], [8.3559, 51.3], [8.34, 51.2872], [8.32, 51.2868], [8.3089, 51.28], [8.3, 51.2703], [8.28, 51.2624], [8.2773, 51.26], [8.26, 51.2485], [8.2473, 51.24], [8.2423, 51.22], [8.24, 51.2137], [8.22, 51.216], [8.2101, 51.22], [8.2, 51.2242], [8.18, 51.2364], [8.16, 51.2332], [8.1484, 51.24], [8.16, 51.2561], [8.18, 51.2515], [8.1819, 51.26], [8.18, 51.2628], [8.1739, 51.28], [8.16, 51.2981], [8.1485, 51.3], [8.14, 51.3015], [8.12, 51.3011], [8.1, 51.3056], [8.0881, 51.3], [8.08, 51.2939], [8.06, 51.2851], [8.0407, 51.28], [8.04, 51.2799], [8.02, 51.2716], [8.0, 51.2687], [7.98, 51.2696], [7.96, 51.263], [7.9536, 51.26], [7.96, 51.25], [7.9642, 51.24], [7.98, 51.2245], [7.9845, 51.22], [8.0, 51.207], [8.0119, 51.2], [8.02, 51.1928], [8.0306, 51.2], [8.04, 51.2032], [8.0541, 51.2], [8.06, 51.1882], [8.0648, 51.18], [8.0774, 51.16], [8.08, 51.1562], [8.0962, 51.14], [8.08, 51.1296], [8.0749, 51.12], [8.0702, 51.1], [8.06, 51.0926], [8.04, 51.0919], [8.02, 51.0873], [8.0, 51.0849], [7.9892, 51.08], [7.98, 51.0778], [7.96, 51.078], [7.9501, 51.08], [7.94, 51.0838], [7.92, 51.0821], [7.9135, 51.08], [7.9, 51.065], [7.8982, 51.06], [7.8883, 51.04], [7.88, 51.0271], [7.8736, 51.02], [7.86, 51.0002], [7.84, 51.0002], [7.8397, 51.0], [7.82, 50.9831], [7.8078, 51.0], [7.8, 51.0062], [7.7934, 51.0], [7.78, 50.9814], [7.7789, 50.98], [7.78, 50.9688], [7.7907, 50.96], [7.7995, 50.94], [7.8, 50.9397], [7.82, 50.9279], [7.84, 50.9257], [7.8459, 50.92], [7.84, 50.904], [7.82, 50.904], [7.8192, 50.9], [7.82, 50.8993], [7.84, 50.898], [7.86, 50.8906], [7.88, 50.8924], [7.9, 50.8946], [7.92, 50.8856], [7.9244, 50.88], [7.92, 50.8771], [7.9121, 50.86], [7.9, 50.8466], [7.8967, 50.84], [7.9, 50.8361], [7.92, 50.834], [7.926, 50.84], [7.94, 50.8517], [7.96, 50.8525], [7.9703, 50.86], [7.98, 50.8777], [7.9842, 50.88], [7.98, 50.8913], [7.9757, 50.9], [7.98, 50.9069], [7.9862, 50.92], [7.98, 50.9275], [7.9761, 50.94], [7.96, 50.9557], [7.9538, 50.96], [7.96, 50.9685], [7.98, 50.9629], [7.9938, 50.96], [8.0, 50.9532], [8.0059, 50.94], [8.0139, 50.92], [8.02, 50.9155], [8.04, 50.9017], [8.0403, 50.9], [8.0571, 50.88], [8.04, 50.8656], [8.02, 50.865], [8.0138, 50.86], [8.02, 50.8453], [8.0215, 50.84], [8.02, 50.837], [8.0, 50.829], [7.98, 50.8202], [7.9799, 50.82], [7.96, 50.8002], [7.9598, 50.8], [7.96, 50.7998], [7.98, 50.7897], [8.0, 50.7894], [8.0182, 50.78], [8.0, 50.7756], [7.9819, 50.76], [7.98, 50.7574], [7.9698, 50.74], [7.96, 50.7241], [7.9464, 50.72], [7.94, 50.7183], [7.9376, 50.72], [7.9376, 50.74], [7.92, 50.7474], [7.9, 50.7462], [7.88, 50.7442], [7.8735, 50.74], [7.86, 50.7267], [7.8539, 50.72], [7.86, 50.711], [7.8685, 50.7], [7.874, 50.68], [7.88, 50.6695], [7.8888, 50.66], [7.9, 50.65], [7.9076, 50.64], [7.9076, 50.62], [7.9, 50.6156], [7.88, 50.6145], [7.8738, 50.62], [7.86, 50.6386], [7.8551, 50.64], [7.84, 50.6433], [7.82, 50.6416], [7.8174, 50.64], [7.8, 50.6251], [7.7824, 50.62], [7.7824, 50.6], [7.78, 50.5928], [7.7785, 50.58], [7.78, 50.579], [7.8, 50.5774], [7.82, 50.5719], [7.8339, 50.56], [7.83, 50.54], [7.84, 50.5233], [7.8423, 50.52], [7.86, 50.5014], [7.8642, 50.5]]}}, {"type": "Feature", "properties": {"level": 1020.0}, "geometry": {"type": "LineString", "coordinates": [[8.2552, 51.38], [8.26, 51.3782], [8.28, 51.3788], [8.2959, 51.38], [8.28, 51.3826], [8.26, 51.3848], [8.2552, 51.38]]}}, {"type": "Feature", "properties": {"level": 1020.0}, "geometry": {"type": "LineString", "coordinates": [[8.3239, 51.38], [8.34, 51.378], [8.3507, 51.38], [8.34, 51.3883], [8.3239, 51.38]]}}, {"type": "Feature", "properties": {"level": 1020.0}, "geometry": {"type": "LineString", "coordinates": [[8.3671, 51.38], [8.38, 51.3772], [8.3882, 51.38], [8.4, 51.3949], [8.42, 51.3945], [8.44, 51.3961], [8.4569, 51.4], [8.44, 51.4036], [8.42, 51.4029], [8.4, 51.4018], [8.38, 51.4029], [8.372, 51.4], [8.3671, 51.38]]}}, {"type": "Feature", "properties": {"level": 1020.0}, "geometry": {"type": "LineString", "coordinates": [[8.5, 51.417], [8.48, 51.4088], [8.4612, 51.4], [8.46, 51.3954], [8.4574, 51.38], [8.46, 51.3779], [8.48, 51.3768], [8.5, 51.3685]]}}, {"type": "Feature", "properties": {"level": 1020.0}, "geometry": {"type": "LineString", "coordinates": [[6.6983, 53.98], [6.7, 53.9786], [6.72, 53.9767], [6.74, 53.9754], [6.7479, 53.96], [6.76, 53.9485], [6.7799, 53.94], [6.78, 53.9399], [6.7811, 53.94], [6.8, 53.9421], [6.82, 53.9413], [6.8223, 53.94], [6.8393, 53.92], [6.84, 53.9196], [6.86, 53.9188], [6.88, 53.9146], [6.8897, 53.9], [6.9, 53.8872], [6.9072, 53.88], [6.92, 53.8735], [6.94, 53.869], [6.96, 53.8712], [6.9764, 53.86], [6.98, 53.8586], [6.9928, 53.86], [7.0, 53.8613], [7.02, 53.8607], [7.0215, 53.86], [7.04, 53.8432], [7.06, 53.8433], [7.08, 53.8426], [7.0861, 53.84], [7.1, 53.8261], [7.12, 53.8202], [7.14, 53.8202], [7.16, 53.8231], [7.18, 53.8222], [7.1889, 53.82], [7.2, 53.8156], [7.22, 53.8132], [7.2346, 53.8], [7.24, 53.7939], [7.26, 53.7837], [7.2639, 53.78], [7.26, 53.7636], [7.2582, 53.76], [7.26, 53.7582], [7.28, 53.7578], [7.3, 53.7457], [7.3117, 53.74], [7.32, 53.7253], [7.34, 53.7253], [7.36, 53.7215], [7.3625, 53.72], [7.375, 53.7], [7.38, 53.6925], [7.3878, 53.68], [7.38, 53.6601], [7.3799, 53.66], [7.38, 53.6598], [7.4, 53.6592], [7.42, 53.6421], [7.4222, 53.64], [7.4277, 53.62], [7.44, 53.6081], [7.4467, 53.6], [7.46, 53.5843], [7.4654, 53.58], [7.48, 53.5683], [7.4934, 53.56], [7.4977, 53.54], [7.5, 53.5386], [7.52, 53.5364], [7.54, 53.5332], [7.546, 53.52], [7.56, 53.5041], [7.5669, 53.5], [7.58, 53.4883], [7.5917, 53.48], [7.6, 53.4747], [7.62, 53.4608], [7.6217, 53.46], [7.64, 53.4545], [7.6545, 53.44], [7.66, 53.4337], [7.6702, 53.42], [7.68, 53.4141], [7.7, 53.4052], [7.7108, 53.4], [7.72, 53.3939], [7.74, 53.3849], [7.7506, 53.38], [7.76, 53.3692], [7.7739, 53.36], [7.78, 53.3573], [7.8, 53.358], [7.82, 53.3502], [7.84, 53.3456], [7.86, 53.3421], [7.8631, 53.34], [7.88, 53.3294], [7.8919, 53.32], [7.9, 53.3122], [7.9088, 53.3], [7.9126, 53.28], [7.92, 53.2735], [7.9367, 53.26], [7.94, 53.2572], [7.96, 53.2457], [7.977, 53.24], [7.98, 53.2391], [8.0, 53.2286], [8.0089, 53.22], [8.02, 53.2002], [8.04, 53.2024], [8.06, 53.2015], [8.0633, 53.2], [8.08, 53.182], [8.1, 53.1825], [8.12, 53.1801], [8.1201, 53.18], [8.1322, 53.16], [8.14, 53.1505], [8.1472, 53.14], [8.16, 53.1295], [8.1747, 53.12], [8.18, 53.1165], [8.2, 53.1057], [8.22, 53.1009], [8.2214, 53.1], [8.24, 53.0841], [8.2431, 53.08], [8.2447, 53.06], [8.26, 53.0508], [8.2775, 53.04], [8.28, 53.0383], [8.3, 53.0317], [8.32, 53.0263], [8.331, 53.02], [8.34, 53.0161], [8.3534, 53.0], [8.36, 52.9859], [8.38, 52.9884], [8.4, 52.9848], [8.4083, 52.98], [8.4147, 52.96], [8.42, 52.9567], [8.44, 52.954], [8.46, 52.9538], [8.4705, 52.94], [8.48, 52.9296], [8.4882, 52.92], [8.5, 52.9129]]}}]}