{"type": "FeatureCollection", "features": [{"type": "Feature", "properties": {"level": 1030.0}, "geometry": {"type": "LineString", "coordinates": [[4.7267, 53.98], [4.72, 53.9726], [4.7081, 53.96], [4.7, 53.9545], [4.68, 53.9504], [4.6709, 53.94], [4.66, 53.9318], [4.6504, 53.92], [4.64, 53.9014], [4.6392, 53.9], [4.64, 53.8973], [4.6516, 53.88], [4.64, 53.8722], [4.6246, 53.86], [4.62, 53.8483], [4.6166, 53.84], [4.6, 53.8274], [4.5947, 53.82], [4.6, 53.8074], [4.603, 53.8], [4.6, 53.7959], [4.5887, 53.78], [4.58, 53.7683], [4.5692, 53.76], [4.56, 53.7413], [4.5593, 53.74], [4.54, 53.7243], [4.5371, 53.72], [4.54, 53.713], [4.545, 53.7], [4.54, 53.6898], [4.5349, 53.68], [4.54, 53.6693], [4.5441, 53.66], [4.54, 53.6534], [4.5238, 53.64], [4.52, 53.6306], [4.5155, 53.62], [4.5, 53.6086], [4.4928, 53.6], [4.48, 53.5802], [4.4799, 53.58], [4.46, 53.5629], [4.4546, 53.56], [4.44, 53.548], [4.4293, 53.54], [4.42, 53.5338], [4.4, 53.5299], [4.3845, 53.52], [4.38, 53.5174], [4.36, 53.5041], [4.3526, 53.5], [4.34, 53.4941], [4.32, 53.4857], [4.3133, 53.48], [4.3, 53.4626], [4.2953, 53.46], [4.28, 53.4529], [4.26, 53.4529], [4.249, 53.44], [4.24, 53.435], [4.22, 53.4295], [4.2, 53.4251], [4.1903, 53.42], [4.18, 53.4136], [4.16, 53.4028], [4.1469, 53.4], [4.14, 53.3985], [4.12, 53.3985], [4.1, 53.3871], [4.0889, 53.38], [4.08, 53.3739], [4.06, 53.3631], [4.04, 53.3615], [4.021, 53.36], [4.02, 53.3598], [4.0, 53.3509], [3.98, 53.3402], [3.96, 53.3401], [3.9598, 53.34], [3.94, 53.3298], [3.92, 53.3214], [3.9, 53.3214], [3.88, 53.3208], [3.8784, 53.32], [3.86, 53.3024], [3.8576, 53.3], [3.84, 53.2919], [3.82, 53.2836], [3.8, 53.2819], [3.78, 53.2838], [3.7759, 53.28], [3.76, 53.2727], [3.74, 53.2674], [3.72, 53.2642], [3.7113, 53.26], [3.7, 53.2547], [3.68, 53.2483], [3.66, 53.2475], [3.64, 53.2433], [3.6337, 53.24], [3.62, 53.2327], [3.6, 53.2229], [3.58, 53.2213], [3.5775, 53.22], [3.56, 53.2113], [3.54, 53.2031], [3.52, 53.2031], [3.5, 53.2014], [3.4972, 53.2], [3.48, 53.1913], [3.46, 53.1832], [3.44, 53.1817], [3.4357, 53.18], [3.42, 53.1733], [3.4, 53.1704], [3.38, 53.1728], [3.36, 53.1672], [3.34, 53.1641], [3.32, 53.1635], [3.3, 53.1614], [3.28, 53.1622], [3.26, 53.1661], [3.24, 53.1639], [3.22, 53.163], [3.2, 53.1668], [3.18, 53.1709], [3.16, 53.171], [3.14, 53.1772], [3.12, 53.1745], [3.1106, 53.18], [3.1, 53.1846], [3.08, 53.1864], [3.06, 53.1825], [3.04, 53.1885], [3.02, 53.1893], [3.0, 53.19], [2.98, 53.1933], [2.96, 53.1933], [2.94, 53.194], [2.92, 53.1913], [2.9, 53.191], [2.88, 53.1918], [2.86, 53.1944], [2.84, 53.1944], [2.82, 53.1916], [2.8, 53.1938], [2.78, 53.1905], [2.7705, 53.2], [2.76, 53.2069], [2.74, 53.2058], [2.72, 53.2058], [2.7, 53.2058], [2.68, 53.2082], [2.66, 53.2057], [2.64, 53.2127], [2.62, 53.2092], [2.6, 53.2119], [2.58, 53.2198], [2.56, 53.2167], [2.5496, 53.22], [2.54, 53.2231], [2.5239, 53.22], [2.52, 53.2189], [2.5177, 53.22], [2.5, 53.2256]]}}]}