{"type": "FeatureCollection", "features": [{"type": "Feature", "properties": {"level": 1030.0}, "geometry": {"type": "LineString", "coordinates": [[6.3697, 53.98], [6.36, 53.9723], [6.34, 53.9616], [6.3359, 53.96], [6.32, 53.9537], [6.3, 53.9495], [6.28, 53.9425], [6.2756, 53.94], [6.26, 53.9296], [6.2458, 53.92], [6.24, 53.9167], [6.22, 53.904], [6.2, 53.904], [6.1907, 53.9], [6.18, 53.8955], [6.16, 53.8833], [6.1558, 53.88], [6.14, 53.8706], [6.1269, 53.86], [6.12, 53.8511], [6.1, 53.8547], [6.0817, 53.84], [6.08, 53.8378], [6.067, 53.82], [6.06, 53.8148], [6.04, 53.8077], [6.0228, 53.8], [6.02, 53.7988], [6.0, 53.7979], [5.98, 53.7843], [5.9726, 53.78], [5.96, 53.7712], [5.944, 53.76], [5.94, 53.7578], [5.92, 53.747], [5.9, 53.747], [5.8828, 53.74], [5.88, 53.739], [5.86, 53.7279], [5.8482, 53.72], [5.84, 53.7155], [5.82, 53.7091], [5.8, 53.7077], [5.78, 53.7034], [5.7733, 53.7], [5.76, 53.6931], [5.74, 53.6871], [5.72, 53.6837], [5.7, 53.6833], [5.6936, 53.68], [5.68, 53.6664], [5.6742, 53.66], [5.66, 53.652], [5.6437, 53.66], [5.64, 53.6617], [5.6375, 53.66], [5.64, 53.6419], [5.6403, 53.64], [5.64, 53.6398], [5.62, 53.6396], [5.6, 53.6265], [5.58, 53.6257], [5.5721, 53.62], [5.56, 53.6111], [5.5409, 53.6], [5.54, 53.5994], [5.52, 53.5993], [5.5, 53.5895], [5.48, 53.5897], [5.4604, 53.58], [5.46, 53.5797], [5.44, 53.5749], [5.42, 53.5644], [5.4128, 53.56], [5.4, 53.5531], [5.38, 53.54], [5.38, 53.54], [5.36, 53.54], [5.34, 53.537], [5.32, 53.5282], [5.306, 53.52], [5.3, 53.5116], [5.2863, 53.5], [5.2842, 53.48], [5.28, 53.46], [5.28, 53.46], [5.26, 53.4517], [5.24, 53.4517], [5.22, 53.4428], [5.2165, 53.44], [5.2, 53.4302], [5.1817, 53.42], [5.18, 53.4194], [5.16, 53.4176], [5.1553, 53.42], [5.14, 53.4228], [5.1347, 53.42], [5.12, 53.4078], [5.1136, 53.4], [5.1, 53.3918], [5.0885, 53.38], [5.08, 53.3653], [5.0768, 53.36], [5.08, 53.3552], [5.0871, 53.34], [5.08, 53.3282], [5.0689, 53.32], [5.06, 53.3135], [5.04, 53.3027], [5.02, 53.3015], [5.018, 53.3], [5.0, 53.2882], [4.98, 53.2864], [4.9705, 53.28], [4.96, 53.2722], [4.94, 53.2615], [4.92, 53.2607], [4.9192, 53.26], [4.92, 53.2561], [4.9255, 53.24], [4.92, 53.2348], [4.9, 53.2306], [4.887, 53.22], [4.88, 53.2017], [4.8792, 53.2], [4.86, 53.1919], [4.84, 53.1919], [4.82, 53.1823], [4.8165, 53.18], [4.8, 53.1678], [4.791, 53.16], [4.78, 53.1534], [4.7658, 53.14], [4.76, 53.1346], [4.7453, 53.12], [4.74, 53.1118], [4.7282, 53.1], [4.72, 53.0912], [4.7, 53.088], [4.6907, 53.08], [4.68, 53.0661], [4.6697, 53.06], [4.66, 53.0476], [4.6485, 53.04], [4.64, 53.0332], [4.6295, 53.02], [4.62, 53.0157], [4.6, 53.0042], [4.58, 53.0007], [4.5786, 53.0], [4.5786, 52.98], [4.5674, 52.96], [4.56, 52.9482], [4.5554, 52.94], [4.54, 52.9285], [4.5237, 52.92], [4.52, 52.911], [4.5144, 52.9], [4.52, 52.8944], [4.5255, 52.88], [4.52, 52.8728], [4.5025, 52.86], [4.5, 52.8559], [4.48, 52.8485], [4.4718, 52.84], [4.46, 52.8268], [4.4498, 52.82], [4.44, 52.8102], [4.4299, 52.8], [4.42, 52.7936], [4.4067, 52.78], [4.4, 52.7699], [4.3935, 52.76], [4.38, 52.7461], [4.3704, 52.74], [4.36, 52.7299], [4.3494, 52.72], [4.34, 52.7114], [4.327, 52.7], [4.32, 52.6956], [4.3027, 52.68], [4.3, 52.6775], [4.28, 52.6764], [4.2611, 52.66], [4.26, 52.6589], [4.247, 52.64], [4.24, 52.6335], [4.2248, 52.62], [4.22, 52.6156], [4.2, 52.6091], [4.1854, 52.6], [4.18, 52.5966], [4.16, 52.5819], [4.1578, 52.58], [4.14, 52.5684], [4.12, 52.5643], [4.1153, 52.56], [4.1, 52.5456], [4.0944, 52.54], [4.08, 52.5256], [4.0765, 52.52], [4.06, 52.5044], [4.0555, 52.5], [4.04, 52.4852], [4.0314, 52.48], [4.02, 52.4688], [4.0103, 52.46], [4.0, 52.4528], [3.9864, 52.44], [3.98, 52.4335], [3.9669, 52.42], [3.96, 52.4094], [3.9506, 52.4], [3.94, 52.3895], [3.9303, 52.38], [3.92, 52.3703], [3.909, 52.36], [3.9, 52.3544], [3.8841, 52.34], [3.88, 52.3363], [3.86, 52.335], [3.8421, 52.32], [3.84, 52.3179], [3.82, 52.3027], [3.8, 52.301], [3.7989, 52.3], [3.8, 52.2961], [3.8049, 52.28], [3.8, 52.2758], [3.78, 52.2691], [3.7676, 52.26], [3.76, 52.2546], [3.74, 52.24], [3.74, 52.24], [3.72, 52.2273], [3.7119, 52.22], [3.7, 52.2095], [3.6892, 52.2], [3.68, 52.1869], [3.6731, 52.18], [3.66, 52.1693], [3.64, 52.1718], [3.6313, 52.16], [3.62, 52.1506], [3.6064, 52.14], [3.6, 52.1349], [3.58, 52.1281], [3.5625, 52.12], [3.56, 52.1188], [3.54, 52.1045], [3.534, 52.1], [3.52, 52.0915], [3.5058, 52.08], [3.5, 52.0723], [3.491, 52.06], [3.48, 52.0511], [3.4614, 52.04], [3.46, 52.039], [3.44, 52.0277], [3.4225, 52.02], [3.42, 52.0189], [3.4, 52.0189], [3.38, 52.006], [3.371, 52.0], [3.36, 51.9924], [3.3411, 51.98], [3.34, 51.9794], [3.32, 51.9719], [3.3, 51.9653], [3.2919, 51.96], [3.28, 51.9453], [3.2755, 51.94], [3.26, 51.9303], [3.2412, 51.92], [3.24, 51.9192], [3.22, 51.9137], [3.2, 51.912], [3.18, 51.9045], [3.1716, 51.9], [3.16, 51.8934], [3.14, 51.8835], [3.12, 51.88], [3.12, 51.88], [3.1, 51.8685], [3.0858, 51.86], [3.08, 51.857], [3.06, 51.853], [3.04, 51.8516], [3.02, 51.8439], [3.0136, 51.84], [3.0, 51.8326], [2.9815, 51.82], [2.98, 51.8181], [2.9657, 51.8], [2.96, 51.796], [2.94, 51.7909], [2.92, 51.7814], [2.9175, 51.78], [2.9, 51.7683], [2.8872, 51.76], [2.88, 51.7554], [2.86, 51.7447], [2.84, 51.7447], [2.8278, 51.74], [2.82, 51.7369], [2.8, 51.7248], [2.7928, 51.72], [2.78, 51.7072], [2.766, 51.7], [2.76, 51.6969], [2.7462, 51.68], [2.74, 51.6756], [2.72, 51.6649], [2.7, 51.6617], [2.6971, 51.66], [2.68, 51.6496], [2.6645, 51.64], [2.66, 51.6372], [2.64, 51.6297], [2.62, 51.6245], [2.6131, 51.62], [2.6, 51.6115], [2.5821, 51.6], [2.58, 51.5976], [2.5624, 51.58], [2.56, 51.5786], [2.54, 51.574], [2.52, 51.5724], [2.5, 51.5702]]}}]}