{"type": "FeatureCollection", "features": [{"type": "Feature", "properties": {"level": 1015.0}, "geometry": {"type": "LineString", "coordinates": [[3.974, 53.98], [3.96, 53.9721], [3.94, 53.9678], [3.92, 53.9674], [3.9, 53.9672], [3.8854, 53.96], [3.88, 53.9574], [3.86, 53.9558], [3.84, 53.9577], [3.82, 53.9472], [3.8028, 53.94], [3.8, 53.9383], [3.7803, 53.92], [3.78, 53.9194], [3.7674, 53.9], [3.78, 53.8868], [3.7828, 53.88], [3.78, 53.8731], [3.7695, 53.86], [3.7682, 53.84], [3.78, 53.8282], [3.7837, 53.82], [3.78, 53.8127], [3.76, 53.8127], [3.7534, 53.8], [3.76, 53.7914], [3.7737, 53.78], [3.78, 53.7724], [3.7913, 53.76], [3.8, 53.7438], [3.8025, 53.74], [3.82, 53.7239], [3.8232, 53.72], [3.82, 53.7036], [3.8, 53.7036], [3.7988, 53.7], [3.8, 53.6993], [3.82, 53.698], [3.8292, 53.68], [3.84, 53.6623], [3.8409, 53.66], [3.84, 53.6592], [3.82, 53.6466], [3.8, 53.6439], [3.7943, 53.64], [3.78, 53.6313], [3.7628, 53.62], [3.78, 53.6028], [3.7813, 53.6], [3.78, 53.5976], [3.7603, 53.58], [3.768, 53.56], [3.7651, 53.54], [3.76, 53.5373], [3.74, 53.5321], [3.72, 53.5321], [3.7038, 53.52], [3.7, 53.5128], [3.68, 53.5026], [3.6785, 53.5], [3.68, 53.4972], [3.6972, 53.48], [3.6897, 53.46], [3.68, 53.4451], [3.66, 53.4426], [3.6565, 53.44], [3.6476, 53.42], [3.66, 53.4062], [3.6622, 53.4], [3.66, 53.3958], [3.6442, 53.38], [3.64, 53.3633], [3.62, 53.3608], [3.6194, 53.36], [3.62, 53.3586], [3.6339, 53.34], [3.6322, 53.32], [3.62, 53.3075], [3.6153, 53.3], [3.62, 53.2917], [3.6253, 53.28], [3.62, 53.2698], [3.6077, 53.26], [3.6, 53.2492], [3.5915, 53.24], [3.58, 53.2304], [3.5669, 53.22], [3.56, 53.2161], [3.5421, 53.2], [3.54, 53.1979], [3.5241, 53.18], [3.52, 53.1732], [3.5, 53.1732], [3.4922, 53.16], [3.48, 53.1451], [3.4756, 53.14], [3.46, 53.127], [3.449, 53.12], [3.44, 53.1125], [3.4264, 53.1], [3.42, 53.0946], [3.4034, 53.08], [3.4, 53.078], [3.38, 53.0682], [3.36, 53.0614], [3.3586, 53.06], [3.36, 53.0559], [3.3655, 53.04], [3.36, 53.034], [3.34, 53.0214], [3.3392, 53.02], [3.3346, 53.0], [3.32, 52.9863], [3.3169, 52.98], [3.32, 52.973], [3.3248, 52.96], [3.32, 52.9512], [3.314, 52.94], [3.32, 52.9239], [3.3214, 52.92], [3.32, 52.9177], [3.3, 52.907], [3.2984, 52.9], [3.2999, 52.88], [3.3, 52.879], [3.32, 52.8609], [3.3205, 52.86], [3.32, 52.859], [3.3, 52.859], [3.2901, 52.84], [3.28, 52.8266], [3.2748, 52.82], [3.26, 52.805], [3.2523, 52.8], [3.24, 52.7856], [3.2352, 52.78], [3.2236, 52.76], [3.22, 52.7519], [3.2, 52.7425], [3.198, 52.74], [3.2, 52.7351], [3.2151, 52.72], [3.2, 52.7098], [3.194, 52.7], [3.1904, 52.68], [3.2, 52.672], [3.2073, 52.66], [3.2, 52.6477], [3.1962, 52.64], [3.2, 52.6319], [3.2057, 52.62], [3.2, 52.6107], [3.187, 52.6], [3.1855, 52.58], [3.1849, 52.56], [3.18, 52.5571], [3.1664, 52.54], [3.16, 52.5293], [3.1545, 52.52], [3.14, 52.5009], [3.1388, 52.5], [3.1389, 52.48], [3.14, 52.4776], [3.1486, 52.46], [3.16, 52.4503], [3.1667, 52.44], [3.16, 52.4267], [3.1533, 52.42], [3.14, 52.4001], [3.14, 52.4], [3.1256, 52.38], [3.12, 52.3601], [3.1, 52.36], [3.1, 52.36], [3.1, 52.36], [3.1114, 52.34], [3.12, 52.324], [3.1225, 52.32], [3.12, 52.3142], [3.1139, 52.3], [3.1009, 52.28], [3.1, 52.2777], [3.0919, 52.26], [3.08, 52.2401], [3.06, 52.24], [3.06, 52.24], [3.06, 52.2399], [3.0681, 52.22], [3.06, 52.2088], [3.0544, 52.2], [3.06, 52.188], [3.0677, 52.18], [3.0677, 52.16], [3.06, 52.1531], [3.0513, 52.14], [3.04, 52.12], [3.04, 52.12], [3.026, 52.1], [3.02, 52.0938], [3.0049, 52.08], [3.0, 52.0761], [2.98, 52.0678], [2.96, 52.061], [2.9584, 52.06], [2.94, 52.0446], [2.9343, 52.04], [2.92, 52.0257], [2.9147, 52.02], [2.9, 52.0053], [2.8971, 52.0], [2.9, 51.9815], [2.9006, 51.98], [2.9, 51.9786], [2.8941, 51.96], [2.8847, 51.94], [2.88, 51.9323], [2.8723, 51.92], [2.88, 51.903], [2.8814, 51.9], [2.88, 51.8979], [2.86, 51.8916], [2.8546, 51.88], [2.843, 51.86], [2.84, 51.8524], [2.8359, 51.84], [2.82, 51.8257], [2.8169, 51.82], [2.82, 51.8138], [2.8271, 51.8], [2.82, 51.786], [2.8169, 51.78], [2.8156, 51.76], [2.82, 51.7427], [2.8207, 51.74], [2.84, 51.723], [2.8419, 51.72], [2.84, 51.7155], [2.8333, 51.7], [2.8335, 51.68], [2.84, 51.6697], [2.8458, 51.66], [2.8565, 51.64], [2.86, 51.6299], [2.88, 51.6219], [2.8813, 51.62], [2.88, 51.6171], [2.8722, 51.6], [2.8698, 51.58], [2.8751, 51.56], [2.8781, 51.54], [2.88, 51.5318], [2.8826, 51.52], [2.8826, 51.5], [2.8834, 51.48], [2.8824, 51.46], [2.8806, 51.44], [2.88, 51.4395], [2.8673, 51.42], [2.86, 51.4048], [2.8569, 51.4], [2.86, 51.3921], [2.8639, 51.38], [2.86, 51.3745], [2.8417, 51.36], [2.84, 51.3559], [2.8304, 51.34], [2.82, 51.3307], [2.8131, 51.32], [2.82, 51.3076], [2.8276, 51.3], [2.8284, 51.28], [2.8272, 51.26], [2.8247, 51.24], [2.82, 51.236], [2.8103, 51.22], [2.82, 51.2034], [2.8214, 51.2], [2.82, 51.1983], [2.8, 51.1938], [2.7821, 51.18], [2.78, 51.179], [2.76, 51.1709], [2.7403, 51.16], [2.74, 51.1598], [2.737, 51.16], [2.72, 51.1625], [2.7136, 51.16], [2.7, 51.157], [2.68, 51.1584], [2.66, 51.1563], [2.64, 51.1553], [2.62, 51.1451], [2.6161, 51.14], [2.6, 51.1213], [2.58, 51.1204], [2.5797, 51.12], [2.58, 51.1184], [2.5829, 51.1], [2.58, 51.0954], [2.5712, 51.08], [2.58, 51.0629], [2.5816, 51.06], [2.58, 51.0501], [2.56, 51.0501], [2.5556, 51.04], [2.56, 51.0344], [2.5642, 51.02], [2.56, 51.0153], [2.5403, 51.0], [2.54, 50.9996], [2.5204, 50.98], [2.52, 50.9792], [2.5102, 50.96], [2.5021, 50.94], [2.5, 50.934]]}}]}