{"type": "FeatureCollection", "features": [{"type": "Feature", "properties": {"level": 1030.0}, "geometry": {"type": "LineString", "coordinates": [[6.0118, 53.46], [6.02, 53.4527], [6.04, 53.4478], [6.0556, 53.46], [6.04, 53.4783], [6.02, 53.4639], [6.0118, 53.46]]}}, {"type": "Feature", "properties": {"level": 1030.0}, "geometry": {"type": "LineString", "coordinates": [[7.4086, 53.98], [7.4, 53.9743], [7.38, 53.9678], [7.36, 53.9657], [7.34, 53.9622], [7.3363, 53.96], [7.32, 53.95], [7.3006, 53.94], [7.3, 53.9396], [7.28, 53.9368], [7.26, 53.9362], [7.24, 53.9265], [7.2273, 53.92], [7.22, 53.9159], [7.2, 53.909], [7.18, 53.9074], [7.16, 53.9034], [7.1535, 53.9], [7.14, 53.8928], [7.12, 53.8845], [7.1, 53.8825], [7.08, 53.8829], [7.0739, 53.88], [7.06, 53.874], [7.04, 53.8713], [7.02, 53.8679], [7.0, 53.8692], [6.98, 53.8611], [6.96, 53.8634], [6.951, 53.86], [6.94, 53.856], [6.92, 53.8568], [6.9, 53.8568], [6.88, 53.8473], [6.8657, 53.84], [6.86, 53.8366], [6.84, 53.827], [6.82, 53.827], [6.8022, 53.82], [6.8, 53.8191], [6.78, 53.8054], [6.7717, 53.8], [6.76, 53.7937], [6.74, 53.7831], [6.72, 53.7831], [6.709, 53.78], [6.7, 53.7774], [6.68, 53.7673], [6.6694, 53.76], [6.66, 53.7488], [6.6412, 53.74], [6.64, 53.7395], [6.62, 53.7395], [6.6055, 53.72], [6.6, 53.716], [6.58, 53.7051], [6.56, 53.7012], [6.558, 53.7], [6.54, 53.6866], [6.52, 53.6851], [6.5138, 53.68], [6.5, 53.6685], [6.4858, 53.66], [6.48, 53.6552], [6.4618, 53.64], [6.46, 53.6388], [6.44, 53.6207], [6.42, 53.6207], [6.4192, 53.62], [6.4, 53.6012], [6.38, 53.6004], [6.3796, 53.6], [6.38, 53.5989], [6.3866, 53.58], [6.38, 53.5732], [6.3677, 53.56], [6.36, 53.552], [6.3434, 53.54], [6.34, 53.5378], [6.3204, 53.52], [6.32, 53.5198], [6.3, 53.5198], [6.28, 53.5198], [6.26, 53.5148], [6.24, 53.5112], [6.22, 53.5084], [6.2, 53.5089], [6.1836, 53.5], [6.18, 53.4969], [6.1671, 53.5], [6.16, 53.5017], [6.1568, 53.5], [6.14, 53.4906], [6.1243, 53.48], [6.12, 53.4744], [6.1, 53.4611], [6.099, 53.46], [6.08, 53.4421], [6.075, 53.44], [6.06, 53.4316], [6.0475, 53.42], [6.04, 53.419], [6.0377, 53.42], [6.02, 53.4341], [6.0, 53.4352], [5.98, 53.4236], [5.96, 53.4229], [5.9574, 53.42], [5.94, 53.4045], [5.9359, 53.4], [5.92, 53.3951], [5.9099, 53.4], [5.9, 53.4099], [5.88, 53.4068], [5.8715, 53.4], [5.86, 53.3884], [5.853, 53.38], [5.84, 53.3712], [5.8204, 53.36], [5.82, 53.3597], [5.8, 53.356], [5.78, 53.3555], [5.76, 53.3467], [5.748, 53.34], [5.74, 53.334], [5.72, 53.3259], [5.7, 53.3216], [5.68, 53.3214], [5.6775, 53.32], [5.66, 53.3075], [5.6448, 53.3], [5.64, 53.2962], [5.62, 53.287], [5.6, 53.2823], [5.5971, 53.28], [5.58, 53.265], [5.56, 53.2616], [5.5579, 53.26], [5.54, 53.2475], [5.5296, 53.24], [5.52, 53.2235], [5.5148, 53.22], [5.5, 53.2124], [5.48, 53.2063], [5.46, 53.2098], [5.44, 53.2121], [5.4288, 53.22], [5.42, 53.2256], [5.4093, 53.22], [5.4, 53.2087], [5.3908, 53.2], [5.38, 53.195], [5.36, 53.1907], [5.34, 53.187], [5.32, 53.182], [5.3176, 53.18], [5.3, 53.165], [5.2918, 53.16], [5.28, 53.1493], [5.2695, 53.14], [5.26, 53.1338], [5.2454, 53.12], [5.24, 53.1148], [5.2244, 53.1], [5.22, 53.0935], [5.2, 53.0935], [5.186, 53.08], [5.18, 53.074], [5.1707, 53.06], [5.16, 53.0495], [5.1451, 53.04], [5.14, 53.0349], [5.1239, 53.02], [5.12, 53.0162], [5.1025, 53.0], [5.1, 52.9985], [5.0803, 52.98], [5.08, 52.9796], [5.0604, 52.96], [5.06, 52.9597], [5.0579, 52.96], [5.04, 52.9665], [5.02, 52.9632], [5.0153, 52.96], [5.0, 52.9478], [4.9916, 52.94], [4.98, 52.9359], [4.96, 52.93], [4.9436, 52.92], [4.94, 52.9176], [4.92, 52.9125], [4.9, 52.9019], [4.897, 52.9], [4.88, 52.889], [4.861, 52.88], [4.86, 52.8794], [4.84, 52.8759], [4.82, 52.8655], [4.8008, 52.86], [4.8, 52.8593], [4.7831, 52.84], [4.8, 52.8231], [4.8014, 52.82], [4.8, 52.8188], [4.78, 52.8188], [4.7766, 52.82], [4.76, 52.8246], [4.7545, 52.82], [4.76, 52.8061], [4.7623, 52.8], [4.76, 52.7976], [4.74, 52.7915], [4.7315, 52.78], [4.72, 52.7663], [4.7046, 52.76], [4.7, 52.7581], [4.68, 52.7525], [4.66, 52.7536], [4.64, 52.7536], [4.627, 52.74], [4.62, 52.7334], [4.6, 52.7204], [4.5994, 52.72], [4.58, 52.7086], [4.5711, 52.7], [4.56, 52.6843], [4.5575, 52.68], [4.54, 52.6636], [4.5345, 52.66], [4.52, 52.6472], [4.5129, 52.64], [4.5, 52.6316], [4.48, 52.6265], [4.4703, 52.62], [4.46, 52.6111], [4.4478, 52.6], [4.44, 52.5946], [4.4245, 52.58], [4.42, 52.5741], [4.4095, 52.56], [4.4, 52.5513], [4.3837, 52.54], [4.38, 52.5367], [4.3611, 52.52], [4.36, 52.519], [4.34, 52.5047], [4.32, 52.5029], [4.3118, 52.5], [4.3, 52.4926], [4.28, 52.482], [4.2766, 52.48], [4.26, 52.4733], [4.2407, 52.46], [4.24, 52.4589], [4.2257, 52.44], [4.22, 52.4367], [4.2, 52.4331], [4.18, 52.4229], [4.1749, 52.42], [4.16, 52.4102], [4.14, 52.4091], [4.1256, 52.4], [4.12, 52.3962], [4.1, 52.3921], [4.08, 52.3845], [4.072, 52.38], [4.06, 52.3726], [4.0401, 52.36], [4.04, 52.3599], [4.02, 52.3597], [4.0, 52.3522], [3.98, 52.3438], [3.9738, 52.34], [3.96, 52.3328], [3.94, 52.3234], [3.92, 52.3217], [3.9165, 52.32], [3.9, 52.3031], [3.8969, 52.3], [3.88, 52.2911], [3.86, 52.2828], [3.8438, 52.28], [3.84, 52.2793], [3.82, 52.2792], [3.8, 52.267], [3.786, 52.26], [3.78, 52.2569], [3.76, 52.256], [3.74, 52.2493], [3.72, 52.2417], [3.7, 52.2413], [3.68, 52.2406], [3.6788, 52.24], [3.66, 52.2303], [3.64, 52.2221], [3.62, 52.2216], [3.6164, 52.22], [3.6, 52.2119], [3.58, 52.2065], [3.56, 52.2065], [3.54, 52.204], [3.5312, 52.2], [3.52, 52.1945], [3.5, 52.1904], [3.48, 52.185], [3.4706, 52.18], [3.46, 52.169], [3.44, 52.1663], [3.42, 52.1656], [3.4, 52.1626], [3.3941, 52.16], [3.38, 52.1459], [3.3716, 52.14], [3.36, 52.1358], [3.34, 52.1329], [3.32, 52.128], [3.3028, 52.12], [3.3, 52.1184], [3.28, 52.114], [3.26, 52.1048], [3.24, 52.1043], [3.2339, 52.1], [3.22, 52.0907], [3.2, 52.0805], [3.195, 52.08], [3.18, 52.0786], [3.16, 52.0697], [3.14, 52.0604], [3.12, 52.0602], [3.1195, 52.06], [3.1, 52.0511], [3.08, 52.0418], [3.06, 52.0418], [3.0492, 52.04], [3.0492, 52.02], [3.04, 52.0193], [3.0384, 52.02], [3.02, 52.0284], [3.0068, 52.02], [3.0, 52.0123], [2.9895, 52.0], [2.98, 51.9945], [2.96, 51.9891], [2.94, 51.9839], [2.9328, 51.98], [2.92, 51.9734], [2.9, 51.9672], [2.88, 51.9667], [2.86, 51.9633], [2.8532, 51.96], [2.84, 51.9535], [2.82, 51.9491], [2.8, 51.9452], [2.7885, 51.94], [2.78, 51.9359], [2.76, 51.9326], [2.74, 51.9332], [2.72, 51.9275], [2.705, 51.92], [2.7, 51.9176], [2.68, 51.915], [2.66, 51.9086], [2.6439, 51.9], [2.64, 51.896], [2.622, 51.88], [2.62, 51.8791], [2.6, 51.8777], [2.58, 51.8764], [2.56, 51.8724], [2.5524, 51.88], [2.54, 51.89], [2.52, 51.8932], [2.5, 51.8925]]}}]}