{"type": "FeatureCollection", "features": [{"type": "Feature", "properties": {"level": 1030.0}, "geometry": {"type": "LineString", "coordinates": [[3.3224, 50.5], [3.32, 50.5024], [3.3, 50.5141], [3.2942, 50.52], [3.3, 50.5244], [3.32, 50.525], [3.34, 50.5291], [3.348, 50.54], [3.36, 50.554], [3.38, 50.5564], [3.3854, 50.56], [3.4, 50.5733], [3.42, 50.5739], [3.44, 50.5756], [3.4499, 50.58], [3.46, 50.586], [3.474, 50.6], [3.48, 50.6086], [3.4859, 50.6], [3.5, 50.5859], [3.5034, 50.58], [3.5, 50.5701], [3.4941, 50.56], [3.48, 50.5476], [3.4753, 50.54], [3.4706, 50.52], [3.46, 50.5059], [3.44, 50.5078], [3.4307, 50.5]]}}, {"type": "Feature", "properties": {"level": 1030.0}, "geometry": {"type": "LineString", "coordinates": [[3.3661, 50.52], [3.38, 50.5125], [3.4, 50.5126], [3.4061, 50.52], [3.4, 50.5224], [3.38, 50.5255], [3.3661, 50.52]]}}, {"type": "Feature", "properties": {"level": 1030.0}, "geometry": {"type": "LineString", "coordinates": [[3.34, 50.5738], [3.3298, 50.58], [3.34, 50.5847], [3.36, 50.5858], [3.3705, 50.58], [3.36, 50.568], [3.34, 50.5738]]}}, {"type": "Feature", "properties": {"level": 1030.0}, "geometry": {"type": "LineString", "coordinates": [[3.2193, 50.66], [3.22, 50.6582], [3.2224, 50.66], [3.22, 50.6608], [3.2193, 50.66]]}}, {"type": "Feature", "properties": {"level": 1030.0}, "geometry": {"type": "LineString", "coordinates": [[3.58, 50.6779], [3.579, 50.68], [3.58, 50.681], [3.5867, 50.7], [3.6, 50.7133], [3.6138, 50.72], [3.6, 50.7311], [3.5883, 50.74], [3.6, 50.7552], [3.62, 50.7552], [3.6371, 50.74], [3.64, 50.7353], [3.6436, 50.72], [3.64, 50.7115], [3.6354, 50.7], [3.64, 50.6967], [3.6537, 50.68], [3.64, 50.6635], [3.62, 50.6614], [3.6, 50.671], [3.58, 50.6779]]}}, {"type": "Feature", "properties": {"level": 1030.0}, "geometry": {"type": "LineString", "coordinates": [[3.48, 50.7298], [3.4683, 50.74], [3.46, 50.7547], [3.4571, 50.76], [3.46, 50.7637], [3.48, 50.763], [3.4832, 50.76], [3.5, 50.7483], [3.52, 50.7561], [3.54, 50.7403], [3.56, 50.7534], [3.5749, 50.74], [3.56, 50.7295], [3.54, 50.7398], [3.52, 50.727], [3.5, 50.7324], [3.48, 50.7298]]}}, {"type": "Feature", "properties": {"level": 1030.0}, "geometry": {"type": "LineString", "coordinates": [[3.66, 50.7515], [3.6548, 50.76], [3.66, 50.7665], [3.6742, 50.78], [3.68, 50.786], [3.6863, 50.78], [3.7, 50.7634], [3.7015, 50.76], [3.7, 50.757], [3.68, 50.7502], [3.66, 50.7515]]}}, {"type": "Feature", "properties": {"level": 1030.0}, "geometry": {"type": "LineString", "coordinates": [[4.08, 51.3797], [4.079, 51.38], [4.08, 51.3811], [4.1, 51.3811], [4.101, 51.38], [4.1, 51.3797], [4.08, 51.3797]]}}, {"type": "Feature", "properties": {"level": 1030.0}, "geometry": {"type": "LineString", "coordinates": [[6.8591, 53.58], [6.86, 53.5778], [6.8687, 53.58], [6.86, 53.5813], [6.8591, 53.58]]}}, {"type": "Feature", "properties": {"level": 1030.0}, "geometry": {"type": "LineString", "coordinates": [[7.5758, 53.98], [7.56, 53.9712], [7.5441, 53.96], [7.54, 53.9572], [7.52, 53.9567], [7.5, 53.9468], [7.4821, 53.94], [7.48, 53.9392], [7.46, 53.9284], [7.44, 53.926], [7.4313, 53.92], [7.42, 53.9139], [7.4002, 53.9], [7.4, 53.8997], [7.386, 53.88], [7.38, 53.868], [7.3717, 53.86], [7.36, 53.8469], [7.34, 53.8432], [7.3372, 53.84], [7.32, 53.8256], [7.3106, 53.82], [7.3, 53.8117], [7.2848, 53.8], [7.28, 53.7973], [7.26, 53.7872], [7.24, 53.7837], [7.2298, 53.78], [7.22, 53.7771], [7.2, 53.7682], [7.1873, 53.76], [7.18, 53.7515], [7.17, 53.74], [7.16, 53.7346], [7.1474, 53.74], [7.14, 53.7474], [7.12, 53.7438], [7.1135, 53.74], [7.12, 53.7209], [7.1202, 53.72], [7.12, 53.7198], [7.1, 53.7195], [7.08, 53.7033], [7.06, 53.7048], [7.057, 53.7], [7.04, 53.6875], [7.029, 53.68], [7.02, 53.6733], [7.0, 53.6626], [6.9943, 53.66], [6.98, 53.6503], [6.96, 53.6503], [6.94, 53.6401], [6.9398, 53.64], [6.92, 53.6282], [6.9, 53.624], [6.88, 53.622], [6.8738, 53.62], [6.88, 53.6149], [6.8886, 53.6], [6.9, 53.5813], [6.9007, 53.58], [6.9, 53.5786], [6.88, 53.5687], [6.8778, 53.56], [6.8629, 53.54], [6.86, 53.5382], [6.84, 53.5297], [6.8277, 53.52], [6.82, 53.5131], [6.8071, 53.5], [6.8, 53.4964], [6.78, 53.4904], [6.76, 53.486], [6.74, 53.4879], [6.7259, 53.48], [6.72, 53.4776], [6.7, 53.4768], [6.68, 53.4704], [6.66, 53.4617], [6.64, 53.4617], [6.62, 53.4619], [6.6168, 53.46], [6.6, 53.4521], [6.58, 53.4446], [6.56, 53.4447], [6.54, 53.444], [6.5323, 53.44], [6.52, 53.4339], [6.5, 53.4304], [6.48, 53.4265], [6.46, 53.4269], [6.4433, 53.42], [6.44, 53.4181], [6.42, 53.416], [6.4, 53.4069], [6.3866, 53.4], [6.38, 53.3918], [6.36, 53.3952], [6.34, 53.3863], [6.32, 53.3825], [6.3149, 53.38], [6.3, 53.3604], [6.2997, 53.36], [6.28, 53.3457], [6.26, 53.3457], [6.2506, 53.34], [6.24, 53.3325], [6.22, 53.3248], [6.2, 53.3217], [6.1959, 53.32], [6.18, 53.3107], [6.1633, 53.3], [6.16, 53.2983], [6.14, 53.2985], [6.12, 53.2969], [6.1, 53.2907], [6.08, 53.2876], [6.06, 53.2911], [6.04, 53.2899], [6.02, 53.2844], [6.0159, 53.28], [6.0119, 53.26], [6.0039, 53.24], [6.0077, 53.22], [6.0, 53.212], [5.9912, 53.2], [5.98, 53.1932], [5.96, 53.1878], [5.94, 53.1875], [5.92, 53.1884], [5.9134, 53.18], [5.9, 53.1717], [5.8822, 53.16], [5.88, 53.1587], [5.873, 53.16], [5.86, 53.1646], [5.8532, 53.16], [5.84, 53.1538], [5.82, 53.1549], [5.8, 53.1507], [5.78, 53.1491], [5.7626, 53.14], [5.76, 53.1389], [5.74, 53.1342], [5.72, 53.1342], [5.7, 53.1269], [5.6875, 53.12], [5.68, 53.1071], [5.6605, 53.1], [5.66, 53.0994], [5.64, 53.0898], [5.62, 53.0823], [5.6164, 53.08], [5.62, 53.0775], [5.6359, 53.06], [5.64, 53.0536], [5.6512, 53.04], [5.64, 53.0282], [5.6293, 53.02], [5.625, 53.0], [5.62, 52.9893], [5.6, 52.983], [5.5984, 52.98], [5.58, 52.9672], [5.56, 52.964], [5.5552, 52.96], [5.54, 52.9478], [5.5321, 52.94], [5.54, 52.9217], [5.5417, 52.92], [5.54, 52.9181], [5.5323, 52.9], [5.52, 52.8829], [5.5166, 52.88], [5.5, 52.8651], [5.4961, 52.86], [5.48, 52.8454], [5.4754, 52.84], [5.48, 52.829], [5.4863, 52.82], [5.48, 52.8136], [5.4677, 52.8], [5.46, 52.7937], [5.44, 52.7819], [5.4381, 52.78], [5.42, 52.7623], [5.4174, 52.76], [5.4, 52.7435], [5.38, 52.7435], [5.3744, 52.74], [5.36, 52.7307], [5.3468, 52.72], [5.3422, 52.7], [5.34, 52.6979], [5.3354, 52.7], [5.32, 52.7057], [5.3123, 52.7], [5.3, 52.6828], [5.2972, 52.68], [5.28, 52.6656], [5.2739, 52.66], [5.26, 52.6497], [5.2437, 52.64], [5.24, 52.6377], [5.22, 52.6373], [5.2, 52.6265], [5.18, 52.6252], [5.1628, 52.62], [5.16, 52.6187], [5.14, 52.617], [5.12, 52.617], [5.1, 52.612], [5.08, 52.6124], [5.06, 52.6164], [5.0526, 52.62], [5.04, 52.6352], [5.02, 52.632], [5.0, 52.6322], [4.98, 52.6273], [4.9681, 52.62], [4.96, 52.6169], [4.9535, 52.62], [4.94, 52.6313], [4.9319, 52.64], [4.92, 52.6519], [4.9, 52.6478], [4.8896, 52.64], [4.88, 52.6317], [4.87, 52.62], [4.86, 52.6098], [4.84, 52.6027], [4.82, 52.6036], [4.8137, 52.6], [4.8133, 52.58], [4.8125, 52.56], [4.8, 52.5518], [4.7871, 52.54], [4.78, 52.5351], [4.76, 52.5295], [4.74, 52.5272], [4.72, 52.5239], [4.7153, 52.52], [4.7, 52.5025], [4.6975, 52.5], [4.68, 52.4875], [4.6633, 52.48], [4.66, 52.478], [4.64, 52.4629], [4.6373, 52.46], [4.62, 52.4438], [4.6, 52.4438], [4.5957, 52.44], [4.58, 52.4253], [4.5755, 52.42], [4.56, 52.4031], [4.54, 52.4009], [4.5392, 52.4], [4.54, 52.3978], [4.5474, 52.38], [4.54, 52.3713], [4.531, 52.36], [4.52, 52.3482], [4.508, 52.34], [4.5, 52.3307], [4.4922, 52.32], [4.48, 52.3097], [4.4719, 52.3], [4.46, 52.2873], [4.4534, 52.28], [4.46, 52.2628], [4.4614, 52.26], [4.46, 52.2586], [4.44, 52.2563], [4.4253, 52.24], [4.42, 52.2347], [4.4057, 52.22], [4.4, 52.2155], [4.38, 52.2067], [4.36, 52.2006], [4.3594, 52.2], [4.34, 52.1817], [4.3383, 52.18], [4.32, 52.1688], [4.3114, 52.16], [4.3, 52.1419], [4.2987, 52.14], [4.28, 52.1209], [4.2788, 52.12], [4.26, 52.1045], [4.2549, 52.1], [4.24, 52.0877], [4.231, 52.08], [4.22, 52.0717], [4.207, 52.06], [4.2, 52.0506], [4.1934, 52.04], [4.18, 52.0238], [4.1738, 52.02], [4.16, 52.0033], [4.1571, 52.0], [4.1472, 51.98], [4.14, 51.9625], [4.12, 51.9607], [4.1157, 51.96], [4.1, 51.9501], [4.0935, 51.94], [4.0935, 51.92], [4.08, 51.9073], [4.0704, 51.9], [4.0748, 51.88], [4.08, 51.8605], [4.0802, 51.86], [4.08, 51.8582], [4.0793, 51.84], [4.08, 51.8383], [4.0903, 51.82], [4.08, 51.8124], [4.06, 51.8069], [4.04, 51.8012], [4.0382, 51.8], [4.0378, 51.78], [4.04, 51.7708], [4.0435, 51.76], [4.044, 51.74], [4.04, 51.7314], [4.0333, 51.72], [4.04, 51.7041], [4.0439, 51.7], [4.04, 51.698], [4.02, 51.6965], [4.0123, 51.7], [4.0, 51.7035], [3.98, 51.7033], [3.9671, 51.7], [3.9651, 51.68], [3.9602, 51.66], [3.96, 51.6597], [3.9567, 51.64], [3.96, 51.6363], [3.9738, 51.62], [3.98, 51.6127], [3.9992, 51.6], [3.98, 51.581], [3.9791, 51.58], [3.98, 51.5775], [4.0, 51.5775], [4.0102, 51.56], [4.0, 51.5438], [3.98, 51.5467], [3.96, 51.5465], [3.94, 51.5445], [3.92, 51.5425], [3.9113, 51.54], [3.9093, 51.52], [3.9, 51.514], [3.8912, 51.5], [3.9, 51.4897], [3.9089, 51.48], [3.92, 51.4714], [3.9392, 51.48], [3.94, 51.4818], [3.944, 51.48], [3.96, 51.4773], [3.9777, 51.46], [3.98, 51.4578], [3.9869, 51.46], [4.0, 51.4659], [4.0044, 51.46], [4.02, 51.4513], [4.0259, 51.44], [4.04, 51.4212], [4.0409, 51.42], [4.042, 51.4], [4.04, 51.3988], [4.02, 51.3971], [4.0134, 51.4], [4.0, 51.4113], [3.98, 51.4116], [3.9692, 51.4], [3.96, 51.3941], [3.9432, 51.38], [3.94, 51.3771], [3.92, 51.3658], [3.9004, 51.36], [3.9, 51.3599], [3.88, 51.3477], [3.8688, 51.34], [3.86, 51.3327], [3.84, 51.323], [3.82, 51.3218], [3.8148, 51.32], [3.8, 51.3034], [3.7966, 51.3], [3.78, 51.2862], [3.76, 51.2852], [3.7533, 51.28], [3.76, 51.2643], [3.762, 51.26], [3.7604, 51.24], [3.76, 51.2397], [3.7495, 51.22], [3.74, 51.2007], [3.7397, 51.2], [3.7393, 51.18], [3.74, 51.1769], [3.7467, 51.16], [3.74, 51.1544], [3.7219, 51.14], [3.7241, 51.12], [3.72, 51.1159], [3.7103, 51.1], [3.72, 51.0854], [3.7217, 51.08], [3.72, 51.0781], [3.7009, 51.06], [3.7, 51.0586], [3.68, 51.052], [3.66, 51.0453], [3.6487, 51.04], [3.64, 51.0368], [3.62, 51.0363], [3.6, 51.0287], [3.5893, 51.02], [3.58, 51.0112], [3.5634, 51.0], [3.56, 50.9963], [3.5509, 50.98], [3.54, 50.9701], [3.5259, 50.96], [3.52, 50.953], [3.5039, 50.94], [3.5, 50.9379], [3.48, 50.9269], [3.46, 50.9269], [3.44, 50.9227], [3.4374, 50.92], [3.44, 50.9092], [3.46, 50.9075], [3.4652, 50.9], [3.46, 50.899], [3.4467, 50.88], [3.4427, 50.86], [3.46, 50.8433], [3.48, 50.8475], [3.4805, 50.84], [3.48, 50.8394], [3.46, 50.8378], [3.44, 50.8297], [3.4231, 50.84], [3.42, 50.8477], [3.4, 50.8427], [3.3974, 50.84], [3.38, 50.8226], [3.3761, 50.82], [3.3678, 50.8], [3.38, 50.7876], [3.3855, 50.78], [3.38, 50.7717], [3.3742, 50.76], [3.3603, 50.74], [3.36, 50.7397], [3.34, 50.7236], [3.332, 50.72], [3.32, 50.7105], [3.3113, 50.7], [3.3, 50.6854], [3.2925, 50.68], [3.28, 50.6626], [3.2783, 50.66], [3.26, 50.6506], [3.24, 50.6424], [3.2382, 50.64], [3.2349, 50.62], [3.22, 50.61], [3.2041, 50.6], [3.2, 50.5967], [3.18, 50.5907], [3.16, 50.5856], [3.1519, 50.58], [3.14, 50.5609], [3.1387, 50.56], [3.1387, 50.54], [3.12, 50.534], [3.1, 50.5302], [3.08, 50.5232], [3.0719, 50.52], [3.06, 50.5101], [3.04, 50.5099], [3.033, 50.5]]}}]}