{"type": "FeatureCollection", "features": [{"type": "Feature", "properties": {"level": 1030.0}, "geometry": {"type": "LineString", "coordinates": [[8.5, 53.4957], [8.4956, 53.5], [8.4912, 53.52], [8.48, 53.5356], [8.4729, 53.54], [8.46, 53.5433], [8.44, 53.5463], [8.42, 53.5479], [8.4, 53.5483], [8.38, 53.5459], [8.36, 53.5555], [8.34, 53.5555], [8.32, 53.5596], [8.3193, 53.56], [8.3123, 53.58], [8.3, 53.5985], [8.2987, 53.6], [8.28, 53.6075], [8.26, 53.6179], [8.24, 53.6188], [8.2381, 53.62], [8.22, 53.6269], [8.2, 53.6292], [8.18, 53.6332], [8.16, 53.6339], [8.14, 53.6311], [8.12, 53.6302], [8.1, 53.633], [8.08, 53.6337], [8.0721, 53.64], [8.06, 53.6489], [8.04, 53.6543], [8.02, 53.6555], [8.0099, 53.66], [8.0, 53.6647], [7.98, 53.6663], [7.96, 53.6736], [7.947, 53.68], [7.94, 53.6843], [7.9217, 53.7], [7.9217, 53.72], [7.92, 53.7207], [7.9, 53.7213], [7.88, 53.721], [7.86, 53.726], [7.84, 53.726], [7.82, 53.7292], [7.8, 53.7276], [7.78, 53.735], [7.7653, 53.74], [7.76, 53.743], [7.74, 53.7566], [7.72, 53.7591], [7.7189, 53.76], [7.7, 53.774], [7.6859, 53.78], [7.68, 53.7816], [7.6695, 53.78], [7.66, 53.778], [7.6546, 53.78], [7.64, 53.7847], [7.62, 53.7853], [7.6, 53.7842], [7.58, 53.7951], [7.56, 53.7932], [7.54, 53.7928], [7.52, 53.7952], [7.5, 53.7971], [7.48, 53.7989], [7.46, 53.7986], [7.4591, 53.8], [7.44, 53.8164], [7.4327, 53.82], [7.42, 53.8263], [7.4, 53.8311], [7.38, 53.8356], [7.3695, 53.84], [7.36, 53.8452], [7.34, 53.8489], [7.32, 53.8538], [7.3016, 53.86], [7.3, 53.8612], [7.28, 53.8627], [7.26, 53.8627], [7.2513, 53.88], [7.24, 53.8837], [7.22, 53.8809], [7.2, 53.8807], [7.18, 53.8877], [7.16, 53.8877], [7.14, 53.8905], [7.12, 53.894], [7.1, 53.8938], [7.0824, 53.9], [7.08, 53.901], [7.06, 53.9014], [7.04, 53.913], [7.0207, 53.92], [7.02, 53.9201], [7.0, 53.9202], [6.98, 53.9201], [6.96, 53.9251], [6.94, 53.9239], [6.92, 53.9291], [6.9, 53.9301], [6.88, 53.9299], [6.86, 53.9287], [6.84, 53.9287], [6.82, 53.9328], [6.8, 53.9306], [6.78, 53.9328], [6.7622, 53.94], [6.76, 53.941], [6.74, 53.9461], [6.72, 53.9525], [6.7, 53.9517], [6.6869, 53.94], [6.68, 53.9376], [6.66, 53.9376], [6.6552, 53.94], [6.64, 53.9485], [6.6211, 53.94], [6.62, 53.9391], [6.6, 53.932], [6.58, 53.9215], [6.56, 53.9215], [6.5584, 53.92], [6.54, 53.9124], [6.5232, 53.92], [6.52, 53.9217], [6.5166, 53.92], [6.5, 53.9046], [6.48, 53.9046], [6.4749, 53.9], [6.46, 53.8941], [6.44, 53.8915], [6.4238, 53.9], [6.42, 53.9019], [6.4, 53.9015], [6.38, 53.9063], [6.36, 53.9027], [6.34, 53.9018], [6.32, 53.9012], [6.3, 53.9017], [6.28, 53.9043], [6.2701, 53.9], [6.26, 53.8952], [6.24, 53.8885], [6.22, 53.8835], [6.2, 53.8808], [6.1986, 53.88], [6.18, 53.8693], [6.1682, 53.86], [6.16, 53.8488], [6.1538, 53.84], [6.14, 53.828], [6.1268, 53.82], [6.12, 53.8142], [6.1, 53.8101], [6.0893, 53.8], [6.08, 53.7913], [6.0627, 53.78], [6.06, 53.7774], [6.0426, 53.76], [6.04, 53.7584], [6.0214, 53.74], [6.02, 53.7378], [6.0, 53.7293], [5.98, 53.7229], [5.96, 53.7212], [5.9587, 53.72], [5.96, 53.7159], [5.965, 53.7], [5.96, 53.6956], [5.94, 53.6887], [5.9247, 53.68], [5.92, 53.6775], [5.9, 53.6601], [5.88, 53.6601], [5.8799, 53.66], [5.8649, 53.64], [5.86, 53.6328], [5.8521, 53.62], [5.84, 53.6021], [5.82, 53.6007], [5.8194, 53.6], [5.82, 53.5984], [5.8268, 53.58], [5.82, 53.5734], [5.8004, 53.56], [5.8, 53.5597], [5.78, 53.552], [5.76, 53.5439], [5.74, 53.5433], [5.7348, 53.54], [5.72, 53.5266], [5.7087, 53.52], [5.7, 53.5127], [5.6887, 53.5], [5.68, 53.4953], [5.6626, 53.48], [5.66, 53.4778], [5.6417, 53.46], [5.64, 53.4563], [5.62, 53.4563], [5.6097, 53.44], [5.62, 53.4205], [5.6207, 53.42], [5.62, 53.4194], [5.6, 53.4194], [5.58, 53.4053], [5.5724, 53.4], [5.56, 53.3916], [5.5423, 53.38], [5.54, 53.3788], [5.52, 53.3763], [5.5, 53.3749], [5.48, 53.3684], [5.4641, 53.36], [5.46, 53.3581], [5.44, 53.3492], [5.42, 53.3436], [5.4045, 53.34], [5.4, 53.3376], [5.38, 53.3267], [5.3733, 53.32], [5.36, 53.3016], [5.359, 53.3], [5.34, 53.2826], [5.3359, 53.28], [5.32, 53.2667], [5.3125, 53.26], [5.3, 53.2486], [5.2901, 53.24], [5.28, 53.2335], [5.26, 53.2305], [5.2497, 53.22], [5.24, 53.2099], [5.2304, 53.2], [5.22, 53.1896], [5.214, 53.18], [5.2, 53.1639], [5.1945, 53.16], [5.1868, 53.14], [5.18, 53.1248], [5.1771, 53.12], [5.1614, 53.1], [5.16, 53.0991], [5.14, 53.0815], [5.12, 53.0801], [5.1197, 53.08], [5.1197, 53.06], [5.1, 53.0452], [5.0927, 53.04], [5.08, 53.0366], [5.06, 53.0309], [5.0463, 53.02], [5.04, 53.0147], [5.0218, 53.0], [5.02, 52.9988], [5.0, 52.9877], [4.9911, 52.98], [4.98, 52.9731], [4.9634, 52.96], [4.96, 52.9559], [4.94, 52.9559], [4.9284, 52.94], [4.92, 52.9333], [4.9025, 52.94], [4.9, 52.9411], [4.8985, 52.94], [4.9, 52.935], [4.9035, 52.92], [4.9, 52.9169], [4.88, 52.9135], [4.86, 52.9069], [4.8445, 52.9], [4.84, 52.898], [4.8302, 52.9], [4.82, 52.9027], [4.8, 52.9021], [4.7969, 52.9], [4.78, 52.8885], [4.7696, 52.88], [4.76, 52.8718], [4.74, 52.8601], [4.7398, 52.86], [4.72, 52.8411], [4.7, 52.8411], [4.6996, 52.84], [4.7, 52.8393], [4.7067, 52.82], [4.7, 52.8108], [4.6892, 52.8], [4.6822, 52.78], [4.6814, 52.76], [4.68, 52.7588], [4.6662, 52.74], [4.66, 52.736], [4.6454, 52.72], [4.64, 52.7134], [4.62, 52.7157], [4.6061, 52.7], [4.6, 52.687], [4.5953, 52.68], [4.6, 52.6604], [4.6002, 52.66], [4.6, 52.6596], [4.58, 52.6596], [4.5683, 52.64], [4.56, 52.6267], [4.5548, 52.62], [4.54, 52.6012], [4.52, 52.6004], [4.5196, 52.6], [4.52, 52.599], [4.5267, 52.58], [4.52, 52.5732], [4.5064, 52.56], [4.5, 52.5541], [4.48, 52.5437], [4.4756, 52.54], [4.46, 52.5267], [4.4518, 52.52], [4.44, 52.5087], [4.42, 52.5087], [4.4109, 52.5], [4.4, 52.4891], [4.3906, 52.48], [4.3906, 52.46], [4.38, 52.4566], [4.3626, 52.44], [4.36, 52.4373], [4.34, 52.4307], [4.3304, 52.42], [4.32, 52.4101], [4.3102, 52.4], [4.3, 52.388], [4.28, 52.3818], [4.2785, 52.38], [4.28, 52.3667], [4.2812, 52.36], [4.28, 52.3581], [4.2697, 52.34], [4.26, 52.3307], [4.2449, 52.32], [4.24, 52.3141], [4.2302, 52.3], [4.22, 52.292], [4.2084, 52.28], [4.2, 52.2684], [4.1862, 52.26], [4.2, 52.2424], [4.2008, 52.24], [4.2, 52.239], [4.18, 52.2381], [4.1788, 52.24], [4.16, 52.2567], [4.1475, 52.26], [4.14, 52.2622], [4.1336, 52.26], [4.12, 52.2543], [4.1, 52.2515], [4.08, 52.2475], [4.0605, 52.24], [4.06, 52.2396], [4.0404, 52.22], [4.04, 52.2198], [4.0369, 52.22], [4.0369, 52.24], [4.02, 52.241], [4.0176, 52.24], [4.0, 52.2322], [3.98, 52.2277], [3.96, 52.2249], [3.948, 52.22], [3.94, 52.2129], [3.9271, 52.2], [3.92, 52.1966], [3.9, 52.195], [3.88, 52.1954], [3.86, 52.189], [3.84, 52.1827], [3.82, 52.1839], [3.8161, 52.18], [3.8, 52.1737], [3.78, 52.1722], [3.76, 52.1737], [3.74, 52.1692], [3.72, 52.1636], [3.7, 52.1623], [3.6949, 52.16], [3.68, 52.1536], [3.66, 52.1503], [3.64, 52.1518], [3.62, 52.1473], [3.6, 52.1408], [3.58, 52.1405], [3.5787, 52.14], [3.56, 52.1325], [3.54, 52.1299], [3.52, 52.127], [3.5015, 52.12], [3.5, 52.1193], [3.4922, 52.12], [3.48, 52.1216], [3.46, 52.121], [3.4578, 52.12], [3.44, 52.1119], [3.42, 52.106], [3.4, 52.1035], [3.3922, 52.1], [3.38, 52.0942], [3.36, 52.0897], [3.34, 52.0901], [3.32, 52.0854], [3.3086, 52.08], [3.3, 52.0757], [3.28, 52.0711], [3.26, 52.0656], [3.2489, 52.06], [3.24, 52.0556], [3.22, 52.0513], [3.2, 52.0508], [3.18, 52.0458], [3.1676, 52.04], [3.16, 52.0328], [3.1446, 52.02], [3.14, 52.0183], [3.12, 52.0175], [3.1, 52.0126], [3.08, 52.0073], [3.06, 52.0061], [3.04, 52.0068], [3.02, 52.0074], [3.0, 52.0027], [2.9955, 52.0], [2.98, 51.9963], [2.96, 51.9937], [2.94, 51.99], [2.92, 51.9855], [2.9, 51.9887], [2.88, 51.9865], [2.86, 51.9809], [2.84, 51.9807], [2.8384, 51.98], [2.82, 51.9733], [2.8, 51.9718], [2.78, 51.9691], [2.76, 51.9706], [2.74, 51.9669], [2.72, 51.9649], [2.7082, 51.96], [2.7, 51.9571], [2.6814, 51.96], [2.68, 51.9603], [2.6793, 51.96], [2.66, 51.954], [2.64, 51.9564], [2.62, 51.9575], [2.6, 51.9567], [2.58, 51.9549], [2.56, 51.9562], [2.54, 51.9543], [2.52, 51.9523], [2.5, 51.9554]]}}]}