{"type": "FeatureCollection", "features": [{"type": "Feature", "properties": {"level": 1015.0}, "geometry": {"type": "LineString", "coordinates": [[5.08, 53.6599], [5.0799, 53.66], [5.08, 53.6601], [5.1, 53.6606], [5.1001, 53.66], [5.1, 53.6599], [5.08, 53.6599]]}}, {"type": "Feature", "properties": {"level": 1015.0}, "geometry": {"type": "LineString", "coordinates": [[7.1653, 53.84], [7.18, 53.8327], [7.2, 53.8342], [7.22, 53.8322], [7.24, 53.8396], [7.26, 53.8391], [7.2621, 53.84], [7.26, 53.8403], [7.2503, 53.86], [7.2542, 53.88], [7.24, 53.8874], [7.22, 53.8892], [7.2, 53.8847], [7.18, 53.8858], [7.16, 53.8858], [7.1462, 53.88], [7.16, 53.8677], [7.1653, 53.86], [7.1653, 53.84]]}}, {"type": "Feature", "properties": {"level": 1015.0}, "geometry": {"type": "LineString", "coordinates": [[5.1161, 53.92], [5.12, 53.9012], [5.14, 53.9004], [5.16, 53.9172], [5.1668, 53.92], [5.16, 53.929], [5.14, 53.929], [5.12, 53.9221], [5.1161, 53.92]]}}, {"type": "Feature", "properties": {"level": 1015.0}, "geometry": {"type": "LineString", "coordinates": [[5.1968, 53.94], [5.2, 53.9391], [5.201, 53.94], [5.2, 53.9406], [5.1968, 53.94]]}}, {"type": "Feature", "properties": {"level": 1015.0}, "geometry": {"type": "LineString", "coordinates": [[3.134, 53.98], [3.1207, 53.96], [3.12, 53.9588], [3.1074, 53.94], [3.1, 53.9333], [3.0847, 53.94], [3.08, 53.942], [3.06, 53.9427], [3.0557, 53.94], [3.04, 53.9243], [3.0354, 53.92], [3.02, 53.9136], [3.0, 53.9077], [2.98, 53.9047], [2.97, 53.9], [2.96, 53.8947], [2.94, 53.89], [2.92, 53.8915], [2.9, 53.888], [2.8823, 53.88], [2.88, 53.8793], [2.8766, 53.88], [2.86, 53.8843], [2.84, 53.8803], [2.82, 53.8876], [2.8, 53.8866], [2.7829, 53.88], [2.78, 53.879], [2.7736, 53.88], [2.76, 53.8821], [2.7552, 53.88], [2.74, 53.8733], [2.72, 53.8691], [2.7, 53.8691], [2.68, 53.8659], [2.6681, 53.86], [2.66, 53.8558], [2.64, 53.8486], [2.62, 53.8409], [2.6, 53.8408], [2.5986, 53.84], [2.58, 53.8267], [2.571, 53.82], [2.56, 53.8134], [2.5433, 53.8], [2.54, 53.7954], [2.5286, 53.78], [2.52, 53.7732], [2.5, 53.7614]]}}, {"type": "Feature", "properties": {"level": 1015.0}, "geometry": {"type": "LineString", "coordinates": [[3.5152, 53.98], [3.5, 53.9664], [3.4848, 53.98]]}}, {"type": "Feature", "properties": {"level": 1015.0}, "geometry": {"type": "LineString", "coordinates": [[3.9749, 53.98], [3.96, 53.9693], [3.955, 53.96], [3.94, 53.9497], [3.92, 53.9519], [3.9, 53.9552], [3.88, 53.9572], [3.86, 53.959], [3.8582, 53.96], [3.84, 53.9782], [3.82, 53.9778], [3.8, 53.9702], [3.785, 53.96], [3.7919, 53.94], [3.8, 53.9336], [3.82, 53.9338], [3.84, 53.928], [3.8471, 53.92], [3.84, 53.9105], [3.8295, 53.9], [3.82, 53.8967], [3.8, 53.8966], [3.78, 53.8953], [3.7627, 53.9], [3.76, 53.9018], [3.74, 53.9064], [3.7336, 53.9], [3.72, 53.8981], [3.7147, 53.9], [3.7147, 53.92], [3.7, 53.9349], [3.6839, 53.92], [3.68, 53.9188], [3.66, 53.919], [3.6579, 53.92], [3.64, 53.9342], [3.62, 53.9352], [3.6085, 53.94], [3.62, 53.9519], [3.6266, 53.96], [3.62, 53.9624], [3.6006, 53.98]]}}, {"type": "Feature", "properties": {"level": 1015.0}, "geometry": {"type": "LineString", "coordinates": [[4.3154, 53.98], [4.3, 53.9646], [4.2953, 53.96], [4.3, 53.9478], [4.3064, 53.94], [4.3, 53.9384], [4.28, 53.9384], [4.26, 53.9325], [4.24, 53.9226], [4.22, 53.9277], [4.2, 53.9269], [4.1948, 53.92], [4.2, 53.9039], [4.22, 53.9039], [4.2223, 53.9], [4.22, 53.892], [4.2174, 53.88], [4.22, 53.8736], [4.24, 53.8768], [4.2432, 53.88], [4.26, 53.8897], [4.2672, 53.9], [4.28, 53.914], [4.3, 53.9138], [4.32, 53.9174], [4.34, 53.9141], [4.3483, 53.92], [4.36, 53.9275], [4.38, 53.9206], [4.4, 53.9206], [4.42, 53.9204], [4.44, 53.9205], [4.4414, 53.92], [4.44, 53.9186], [4.43, 53.9], [4.42, 53.8866], [4.4086, 53.88], [4.4, 53.8772], [4.3967, 53.88], [4.38, 53.8967], [4.36, 53.8904], [4.3432, 53.88], [4.34, 53.877], [4.3315, 53.86], [4.32, 53.8459], [4.3043, 53.84], [4.3, 53.838], [4.2968, 53.84], [4.28, 53.846], [4.26, 53.8522], [4.24, 53.8493], [4.22, 53.8535], [4.2037, 53.84], [4.2, 53.838], [4.18, 53.837], [4.16, 53.8381], [4.1558, 53.84], [4.14, 53.8587], [4.1392, 53.86], [4.12, 53.8764], [4.1139, 53.88], [4.12, 53.8884], [4.1258, 53.9], [4.12, 53.9088], [4.1, 53.9102], [4.08, 53.9078], [4.0656, 53.9], [4.06, 53.8938], [4.0522, 53.88], [4.0508, 53.86], [4.06, 53.8529], [4.0741, 53.84], [4.08, 53.8341], [4.1, 53.8314], [4.12, 53.831], [4.1265, 53.82], [4.12, 53.8154], [4.1, 53.8051], [4.08, 53.8066], [4.06, 53.8102], [4.04, 53.8155], [4.0272, 53.82], [4.02, 53.8269], [4.0059, 53.84], [4.0, 53.847], [3.9867, 53.86], [3.98, 53.8697], [3.9747, 53.88], [3.9717, 53.9], [3.98, 53.9114], [3.9842, 53.92], [3.98, 53.9279], [3.9679, 53.94], [3.98, 53.9563], [3.9836, 53.96], [3.9828, 53.98]]}}, {"type": "Feature", "properties": {"level": 1015.0}, "geometry": {"type": "LineString", "coordinates": [[6.5392, 53.98], [6.52, 53.9666], [6.5137, 53.96], [6.5, 53.9561], [6.48, 53.9531], [6.4645, 53.94], [6.46, 53.9366], [6.4441, 53.94], [6.44, 53.9418], [6.4379, 53.94], [6.42, 53.9315], [6.4085, 53.92], [6.42, 53.9097], [6.428, 53.9], [6.44, 53.8899], [6.46, 53.8862], [6.48, 53.8841], [6.4902, 53.88], [6.5, 53.8766], [6.5091, 53.88], [6.52, 53.8846], [6.5343, 53.88], [6.54, 53.8783], [6.5433, 53.88], [6.56, 53.8877], [6.58, 53.8894], [6.6, 53.8982], [6.604, 53.9], [6.62, 53.9092], [6.64, 53.9135], [6.659, 53.92], [6.66, 53.9205], [6.68, 53.9205], [6.6832, 53.92], [6.7, 53.9185], [6.7023, 53.92], [6.72, 53.9312], [6.7355, 53.94], [6.74, 53.9465], [6.7507, 53.96], [6.7433, 53.98]]}}, {"type": "Feature", "properties": {"level": 1015.0}, "geometry": {"type": "LineString", "coordinates": [[6.7371, 53.98], [6.72, 53.9699], [6.7, 53.9728], [6.68, 53.976], [6.66, 53.9766], [6.6498, 53.98]]}}, {"type": "Feature", "properties": {"level": 1015.0}, "geometry": {"type": "LineString", "coordinates": [[7.6321, 53.98], [7.64, 53.9724], [7.6534, 53.96], [7.66, 53.9516], [7.6688, 53.94], [7.68, 53.9298], [7.6969, 53.92], [7.7, 53.9156], [7.72, 53.9156], [7.74, 53.9017], [7.742, 53.9], [7.7427, 53.88], [7.74, 53.8712], [7.7349, 53.86], [7.74, 53.8494], [7.7426, 53.84], [7.74, 53.8379], [7.72, 53.8363], [7.7, 53.8289], [7.68, 53.8288], [7.6684, 53.82], [7.669, 53.8], [7.6686, 53.78], [7.66, 53.7734], [7.6412, 53.76], [7.64, 53.7588], [7.6209, 53.74], [7.62, 53.7393], [7.6007, 53.72], [7.6, 53.7193], [7.58, 53.7113], [7.5692, 53.7], [7.56, 53.6943], [7.54, 53.6864], [7.52, 53.683], [7.5161, 53.68], [7.5, 53.6717], [7.48, 53.6708], [7.46, 53.661], [7.4569, 53.66], [7.44, 53.6532], [7.42, 53.6425], [7.4, 53.6422], [7.3962, 53.64], [7.38, 53.6249], [7.3741, 53.62], [7.36, 53.6092], [7.3516, 53.6], [7.36, 53.5826], [7.3612, 53.58], [7.36, 53.5782], [7.3517, 53.58], [7.34, 53.5826], [7.3374, 53.58], [7.34, 53.5741], [7.345, 53.56], [7.34, 53.5557], [7.32, 53.5492], [7.3, 53.5446], [7.28, 53.5422], [7.2768, 53.54], [7.2648, 53.52], [7.2725, 53.5], [7.28, 53.4916], [7.3, 53.4837], [7.3037, 53.48], [7.3, 53.464], [7.28, 53.464], [7.2786, 53.46], [7.28, 53.4581], [7.3, 53.4572], [7.32, 53.456], [7.3269, 53.44], [7.3302, 53.42], [7.32, 53.4172], [7.3136, 53.42], [7.3, 53.4282], [7.28, 53.4263], [7.2638, 53.42], [7.26, 53.4193], [7.2574, 53.42], [7.24, 53.4295], [7.22, 53.4262], [7.2, 53.4331], [7.1859, 53.44], [7.1862, 53.46], [7.18, 53.4695], [7.1743, 53.48], [7.1648, 53.5], [7.16, 53.5057], [7.14, 53.5124], [7.12, 53.5119], [7.1, 53.5096], [7.08, 53.5034], [7.0749, 53.5], [7.06, 53.4867], [7.0516, 53.48], [7.04, 53.4683], [7.02, 53.4685], [7.0011, 53.46], [7.0, 53.4591], [6.9968, 53.46], [6.98, 53.4643], [6.96, 53.4606], [6.94, 53.4644], [6.92, 53.4674], [6.9, 53.4725], [6.8858, 53.48], [6.88, 53.4841], [6.86, 53.4934], [6.84, 53.4955], [6.82, 53.4987], [6.8, 53.4917], [6.7876, 53.48], [6.78, 53.4688], [6.76, 53.4719], [6.74, 53.4757], [6.72, 53.4722], [6.7, 53.4738], [6.68, 53.4706], [6.66, 53.4672], [6.64, 53.4681], [6.62, 53.4714], [6.6, 53.4681], [6.58, 53.4675], [6.56, 53.4754], [6.54, 53.4717], [6.52, 53.4733], [6.5, 53.4703], [6.48, 53.4739], [6.46, 53.4733], [6.44, 53.4685], [6.423, 53.48], [6.42, 53.4836], [6.4044, 53.5], [6.4, 53.5041], [6.38, 53.5075], [6.36, 53.5132], [6.34, 53.5174], [6.32, 53.5154], [6.3, 53.5171], [6.2815, 53.52], [6.28, 53.5207], [6.2776, 53.52], [6.26, 53.5186], [6.2546, 53.52], [6.24, 53.5266], [6.22, 53.5374], [6.2, 53.5389], [6.1987, 53.54], [6.2, 53.55], [6.21, 53.56], [6.2, 53.5615], [6.18, 53.562], [6.16, 53.5728], [6.1477, 53.58], [6.14, 53.5888], [6.12, 53.5888], [6.1, 53.593], [6.0867, 53.6], [6.08, 53.6055], [6.06, 53.6032], [6.04, 53.6106], [6.02, 53.6133], [6.0108, 53.62], [6.0, 53.6278], [5.98, 53.6272], [5.96, 53.6321], [5.94, 53.6286], [5.92, 53.6382], [5.9, 53.6327], [5.88, 53.635], [5.8614, 53.64], [5.86, 53.6402], [5.8596, 53.64], [5.84, 53.6311], [5.82, 53.6296], [5.8, 53.6284], [5.7842, 53.64], [5.78, 53.6419], [5.76, 53.642], [5.7505, 53.64], [5.74, 53.638], [5.7345, 53.64], [5.72, 53.645], [5.7055, 53.64], [5.7, 53.6383], [5.6967, 53.64], [5.68, 53.6479], [5.66, 53.6496], [5.6503, 53.66], [5.64, 53.6721], [5.62, 53.678], [5.6148, 53.68], [5.62, 53.685], [5.6396, 53.7], [5.6232, 53.72], [5.62, 53.7227], [5.6, 53.7242], [5.5941, 53.72], [5.58, 53.7178], [5.56, 53.7103], [5.54, 53.7096], [5.5276, 53.72], [5.52, 53.726], [5.5, 53.7362], [5.48, 53.7375], [5.4748, 53.74], [5.46, 53.7434], [5.44, 53.745], [5.42, 53.7491], [5.4, 53.7425], [5.38, 53.7427], [5.3749, 53.74], [5.36, 53.7345], [5.34, 53.7354], [5.3209, 53.74], [5.32, 53.7406], [5.3184, 53.74], [5.3, 53.7361], [5.28, 53.7373], [5.2779, 53.74], [5.28, 53.7507], [5.2833, 53.76], [5.3, 53.7693], [5.32, 53.7686], [5.34, 53.7714], [5.36, 53.7757], [5.38, 53.7757], [5.4, 53.7717], [5.42, 53.7736], [5.44, 53.7704], [5.46, 53.7728], [5.4737, 53.78], [5.48, 53.7868], [5.5, 53.7857], [5.52, 53.7985], [5.5224, 53.8], [5.52, 53.8027], [5.5072, 53.82], [5.52, 53.8305], [5.5253, 53.84], [5.52, 53.8489], [5.5081, 53.86], [5.5, 53.8672], [5.48, 53.8759], [5.46, 53.8704], [5.44, 53.8769], [5.42, 53.8727], [5.4002, 53.86], [5.4, 53.8597], [5.38, 53.8583], [5.3732, 53.84], [5.36, 53.83], [5.3504, 53.82], [5.34, 53.81], [5.32, 53.814], [5.3159, 53.82], [5.32, 53.8271], [5.3353, 53.84], [5.34, 53.8549], [5.3446, 53.86], [5.34, 53.8663], [5.32, 53.8703], [5.3, 53.8763], [5.28, 53.8763], [5.26, 53.8788], [5.24, 53.8787], [5.22, 53.866], [5.2, 53.8647], [5.18, 53.8613], [5.16, 53.862], [5.1565, 53.86], [5.14, 53.8541], [5.12, 53.8488], [5.1, 53.8482], [5.08, 53.8449], [5.0697, 53.84], [5.06, 53.8351], [5.0426, 53.84], [5.04, 53.842], [5.0339, 53.84], [5.02, 53.838], [5.0161, 53.84], [5.0, 53.8501], [4.9918, 53.86], [5.0, 53.8733], [5.0067, 53.88], [5.02, 53.8907], [5.04, 53.8928], [5.06, 53.897], [5.08, 53.8979], [5.0887, 53.9], [5.08, 53.906], [5.06, 53.9052], [5.04, 53.9106], [5.0249, 53.92], [5.0269, 53.94], [5.02, 53.9532], [5.0117, 53.96], [5.0, 53.9765], [4.9963, 53.98]]}}]}