{"type": "FeatureCollection", "features": [{"type": "Feature", "properties": {"level": 1015.0}, "geometry": {"type": "LineString", "coordinates": [[3.796, 53.98], [3.8, 53.9663], [3.8025, 53.96], [3.8, 53.9519], [3.7899, 53.94], [3.78, 53.9339], [3.76, 53.9253], [3.755, 53.92], [3.76, 53.9076], [3.7634, 53.9], [3.76, 53.893], [3.7473, 53.88], [3.7592, 53.86], [3.76, 53.8588], [3.7772, 53.84], [3.78, 53.8371], [3.7905, 53.82], [3.78, 53.8], [3.76, 53.8], [3.76, 53.8], [3.74, 53.781], [3.7389, 53.78], [3.72, 53.76], [3.72, 53.76], [3.72, 53.74], [3.72, 53.74], [3.734, 53.72], [3.74, 53.7094], [3.7455, 53.7], [3.74, 53.6861], [3.7349, 53.68], [3.732, 53.66], [3.7232, 53.64], [3.72, 53.6362], [3.7076, 53.62], [3.7, 53.6147], [3.6878, 53.6], [3.68, 53.5883], [3.6717, 53.58], [3.66, 53.5639], [3.6562, 53.56], [3.6579, 53.54], [3.66, 53.5327], [3.6643, 53.52], [3.66, 53.5107], [3.64, 53.5032], [3.6379, 53.5], [3.64, 53.4944], [3.6453, 53.48], [3.64, 53.4751], [3.62, 53.4652], [3.6145, 53.46], [3.6, 53.4484], [3.589, 53.44], [3.58, 53.4325], [3.56, 53.4325], [3.5468, 53.42], [3.56, 53.4007], [3.5602, 53.4], [3.56, 53.3996], [3.5502, 53.38], [3.56, 53.3617], [3.5608, 53.36], [3.56, 53.3585], [3.54, 53.3471], [3.5387, 53.34], [3.5263, 53.32], [3.52, 53.315], [3.5086, 53.3], [3.5, 53.2905], [3.4914, 53.28], [3.48, 53.2617], [3.4783, 53.26], [3.463, 53.24], [3.46, 53.2339], [3.4511, 53.22], [3.4405, 53.2], [3.44, 53.1996], [3.4212, 53.18], [3.42, 53.1787], [3.4, 53.177], [3.38, 53.177], [3.36, 53.1685], [3.346, 53.16], [3.34, 53.1528], [3.3335, 53.14], [3.32, 53.1201], [3.3199, 53.12], [3.32, 53.118], [3.3204, 53.1], [3.32, 53.0942], [3.3193, 53.08], [3.3, 53.0633], [3.2966, 53.06], [3.3, 53.0499], [3.3034, 53.04], [3.3, 53.0366], [3.2862, 53.02], [3.3, 53.001], [3.3011, 53.0], [3.3031, 52.98], [3.3, 52.9739], [3.2933, 52.96], [3.3, 52.9464], [3.3031, 52.94], [3.3, 52.9349], [3.2817, 52.92], [3.28, 52.913], [3.2761, 52.9], [3.2666, 52.88], [3.26, 52.8719], [3.24, 52.8642], [3.2355, 52.86], [3.22, 52.8455], [3.213, 52.84], [3.2, 52.8223], [3.1977, 52.82], [3.18, 52.808], [3.16, 52.8068], [3.1522, 52.8], [3.14, 52.7866], [3.1315, 52.78], [3.126, 52.76], [3.12, 52.7455], [3.1179, 52.74], [3.1179, 52.72], [3.1029, 52.7], [3.1, 52.6956], [3.0893, 52.68], [3.08, 52.6721], [3.0609, 52.66], [3.06, 52.6554], [3.0572, 52.64], [3.06, 52.6372], [3.0678, 52.62], [3.06, 52.6085], [3.0498, 52.6], [3.0404, 52.58], [3.04, 52.5786], [3.0329, 52.56], [3.0235, 52.54], [3.02, 52.5341], [3.0109, 52.52], [3.02, 52.5016], [3.0207, 52.5], [3.02, 52.499], [3.0, 52.4948], [2.9944, 52.48], [2.9855, 52.46], [2.98, 52.4501], [2.9735, 52.44], [2.96, 52.4309], [2.9505, 52.42], [2.94, 52.4036], [2.9379, 52.4], [2.94, 52.3825], [2.9403, 52.38], [2.94, 52.3797], [2.92, 52.3789], [2.9108, 52.36], [2.9007, 52.34], [2.9, 52.3387], [2.8901, 52.32], [2.88, 52.3099], [2.8745, 52.3], [2.86, 52.28], [2.86, 52.28], [2.851, 52.26], [2.84, 52.2401], [2.8399, 52.24], [2.8244, 52.22], [2.82, 52.2156], [2.8088, 52.2], [2.8, 52.1868], [2.7962, 52.18], [2.8, 52.1705], [2.8086, 52.16], [2.8031, 52.14], [2.8, 52.1376], [2.7874, 52.12], [2.78, 52.1089], [2.774, 52.1], [2.78, 52.0874], [2.7833, 52.08], [2.78, 52.0748], [2.7623, 52.06], [2.76, 52.056], [2.7504, 52.04], [2.74, 52.0326], [2.7288, 52.02], [2.72, 52.0097], [2.7125, 52.0], [2.72, 51.9811], [2.7205, 51.98], [2.72, 51.9794], [2.7, 51.9771], [2.6946, 51.96], [2.688, 51.94], [2.6843, 51.92], [2.6817, 51.9], [2.68, 51.8983], [2.6697, 51.88], [2.66, 51.8644], [2.6564, 51.86], [2.66, 51.8415], [2.6608, 51.84], [2.66, 51.839], [2.64, 51.839], [2.62, 51.8207], [2.6193, 51.82], [2.6009, 51.8], [2.6009, 51.78], [2.6, 51.7791], [2.5855, 51.76], [2.58, 51.7535], [2.5702, 51.74], [2.56, 51.7235], [2.54, 51.7235], [2.5384, 51.72], [2.54, 51.7178], [2.5458, 51.7], [2.54, 51.6892], [2.5347, 51.68], [2.5276, 51.66], [2.5239, 51.64], [2.52, 51.6337], [2.5116, 51.62], [2.5, 51.6119]]}}, {"type": "Feature", "properties": {"level": 1020.0}, "geometry": {"type": "LineString", "coordinates": [[8.4182, 50.78], [8.42, 50.7787], [8.44, 50.7786], [8.4431, 50.78], [8.44, 50.786], [8.42, 50.7822], [8.4182, 50.78]]}}, {"type": "Feature", "properties": {"level": 1020.0}, "geometry": {"type": "LineString", "coordinates": [[8.4779, 50.8], [8.48, 50.7986], [8.4886, 50.8], [8.48, 50.8005], [8.4779, 50.8]]}}]}