{"type": "FeatureCollection", "features": [{"type": "Feature", "properties": {"level": 1020.0}, "geometry": {"type": "LineString", "coordinates": [[6.1286, 50.5], [6.14, 50.5106], [6.16, 50.5119], [6.18, 50.5142], [6.1972, 50.52], [6.2, 50.5214], [6.2048, 50.52], [6.22, 50.5149], [6.24, 50.5141], [6.26, 50.5088], [6.2728, 50.5]]}}, {"type": "Feature", "properties": {"level": 1020.0}, "geometry": {"type": "LineString", "coordinates": [[6.7542, 50.5], [6.7463, 50.52], [6.74, 50.5257], [6.72, 50.5304], [6.7, 50.5293], [6.68, 50.5377], [6.6754, 50.54], [6.66, 50.5492], [6.6459, 50.56], [6.6459, 50.58], [6.64, 50.5839], [6.6316, 50.58], [6.62, 50.5731], [6.6, 50.568], [6.58, 50.5704], [6.56, 50.5753], [6.5575, 50.58], [6.56, 50.5868], [6.5682, 50.6], [6.5649, 50.62], [6.56, 50.6348], [6.54, 50.6366], [6.5366, 50.64], [6.52, 50.6554], [6.5058, 50.64], [6.5, 50.6366], [6.48, 50.6261], [6.46, 50.6398], [6.4468, 50.62], [6.44, 50.6196], [6.439, 50.62], [6.44, 50.64], [6.44, 50.64], [6.4513, 50.66], [6.4421, 50.68], [6.44, 50.6854], [6.4368, 50.7], [6.42, 50.7147], [6.4168, 50.72], [6.42, 50.7264], [6.4345, 50.74], [6.42, 50.7588], [6.4176, 50.76], [6.4, 50.7683], [6.38, 50.7796], [6.379, 50.78], [6.36, 50.7944], [6.3483, 50.8], [6.34, 50.8083], [6.32, 50.8044], [6.3112, 50.8], [6.3, 50.7818], [6.28, 50.793], [6.2664, 50.8], [6.26, 50.8031], [6.2486, 50.82], [6.26, 50.8397], [6.2607, 50.84], [6.2629, 50.86], [6.2728, 50.88], [6.28, 50.896], [6.2822, 50.9], [6.28, 50.9084], [6.2687, 50.92], [6.28, 50.9275], [6.2938, 50.94], [6.3, 50.9482], [6.32, 50.9598], [6.34, 50.9538], [6.3575, 50.96], [6.36, 50.9614], [6.3711, 50.98], [6.38, 50.9901], [6.3892, 51.0], [6.4, 51.0181], [6.4019, 51.02], [6.4149, 51.04], [6.4, 51.0536], [6.3958, 51.06], [6.3959, 51.08], [6.4, 51.0908], [6.4055, 51.1], [6.4, 51.1066], [6.3938, 51.12], [6.4, 51.1315], [6.4091, 51.14], [6.42, 51.1575], [6.4217, 51.16], [6.44, 51.1761], [6.4426, 51.18], [6.44, 51.196], [6.4394, 51.2], [6.44, 51.2009], [6.4511, 51.22], [6.4597, 51.24], [6.46, 51.241], [6.4687, 51.26], [6.48, 51.2761], [6.5, 51.2785], [6.5149, 51.28], [6.52, 51.2809], [6.54, 51.2891], [6.5589, 51.3], [6.56, 51.3005], [6.5631, 51.3], [6.58, 51.2957], [6.6, 51.2989], [6.62, 51.2982], [6.6274, 51.28], [6.64, 51.2743], [6.66, 51.2701], [6.68, 51.267], [6.7, 51.2608], [6.7009, 51.26], [6.72, 51.2499], [6.74, 51.2513], [6.76, 51.2499], [6.78, 51.2545], [6.7882, 51.26], [6.8, 51.277], [6.8067, 51.28], [6.82, 51.2874], [6.8326, 51.3], [6.84, 51.3027], [6.8455, 51.3], [6.843, 51.28], [6.84, 51.2764], [6.8276, 51.26], [6.84, 51.2487], [6.86, 51.2487], [6.88, 51.2511], [6.9, 51.2482], [6.92, 51.249], [6.94, 51.2416], [6.96, 51.251], [6.98, 51.2508], [6.9972, 51.26], [7.0, 51.2624], [7.02, 51.2612], [7.04, 51.2657], [7.06, 51.2638], [7.08, 51.2635], [7.0864, 51.26], [7.1, 51.2501], [7.1157, 51.24], [7.1069, 51.22], [7.12, 51.2148], [7.14, 51.2089], [7.16, 51.2129], [7.18, 51.2155], [7.2, 51.2155], [7.22, 51.2006], [7.24, 51.2017], [7.2416, 51.2], [7.26, 51.1883], [7.28, 51.1947], [7.2872, 51.2], [7.3, 51.2156], [7.32, 51.2074], [7.34, 51.2007], [7.3417, 51.2], [7.34, 51.1884], [7.3316, 51.18], [7.34, 51.1773], [7.354, 51.16], [7.36, 51.1498], [7.3696, 51.14], [7.369, 51.12], [7.3728, 51.1], [7.38, 51.0923], [7.3946, 51.08], [7.4, 51.0778], [7.4199, 51.08], [7.42, 51.08], [7.42, 51.08], [7.44, 51.0746], [7.46, 51.0702], [7.48, 51.0695], [7.5, 51.07], [7.52, 51.072], [7.54, 51.0694], [7.56, 51.0674], [7.5723, 51.06], [7.58, 51.056], [7.6, 51.056], [7.604, 51.06], [7.62, 51.0693], [7.6343, 51.06], [7.64, 51.0518], [7.66, 51.0487], [7.6644, 51.04], [7.68, 51.0313], [7.6929, 51.02], [7.7, 51.0024], [7.7008, 51.0], [7.7064, 50.98], [7.7, 50.9613], [7.6992, 50.96], [7.7, 50.9583], [7.7178, 50.94], [7.7, 50.9284], [7.6878, 50.92], [7.7, 50.9063], [7.72, 50.9051], [7.74, 50.9115], [7.7571, 50.92], [7.76, 50.9257], [7.78, 50.9228], [7.8, 50.9295], [7.8189, 50.92], [7.82, 50.9116], [7.84, 50.9116], [7.8507, 50.9], [7.86, 50.899], [7.8619, 50.9], [7.88, 50.9181], [7.9, 50.9105], [7.92, 50.9125], [7.928, 50.92], [7.92, 50.9353], [7.9169, 50.94], [7.92, 50.9447], [7.9322, 50.96], [7.94, 50.973], [7.9456, 50.98], [7.96, 50.988], [7.97, 50.98], [7.98, 50.9742], [8.0, 50.9742], [8.0135, 50.98], [8.02, 50.9817], [8.0305, 50.98], [8.04, 50.9734], [8.0568, 50.98], [8.06, 50.9803], [8.0615, 50.98], [8.0694, 50.96], [8.08, 50.95], [8.0901, 50.94], [8.1, 50.9358], [8.12, 50.9336], [8.14, 50.9216], [8.1414, 50.92], [8.16, 50.9037], [8.1658, 50.9], [8.1658, 50.88], [8.16, 50.8716], [8.1524, 50.86], [8.1451, 50.84], [8.14, 50.8328], [8.12, 50.8248], [8.1129, 50.82], [8.1, 50.8139], [8.0877, 50.8], [8.08, 50.787], [8.077, 50.78], [8.08, 50.7747], [8.0897, 50.76], [8.08, 50.7455], [8.0719, 50.74], [8.06, 50.7357], [8.0477, 50.74], [8.04, 50.7451], [8.02, 50.7497], [8.0117, 50.74], [8.0, 50.7289], [7.9922, 50.72], [7.98, 50.7134], [7.96, 50.7086], [7.94, 50.7036], [7.92, 50.7099], [7.913, 50.7], [7.9116, 50.68], [7.92, 50.675], [7.9301, 50.66], [7.94, 50.6428], [7.943, 50.64], [7.941, 50.62], [7.94, 50.6192], [7.92, 50.6055], [7.9, 50.6032], [7.8871, 50.6], [7.88, 50.5911], [7.8616, 50.58], [7.86, 50.5752], [7.8572, 50.56], [7.86, 50.557], [7.8736, 50.54], [7.86, 50.5264], [7.8578, 50.52], [7.86, 50.5177], [7.88, 50.5175], [7.8856, 50.52], [7.8856, 50.54], [7.9, 50.5584], [7.92, 50.5589], [7.94, 50.5591], [7.9405, 50.56], [7.96, 50.5756], [7.9764, 50.58], [7.98, 50.5815], [7.983, 50.58], [8.0, 50.577], [8.0138, 50.58], [8.02, 50.5828], [8.0264, 50.58], [8.04, 50.5664], [8.0486, 50.56], [8.06, 50.5538], [8.08, 50.5526], [8.0941, 50.54], [8.1, 50.5381], [8.12, 50.5287], [8.14, 50.5257], [8.16, 50.5253], [8.18, 50.5283], [8.1901, 50.52], [8.2, 50.5108], [8.2192, 50.5]]}}, {"type": "Feature", "properties": {"level": 1020.0}, "geometry": {"type": "LineString", "coordinates": [[6.8245, 50.5], [6.84, 50.5073], [6.8472, 50.52], [6.8532, 50.54], [6.84, 50.5528], [6.8252, 50.56], [6.82, 50.5617], [6.8149, 50.56], [6.8, 50.5429], [6.7974, 50.54], [6.8, 50.5364], [6.8066, 50.52], [6.812, 50.5]]}}, {"type": "Feature", "properties": {"level": 1020.0}, "geometry": {"type": "LineString", "coordinates": [[8.2403, 50.5], [8.24, 50.5003], [8.224, 50.52], [8.22, 50.5354], [8.2161, 50.54], [8.22, 50.5423], [8.24, 50.5565], [8.26, 50.5492], [8.28, 50.552], [8.2989, 50.56], [8.3, 50.5609], [8.32, 50.5608], [8.34, 50.5676], [8.36, 50.5688], [8.38, 50.573], [8.4, 50.5732], [8.42, 50.5779], [8.44, 50.5758], [8.4432, 50.58], [8.44, 50.5908], [8.4295, 50.6], [8.44, 50.6013], [8.4513, 50.6], [8.46, 50.5978], [8.4668, 50.6], [8.48, 50.6014], [8.4852, 50.6], [8.5, 50.5935]]}}, {"type": "Feature", "properties": {"level": 1020.0}, "geometry": {"type": "LineString", "coordinates": [[4.8493, 50.54], [4.86, 50.5337], [4.88, 50.5245], [4.9, 50.5316], [4.92, 50.5393], [4.9209, 50.54], [4.928, 50.56], [4.92, 50.5799], [4.9199, 50.58], [4.9, 50.5918], [4.88, 50.5883], [4.86, 50.5838], [4.8559, 50.6], [4.84, 50.6036], [4.8224, 50.62], [4.82, 50.6214], [4.8126, 50.62], [4.8, 50.6142], [4.78, 50.6117], [4.7655, 50.6], [4.78, 50.5866], [4.8, 50.5866], [4.82, 50.5805], [4.84, 50.5817], [4.852, 50.58], [4.84, 50.5787], [4.8357, 50.56], [4.84, 50.5546], [4.8493, 50.54]]}}, {"type": "Feature", "properties": {"level": 1020.0}, "geometry": {"type": "LineString", "coordinates": [[8.5, 50.523], [8.4915, 50.52], [8.5, 50.514]]}}, {"type": "Feature", "properties": {"level": 1020.0}, "geometry": {"type": "LineString", "coordinates": [[6.36, 50.5729], [6.3561, 50.58], [6.36, 50.5827], [6.3765, 50.6], [6.38, 50.6164], [6.3836, 50.62], [6.4, 50.6311], [6.4078, 50.62], [6.4078, 50.6], [6.4, 50.5823], [6.397, 50.58], [6.38, 50.5774], [6.36, 50.5729]]}}, {"type": "Feature", "properties": {"level": 1020.0}, "geometry": {"type": "LineString", "coordinates": [[8.38, 50.598], [8.3724, 50.6], [8.38, 50.6043], [8.4, 50.603], [8.4078, 50.6], [8.4, 50.598], [8.38, 50.598]]}}, {"type": "Feature", "properties": {"level": 1020.0}, "geometry": {"type": "LineString", "coordinates": [[4.6289, 50.66], [4.64, 50.6574], [4.66, 50.6578], [4.68, 50.6572], [4.7, 50.6573], [4.712, 50.66], [4.7, 50.6684], [4.68, 50.6757], [4.66, 50.6652], [4.64, 50.6787], [4.6289, 50.66]]}}, {"type": "Feature", "properties": {"level": 1020.0}, "geometry": {"type": "LineString", "coordinates": [[5.7756, 50.66], [5.78, 50.6558], [5.8, 50.653], [5.8102, 50.66], [5.8, 50.6661], [5.78, 50.6668], [5.7756, 50.66]]}}, {"type": "Feature", "properties": {"level": 1020.0}, "geometry": {"type": "LineString", "coordinates": [[6.4988, 50.68], [6.5, 50.6788], [6.5087, 50.68], [6.5, 50.6899], [6.4988, 50.68]]}}, {"type": "Feature", "properties": {"level": 1020.0}, "geometry": {"type": "LineString", "coordinates": [[2.6464, 50.78], [2.66, 50.7776], [2.68, 50.7764], [2.6919, 50.78], [2.7, 50.7869], [2.7175, 50.8], [2.72, 50.8039], [2.7271, 50.82], [2.72, 50.8309], [2.7127, 50.84], [2.7139, 50.86], [2.7, 50.8674], [2.6816, 50.88], [2.68, 50.8811], [2.66, 50.882], [2.64, 50.8802], [2.62, 50.8804], [2.6196, 50.88], [2.6, 50.8711], [2.58, 50.8612], [2.5787, 50.86], [2.5687, 50.84], [2.56, 50.8278], [2.5516, 50.82], [2.56, 50.8161], [2.58, 50.8146], [2.5981, 50.8], [2.6, 50.7984], [2.62, 50.7895], [2.64, 50.7827], [2.6464, 50.78]]}}, {"type": "Feature", "properties": {"level": 1020.0}, "geometry": {"type": "LineString", "coordinates": [[3.3543, 50.8], [3.36, 50.7943], [3.38, 50.7878], [3.4, 50.7926], [3.4101, 50.8], [3.4195, 50.82], [3.4, 50.8319], [3.38, 50.822], [3.3764, 50.82], [3.36, 50.8033], [3.3543, 50.8]]}}, {"type": "Feature", "properties": {"level": 1020.0}, "geometry": {"type": "LineString", "coordinates": [[7.9193, 50.86], [7.92, 50.8588], [7.9209, 50.86], [7.92, 50.8606], [7.9193, 50.86]]}}, {"type": "Feature", "properties": {"level": 1020.0}, "geometry": {"type": "LineString", "coordinates": [[6.4298, 50.94], [6.44, 50.9315], [6.46, 50.9342], [6.4694, 50.94], [6.46, 50.9499], [6.44, 50.9485], [6.4298, 50.94]]}}, {"type": "Feature", "properties": {"level": 1020.0}, "geometry": {"type": "LineString", "coordinates": [[2.5, 50.9571], [2.5051, 50.96], [2.5121, 50.98], [2.5, 50.9921]]}}, {"type": "Feature", "properties": {"level": 1020.0}, "geometry": {"type": "LineString", "coordinates": [[2.5, 51.0053], [2.5138, 51.02], [2.52, 51.0232], [2.5387, 51.04], [2.54, 51.0409], [2.56, 51.0414], [2.58, 51.0414], [2.6, 51.0486], [2.615, 51.04], [2.6157, 51.02], [2.62, 51.0069], [2.6265, 51.0], [2.62, 50.991], [2.6158, 50.98], [2.62, 50.9759], [2.64, 50.9772], [2.6458, 50.98], [2.66, 50.9918], [2.6655, 51.0], [2.6748, 51.02], [2.6783, 51.04], [2.68, 51.042], [2.7, 51.0537], [2.7193, 51.06], [2.7141, 51.08], [2.7, 51.0832], [2.6838, 51.1], [2.7, 51.1178], [2.7054, 51.12], [2.72, 51.1218], [2.74, 51.1228], [2.7439, 51.12], [2.74, 51.108], [2.7362, 51.1], [2.74, 51.0851], [2.742, 51.08], [2.76, 51.0633], [2.7627, 51.06], [2.7666, 51.04], [2.78, 51.0301], [2.7957, 51.02], [2.8, 51.0157], [2.8179, 51.0], [2.82, 50.9992], [2.84, 50.9986], [2.86, 50.9903], [2.88, 50.9832], [2.9, 50.9835], [2.9044, 50.98], [2.92, 50.97], [2.9385, 50.96], [2.94, 50.9592], [2.96, 50.9572], [2.98, 50.9493], [2.9873, 50.94], [3.0, 50.9201], [3.0002, 50.92], [3.02, 50.9002], [3.0202, 50.9], [3.04, 50.8967], [3.0503, 50.9], [3.0465, 50.92], [3.04, 50.9265], [3.0295, 50.94], [3.0267, 50.96], [3.02, 50.968], [3.0078, 50.98], [3.0137, 51.0], [3.02, 51.0029], [3.04, 51.0033], [3.06, 51.0082], [3.08, 51.0046], [3.1, 51.0074], [3.12, 51.0044], [3.1309, 51.0], [3.14, 50.9958], [3.16, 50.9929], [3.18, 50.9871], [3.1986, 50.98], [3.2, 50.979], [3.22, 50.9732], [3.24, 50.9655], [3.2522, 50.96], [3.26, 50.9518], [3.2662, 50.94], [3.2723, 50.92], [3.28, 50.9132], [3.3, 50.9042], [3.32, 50.9042], [3.3232, 50.9], [3.34, 50.8906], [3.36, 50.8858], [3.38, 50.8871], [3.3882, 50.88], [3.4, 50.8682], [3.4062, 50.86], [3.42, 50.8417], [3.4256, 50.84], [3.4203, 50.82], [3.44, 50.8138], [3.46, 50.8121], [3.4743, 50.82], [3.48, 50.8237], [3.5, 50.8229], [3.52, 50.8287], [3.5361, 50.84], [3.54, 50.8426], [3.56, 50.8466], [3.58, 50.8481], [3.5974, 50.84], [3.58, 50.8299], [3.5737, 50.82], [3.56, 50.8066], [3.5491, 50.8], [3.54, 50.7927], [3.5279, 50.78], [3.52, 50.7774], [3.5, 50.7735], [3.48, 50.7683], [3.46, 50.7654], [3.4557, 50.76], [3.46, 50.7556], [3.48, 50.7468], [3.5, 50.7421], [3.5017, 50.74], [3.5, 50.7361], [3.4906, 50.72], [3.4923, 50.7], [3.5, 50.6899], [3.5138, 50.68], [3.52, 50.6765], [3.54, 50.6753], [3.56, 50.6797], [3.58, 50.6756], [3.6, 50.6675], [3.62, 50.6687], [3.64, 50.6704], [3.6539, 50.66], [3.66, 50.6569], [3.68, 50.6589], [3.7, 50.6589], [3.72, 50.658], [3.7244, 50.66], [3.74, 50.6722], [3.7465, 50.68], [3.76, 50.6887], [3.7691, 50.7], [3.78, 50.7169], [3.7823, 50.72], [3.8, 50.7338], [3.82, 50.7396], [3.84, 50.7398], [3.8402, 50.74], [3.86, 50.7502], [3.88, 50.7435], [3.9, 50.7417], [3.92, 50.7422], [3.94, 50.7427], [3.9436, 50.74], [3.94, 50.7252], [3.9368, 50.72], [3.94, 50.7184], [3.96, 50.719], [3.98, 50.7161], [4.0, 50.7166], [4.0075, 50.72], [4.02, 50.7272], [4.04, 50.7254], [4.06, 50.7235], [4.08, 50.7251], [4.0854, 50.72], [4.1, 50.7141], [4.1191, 50.72], [4.12, 50.7204], [4.14, 50.7204], [4.16, 50.7259], [4.18, 50.7252], [4.1976, 50.74], [4.2, 50.7415], [4.22, 50.7526], [4.24, 50.7564], [4.2467, 50.76], [4.26, 50.7755], [4.2647, 50.78], [4.28, 50.789], [4.2934, 50.8], [4.3, 50.8052], [4.32, 50.8144], [4.334, 50.8], [4.32, 50.7906], [4.3108, 50.78], [4.3, 50.7659], [4.2943, 50.76], [4.3, 50.756], [4.3176, 50.74], [4.32, 50.7202], [4.34, 50.7202], [4.3401, 50.72], [4.36, 50.712], [4.3716, 50.7], [4.38, 50.6917], [4.3915, 50.68], [4.4, 50.6755], [4.42, 50.6698], [4.44, 50.6733], [4.46, 50.6762], [4.48, 50.6736], [4.5, 50.6618], [4.52, 50.6733], [4.5278, 50.68], [4.54, 50.6876], [4.5542, 50.7], [4.56, 50.7078], [4.5722, 50.72], [4.58, 50.733], [4.6, 50.7358], [4.6039, 50.74], [4.6, 50.7583], [4.598, 50.76], [4.6, 50.7608], [4.62, 50.7608], [4.64, 50.7781], [4.6489, 50.78], [4.66, 50.7816], [4.6641, 50.78], [4.68, 50.7752], [4.6973, 50.78], [4.7, 50.7806], [4.7021, 50.78], [4.72, 50.7713], [4.7383, 50.76], [4.74, 50.7589], [4.7568, 50.74], [4.7545, 50.72], [4.76, 50.713], [4.78, 50.7109], [4.8, 50.7145], [4.82, 50.7162], [4.84, 50.7163], [4.8466, 50.72], [4.86, 50.7264], [4.88, 50.7292], [4.8889, 50.72], [4.9, 50.7104], [4.9198, 50.7], [4.92, 50.6995], [4.94, 50.6887], [4.96, 50.6802], [4.9604, 50.68], [4.9604, 50.66], [4.9644, 50.64], [4.98, 50.6317], [5.0, 50.6321], [5.02, 50.6261], [5.04, 50.6234], [5.06, 50.6206], [5.08, 50.6205], [5.1, 50.6301], [5.12, 50.6398], [5.1208, 50.64], [5.14, 50.6441], [5.16, 50.6573], [5.1642, 50.66], [5.18, 50.6689], [5.2, 50.6767], [5.22, 50.6782], [5.223, 50.68], [5.24, 50.6918], [5.26, 50.6959], [5.2644, 50.7], [5.28, 50.7156], [5.2865, 50.72], [5.28, 50.7328], [5.2751, 50.74], [5.28, 50.7556], [5.2832, 50.76], [5.3, 50.7761], [5.32, 50.7761], [5.34, 50.7749], [5.36, 50.7748], [5.38, 50.7702], [5.4, 50.7705], [5.42, 50.7741], [5.44, 50.7728], [5.46, 50.7738], [5.48, 50.771], [5.4944, 50.78], [5.5, 50.7835], [5.5124, 50.78], [5.5195, 50.76], [5.52, 50.7591], [5.54, 50.759], [5.56, 50.7436], [5.58, 50.74], [5.5801, 50.74], [5.594, 50.72], [5.6, 50.7189], [5.6013, 50.72], [5.62, 50.7349], [5.6255, 50.74], [5.64, 50.7548], [5.644, 50.76], [5.64, 50.7742], [5.6378, 50.78], [5.64, 50.7822], [5.66, 50.7841], [5.68, 50.7959], [5.6841, 50.8], [5.7, 50.8185], [5.72, 50.8187], [5.74, 50.8086], [5.7506, 50.8], [5.76, 50.7852], [5.7641, 50.78], [5.7768, 50.76], [5.78, 50.7497], [5.7865, 50.74], [5.8, 50.7292], [5.8085, 50.72], [5.82, 50.7085], [5.84, 50.7062], [5.86, 50.7046], [5.8665, 50.7], [5.88, 50.6922], [5.8961, 50.68], [5.9, 50.6728], [5.92, 50.6728], [5.94, 50.6784], [5.9427, 50.68], [5.9416, 50.7], [5.94, 50.7019], [5.9233, 50.72], [5.9233, 50.74], [5.92, 50.743], [5.903, 50.76], [5.9101, 50.78], [5.92, 50.7914], [5.9238, 50.78], [5.94, 50.7709], [5.9509, 50.76], [5.96, 50.7507], [5.98, 50.7515], [6.0, 50.7473], [6.0061, 50.74], [6.02, 50.7271], [6.0329, 50.72], [6.04, 50.7082], [6.06, 50.7082], [6.08, 50.7024], [6.088, 50.7], [6.1, 50.6803], [6.12, 50.6811], [6.1202, 50.68], [6.12, 50.6798], [6.1058, 50.66], [6.1, 50.6519], [6.0953, 50.64], [6.1, 50.6279], [6.109, 50.62], [6.12, 50.6108], [6.1309, 50.6], [6.134, 50.58], [6.134, 50.56], [6.1251, 50.54], [6.12, 50.5365], [6.1, 50.5364], [6.08, 50.5364], [6.06, 50.5261], [6.0493, 50.52], [6.0576, 50.5]]}}, {"type": "Feature", "properties": {"level": 1020.0}, "geometry": {"type": "LineString", "coordinates": [[2.6, 51.1255], [2.5855, 51.14], [2.6, 51.1415], [2.6085, 51.14], [2.6, 51.1255]]}}]}