{"type": "FeatureCollection", "features": [{"type": "Feature", "properties": {"level": 1010.0}, "geometry": {"type": "LineString", "coordinates": [[8.5, 52.6362], [8.4965, 52.64], [8.4834, 52.66], [8.48, 52.6626], [8.46, 52.67], [8.44, 52.6772], [8.4351, 52.68], [8.42, 52.6887], [8.4, 52.6963], [8.38, 52.6977], [8.3742, 52.7], [8.36, 52.7109], [8.347, 52.72], [8.34, 52.7224], [8.32, 52.7243], [8.3, 52.732], [8.2833, 52.74], [8.28, 52.7424], [8.2717, 52.74], [8.26, 52.7371], [8.2514, 52.74], [8.24, 52.7434], [8.22, 52.7448], [8.2, 52.7429], [8.18, 52.7425], [8.1737, 52.74], [8.16, 52.7351], [8.14, 52.7343], [8.12, 52.7337], [8.1, 52.7273], [8.08, 52.72], [8.08, 52.72], [8.06, 52.72], [8.04, 52.7095], [8.02, 52.7095], [8.0026, 52.72], [8.0, 52.7214], [7.9953, 52.72], [7.98, 52.7079], [7.9721, 52.7], [7.96, 52.6969], [7.949, 52.7], [7.949, 52.72], [7.94, 52.7224], [7.933, 52.72], [7.92, 52.707], [7.9, 52.7166], [7.8933, 52.72], [7.8847, 52.74], [7.8877, 52.76], [7.9, 52.7698], [7.909, 52.78], [7.9, 52.795], [7.8977, 52.8], [7.9, 52.8072], [7.9132, 52.82], [7.903, 52.84], [7.9, 52.8436], [7.8872, 52.86], [7.88, 52.8669], [7.8669, 52.88], [7.8669, 52.9], [7.86, 52.9055], [7.84, 52.9168], [7.82, 52.9198], [7.8199, 52.92], [7.8, 52.9321], [7.7842, 52.94], [7.78, 52.9425], [7.76, 52.9464], [7.7469, 52.96], [7.74, 52.9679], [7.72, 52.9725], [7.7, 52.9774], [7.68, 52.9776], [7.6681, 52.98], [7.66, 52.981], [7.6567, 52.98], [7.64, 52.9722], [7.6236, 52.98], [7.62, 52.9812], [7.6131, 52.98], [7.6, 52.9768], [7.58, 52.9783], [7.5763, 52.98], [7.56, 52.9913], [7.54, 52.9886], [7.52, 52.9935], [7.5012, 53.0], [7.5012, 53.02], [7.5, 53.0207], [7.48, 53.0282], [7.46, 53.0365], [7.4591, 53.04], [7.4406, 53.06], [7.44, 53.0621], [7.42, 53.0777], [7.4178, 53.08], [7.42, 53.0856], [7.44, 53.0856], [7.4464, 53.1], [7.44, 53.1131], [7.4328, 53.12], [7.44, 53.1257], [7.4559, 53.14], [7.4516, 53.16], [7.44, 53.1685], [7.426, 53.18], [7.42, 53.186], [7.4091, 53.2], [7.4045, 53.22], [7.4, 53.2251], [7.3864, 53.24], [7.38, 53.2466], [7.3656, 53.26], [7.3675, 53.28], [7.36, 53.2902], [7.3467, 53.3], [7.34, 53.3076], [7.3274, 53.32], [7.32, 53.3275], [7.3083, 53.34], [7.305, 53.36], [7.3, 53.3672], [7.2872, 53.38], [7.28, 53.3852], [7.26, 53.4], [7.26, 53.4], [7.24, 53.4078], [7.22, 53.4196], [7.2196, 53.42], [7.2, 53.4323], [7.191, 53.44], [7.1948, 53.46], [7.18, 53.4712], [7.1663, 53.48], [7.16, 53.4841], [7.14, 53.4908], [7.12, 53.4959], [7.1139, 53.5], [7.1, 53.5089], [7.0844, 53.52], [7.08, 53.5257], [7.0679, 53.54], [7.06, 53.5524], [7.04, 53.5524], [7.02, 53.5596], [7.0195, 53.56], [7.0159, 53.58], [7.02, 53.5807], [7.04, 53.5806], [7.0418, 53.58], [7.06, 53.5646], [7.0711, 53.58], [7.08, 53.5863], [7.0948, 53.6], [7.1, 53.6054], [7.1073, 53.62], [7.1, 53.6353], [7.0977, 53.64], [7.1, 53.6439], [7.12, 53.6476], [7.1281, 53.66], [7.12, 53.6715], [7.1115, 53.68], [7.1, 53.6892], [7.08, 53.6845], [7.06, 53.6823], [7.04, 53.6811], [7.0389, 53.68], [7.02, 53.6722], [7.0, 53.6662], [6.98, 53.6745], [6.9685, 53.68], [6.96, 53.6885], [6.9458, 53.7], [6.94, 53.7066], [6.92, 53.7104], [6.9008, 53.7], [6.9, 53.6993], [6.88, 53.6993], [6.86, 53.6849], [6.84, 53.6851], [6.82, 53.6926], [6.8021, 53.7], [6.8, 53.7016], [6.78, 53.7016], [6.76, 53.7049], [6.74, 53.709], [6.72, 53.7122], [6.7048, 53.72], [6.7, 53.7223], [6.6812, 53.74], [6.68, 53.7412], [6.664, 53.76], [6.66, 53.7665], [6.64, 53.7655], [6.62, 53.7702], [6.6055, 53.78], [6.6181, 53.8], [6.62, 53.8013], [6.64, 53.8019], [6.6471, 53.8], [6.66, 53.7954], [6.6697, 53.8], [6.68, 53.8028], [6.6917, 53.8], [6.7, 53.7982], [6.7089, 53.8], [6.72, 53.804], [6.74, 53.8058], [6.76, 53.8056], [6.78, 53.8076], [6.8, 53.8124], [6.82, 53.8041], [6.84, 53.8096], [6.86, 53.812], [6.88, 53.8081], [6.8955, 53.82], [6.8962, 53.84], [6.8877, 53.86], [6.88, 53.8773], [6.8788, 53.88], [6.88, 53.882], [6.8891, 53.9], [6.9, 53.9098], [6.9147, 53.92], [6.92, 53.926], [6.94, 53.9304], [6.9593, 53.94], [6.9508, 53.96], [6.94, 53.9655], [6.9218, 53.98]]}}, {"type": "Feature", "properties": {"level": 1010.0}, "geometry": {"type": "LineString", "coordinates": [[7.74, 52.776], [7.7324, 52.78], [7.739, 52.8], [7.74, 52.8006], [7.7443, 52.8], [7.748, 52.78], [7.74, 52.776]]}}, {"type": "Feature", "properties": {"level": 1010.0}, "geometry": {"type": "LineString", "coordinates": [[6.8477, 53.72], [6.86, 53.7112], [6.88, 53.7006], [6.8918, 53.72], [6.88, 53.7316], [6.8723, 53.74], [6.8634, 53.76], [6.86, 53.7655], [6.8467, 53.78], [6.84, 53.7853], [6.82, 53.7914], [6.8, 53.79], [6.7933, 53.78], [6.78, 53.7667], [6.7781, 53.76], [6.78, 53.759], [6.7997, 53.74], [6.8, 53.7392], [6.82, 53.7385], [6.84, 53.7295], [6.8477, 53.72]]}}]}