{"type": "FeatureCollection", "features": [{"type": "Feature", "properties": {"level": 1015.0}, "geometry": {"type": "LineString", "coordinates": [[4.2768, 53.98], [4.26, 53.9611], [4.2592, 53.96], [4.2523, 53.94], [4.26, 53.9283], [4.2627, 53.92], [4.2609, 53.9], [4.26, 53.8979], [4.2507, 53.88], [4.24, 53.8693], [4.2344, 53.86], [4.24, 53.848], [4.2439, 53.84], [4.24, 53.8309], [4.2291, 53.82], [4.2375, 53.8], [4.24, 53.7923], [4.2434, 53.78], [4.24, 53.773], [4.2242, 53.76], [4.2242, 53.74], [4.22, 53.7374], [4.2, 53.7376], [4.18, 53.7259], [4.1701, 53.72], [4.16, 53.715], [4.14, 53.711], [4.12, 53.7019], [4.1169, 53.7], [4.1, 53.6881], [4.08, 53.6844], [4.0722, 53.68], [4.06, 53.6638], [4.0555, 53.66], [4.04, 53.6523], [4.0203, 53.64], [4.02, 53.6397], [4.0018, 53.62], [4.0, 53.6193], [3.98, 53.6186], [3.96, 53.6189], [3.94, 53.6179], [3.937, 53.62], [3.92, 53.6334], [3.9, 53.6343], [3.8853, 53.64], [3.88, 53.6429], [3.86, 53.6488], [3.84, 53.6522], [3.8315, 53.66], [3.82, 53.6637], [3.8, 53.671], [3.78, 53.6746], [3.7691, 53.68], [3.76, 53.6832], [3.74, 53.6851], [3.728, 53.68], [3.72, 53.6773], [3.7148, 53.68], [3.7, 53.6948], [3.68, 53.6977], [3.66, 53.6959], [3.657, 53.7], [3.64, 53.7176], [3.6375, 53.72], [3.64, 53.723], [3.66, 53.7256], [3.68, 53.7362], [3.6859, 53.74], [3.6808, 53.76], [3.68, 53.7604], [3.678, 53.76], [3.66, 53.747], [3.64, 53.7577], [3.62, 53.7577], [3.6156, 53.76], [3.6, 53.7621], [3.58, 53.7744], [3.56, 53.7778], [3.54, 53.7789], [3.5389, 53.78], [3.54, 53.782], [3.558, 53.8], [3.54, 53.8154], [3.5343, 53.82], [3.52, 53.8347], [3.5144, 53.84], [3.5019, 53.86], [3.5, 53.8619], [3.4824, 53.88], [3.48, 53.8832], [3.46, 53.8819], [3.4585, 53.88], [3.44, 53.86], [3.44, 53.86], [3.44, 53.859], [3.4409, 53.84], [3.44, 53.8396], [3.42, 53.8315], [3.4, 53.8307], [3.38, 53.8379], [3.36, 53.8377], [3.358, 53.84], [3.34, 53.8493], [3.3252, 53.86], [3.32, 53.8658], [3.3058, 53.88], [3.3, 53.8842], [3.28, 53.8914], [3.26, 53.8913], [3.2499, 53.9], [3.24, 53.9054], [3.22, 53.9099], [3.2, 53.908], [3.18, 53.9159], [3.1736, 53.92], [3.16, 53.9319], [3.1517, 53.94], [3.14, 53.9517], [3.1334, 53.96], [3.12, 53.9778], [3.1, 53.9735], [3.08, 53.9754], [3.071, 53.98]]}}, {"type": "Feature", "properties": {"level": 1020.0}, "geometry": {"type": "LineString", "coordinates": [[7.74, 50.6364], [7.7288, 50.64], [7.729, 50.66], [7.74, 50.6657], [7.7466, 50.66], [7.7497, 50.64], [7.74, 50.6364]]}}, {"type": "Feature", "properties": {"level": 1020.0}, "geometry": {"type": "LineString", "coordinates": [[7.8834, 51.16], [7.9, 51.1568], [7.92, 51.1589], [7.9213, 51.16], [7.9288, 51.18], [7.92, 51.1884], [7.9003, 51.18], [7.9, 51.1793], [7.8834, 51.16]]}}, {"type": "Feature", "properties": {"level": 1020.0}, "geometry": {"type": "LineString", "coordinates": [[8.2098, 51.28], [8.22, 51.2725], [8.2273, 51.28], [8.24, 51.2927], [8.2434, 51.3], [8.24, 51.3045], [8.22, 51.3092], [8.2098, 51.3], [8.2098, 51.28]]}}, {"type": "Feature", "properties": {"level": 1020.0}, "geometry": {"type": "LineString", "coordinates": [[8.5, 51.348], [8.4946, 51.34], [8.48, 51.3315], [8.46, 51.3296], [8.44, 51.3258], [8.42, 51.3248], [8.4134, 51.32], [8.4, 51.3131], [8.38, 51.3097], [8.36, 51.3082], [8.3532, 51.3], [8.34, 51.2902], [8.32, 51.2886], [8.303, 51.28], [8.3, 51.2749], [8.28, 51.2714], [8.2752, 51.26], [8.26, 51.2442], [8.24, 51.2427], [8.2379, 51.24], [8.24, 51.2342], [8.2427, 51.22], [8.24, 51.2161], [8.22, 51.212], [8.2078, 51.22], [8.2, 51.2232], [8.1821, 51.24], [8.18, 51.2493], [8.1761, 51.24], [8.16, 51.2205], [8.1594, 51.22], [8.14, 51.2027], [8.132, 51.22], [8.1321, 51.24], [8.14, 51.2454], [8.1589, 51.26], [8.16, 51.2699], [8.1648, 51.28], [8.16, 51.2824], [8.14, 51.2812], [8.12, 51.2812], [8.1, 51.2816], [8.0968, 51.28], [8.08, 51.2637], [8.06, 51.2614], [8.0574, 51.26], [8.04, 51.2496], [8.02, 51.25], [8.0, 51.2537], [7.98, 51.2537], [7.963, 51.24], [7.96, 51.2236], [7.9594, 51.22], [7.96, 51.2164], [7.98, 51.2141], [8.0, 51.2017], [8.0044, 51.2], [8.02, 51.1916], [8.0279, 51.2], [8.04, 51.2066], [8.0598, 51.2], [8.0575, 51.18], [8.06, 51.1775], [8.0738, 51.18], [8.08, 51.1822], [8.1, 51.1807], [8.12, 51.1804], [8.14, 51.1878], [8.1406, 51.18], [8.14, 51.1778], [8.1359, 51.16], [8.12, 51.1528], [8.1045, 51.14], [8.1, 51.1329], [8.08, 51.1311], [8.0724, 51.12], [8.06, 51.1006], [8.0584, 51.1], [8.04, 51.0954], [8.02, 51.089], [8.0, 51.0872], [7.9803, 51.08], [7.98, 51.0799], [7.96, 51.08], [7.9596, 51.08], [7.94, 51.0838], [7.92, 51.0861], [7.9, 51.0822], [7.8975, 51.08], [7.8916, 51.06], [7.8827, 51.04], [7.88, 51.0357], [7.8641, 51.02], [7.86, 51.0148], [7.84, 51.0148], [7.8277, 51.02], [7.82, 51.0268], [7.8015, 51.02], [7.8, 51.0197], [7.78, 51.0179], [7.7793, 51.02], [7.78, 51.0204], [7.8, 51.0222], [7.805, 51.04], [7.815, 51.06], [7.82, 51.0674], [7.8227, 51.08], [7.82, 51.088], [7.8138, 51.1], [7.82, 51.1072], [7.8328, 51.12], [7.84, 51.1281], [7.8507, 51.14], [7.84, 51.1534], [7.82, 51.1508], [7.8, 51.1524], [7.78, 51.1506], [7.76, 51.1458], [7.74, 51.1493], [7.72, 51.1498], [7.7053, 51.14], [7.7, 51.1314], [7.68, 51.1301], [7.666, 51.12], [7.68, 51.1017], [7.6824, 51.1], [7.6927, 51.08], [7.7, 51.067], [7.7073, 51.06], [7.72, 51.0553], [7.7333, 51.04], [7.7215, 51.02], [7.72, 51.0193], [7.708, 51.0], [7.7139, 50.98], [7.72, 50.9613], [7.7208, 50.96], [7.74, 50.9455], [7.7514, 50.94], [7.74, 50.9322], [7.72, 50.9322], [7.7, 50.9259], [7.6911, 50.92], [7.68, 50.9025], [7.6787, 50.9], [7.66, 50.8839], [7.655, 50.88], [7.66, 50.8616], [7.68, 50.8672], [7.6882, 50.88], [7.7, 50.8898], [7.7161, 50.88], [7.72, 50.8761], [7.74, 50.8763], [7.7581, 50.86], [7.76, 50.8554], [7.78, 50.8423], [7.7852, 50.84], [7.8, 50.8329], [7.82, 50.8286], [7.8356, 50.82], [7.8356, 50.8], [7.84, 50.7981], [7.8444, 50.8], [7.86, 50.8156], [7.88, 50.8058], [7.8838, 50.8], [7.8845, 50.78], [7.88, 50.775], [7.86, 50.7728], [7.84, 50.7626], [7.8307, 50.76], [7.82, 50.7576], [7.8, 50.7576], [7.78, 50.7472], [7.7716, 50.74], [7.7696, 50.72], [7.76, 50.7041], [7.74, 50.702], [7.72, 50.701], [7.7, 50.7045], [7.6983, 50.7], [7.7, 50.6983], [7.7117, 50.68], [7.7, 50.6647], [7.689, 50.66], [7.68, 50.6563], [7.66, 50.6571], [7.64, 50.6433], [7.62, 50.6405], [7.6191, 50.64], [7.6, 50.6203], [7.5997, 50.62], [7.6, 50.6187], [7.6046, 50.6], [7.6, 50.5963], [7.5835, 50.58], [7.58, 50.5709], [7.56, 50.5778], [7.54, 50.5753], [7.52, 50.5741], [7.5023, 50.56], [7.5, 50.5577], [7.48, 50.554], [7.46, 50.5549], [7.4524, 50.54], [7.44, 50.5254], [7.4307, 50.52], [7.4382, 50.5]]}}, {"type": "Feature", "properties": {"level": 1020.0}, "geometry": {"type": "LineString", "coordinates": [[8.2553, 51.38], [8.26, 51.3749], [8.28, 51.377], [8.3, 51.3763], [8.32, 51.3782], [8.3345, 51.38], [8.32, 51.3837], [8.3, 51.382], [8.28, 51.3829], [8.26, 51.3847], [8.2553, 51.38]]}}, {"type": "Feature", "properties": {"level": 1020.0}, "geometry": {"type": "LineString", "coordinates": [[8.3725, 51.38], [8.38, 51.3787], [8.3832, 51.38], [8.38, 51.385], [8.3725, 51.38]]}}, {"type": "Feature", "properties": {"level": 1020.0}, "geometry": {"type": "LineString", "coordinates": [[8.4569, 51.38], [8.46, 51.3766], [8.48, 51.375], [8.4995, 51.38], [8.48, 51.3978], [8.46, 51.3831], [8.4569, 51.38]]}}]}