{"type": "FeatureCollection", "features": [{"type": "Feature", "properties": {"level": 1030.0}, "geometry": {"type": "LineString", "coordinates": [[3.5578, 53.48], [3.56, 53.4739], [3.5674, 53.48], [3.56, 53.4824], [3.5578, 53.48]]}}, {"type": "Feature", "properties": {"level": 1030.0}, "geometry": {"type": "LineString", "coordinates": [[4.1027, 53.98], [4.1, 53.9782], [4.0819, 53.96], [4.08, 53.9571], [4.0687, 53.94], [4.06, 53.9314], [4.0424, 53.92], [4.04, 53.9177], [4.0223, 53.9], [4.02, 53.8976], [4.0036, 53.88], [4.0, 53.8776], [3.98, 53.8762], [3.9649, 53.86], [3.96, 53.855], [3.9453, 53.84], [3.94, 53.8347], [3.9302, 53.82], [3.92, 53.8101], [3.9093, 53.8], [3.9, 53.7912], [3.8826, 53.78], [3.88, 53.7774], [3.8622, 53.76], [3.86, 53.7586], [3.842, 53.74], [3.84, 53.7379], [3.8231, 53.72], [3.82, 53.7151], [3.8, 53.7151], [3.7903, 53.7], [3.78, 53.6889], [3.7716, 53.68], [3.76, 53.6676], [3.7491, 53.66], [3.74, 53.6493], [3.7322, 53.64], [3.72, 53.6251], [3.7158, 53.62], [3.7, 53.609], [3.6919, 53.6], [3.68, 53.5811], [3.6789, 53.58], [3.6615, 53.56], [3.66, 53.5582], [3.6442, 53.54], [3.64, 53.5354], [3.62, 53.5354], [3.6066, 53.52], [3.6, 53.5122], [3.5904, 53.5], [3.6, 53.4904], [3.604, 53.48], [3.6, 53.4759], [3.58, 53.4674], [3.5739, 53.46], [3.56, 53.4546], [3.5463, 53.44], [3.54, 53.4334], [3.5203, 53.42], [3.52, 53.4196], [3.5019, 53.4], [3.5, 53.3987], [3.4823, 53.38], [3.48, 53.3763], [3.4694, 53.36], [3.46, 53.3498], [3.4451, 53.34], [3.44, 53.3344], [3.4263, 53.32], [3.42, 53.313], [3.4078, 53.3], [3.4, 53.2946], [3.3861, 53.28], [3.38, 53.2733], [3.3676, 53.26], [3.36, 53.248], [3.34, 53.248], [3.3349, 53.24], [3.32, 53.2238], [3.3165, 53.22], [3.3, 53.2023], [3.2966, 53.2], [3.28, 53.1814], [3.2787, 53.18], [3.2616, 53.16], [3.2616, 53.14], [3.26, 53.1394], [3.2419, 53.12], [3.24, 53.118], [3.22, 53.1137], [3.2096, 53.1], [3.2, 53.0875], [3.1944, 53.08], [3.18, 53.0602], [3.16, 53.0601], [3.1599, 53.06], [3.16, 53.0594], [3.162, 53.04], [3.16, 53.0368], [3.1496, 53.02], [3.14, 53.0093], [3.1265, 53.0], [3.12, 52.9925], [3.1092, 52.98], [3.1, 52.9699], [3.091, 52.96], [3.08, 52.9527], [3.0674, 52.94], [3.06, 52.9286], [3.0543, 52.92], [3.04, 52.906], [3.0308, 52.9], [3.02, 52.89], [3.0091, 52.88], [3.0, 52.872], [2.98, 52.8685], [2.9665, 52.86], [2.96, 52.8544], [2.9433, 52.84], [2.94, 52.8372], [2.92, 52.8207], [2.9, 52.8203], [2.8997, 52.82], [2.9, 52.8191], [2.9059, 52.8], [2.9, 52.7945], [2.8844, 52.78], [2.88, 52.7759], [2.86, 52.7688], [2.8497, 52.76], [2.84, 52.7518], [2.826, 52.74], [2.82, 52.735], [2.8, 52.7253], [2.7941, 52.72], [2.78, 52.7064], [2.7732, 52.7], [2.76, 52.6804], [2.7596, 52.68], [2.74, 52.6612], [2.72, 52.6608], [2.7192, 52.66], [2.7, 52.6409], [2.6986, 52.64], [2.68, 52.6221], [2.6779, 52.62], [2.66, 52.6046], [2.6548, 52.6], [2.64, 52.5852], [2.6363, 52.58], [2.62, 52.5654], [2.6133, 52.56], [2.6, 52.5485], [2.585, 52.54], [2.58, 52.5363], [2.56, 52.5241], [2.55, 52.52], [2.54, 52.5156], [2.52, 52.5062], [2.5126, 52.5], [2.5, 52.4894]]}}]}