{"type": "FeatureCollection", "features": [{"type": "Feature", "properties": {"level": 1015.0}, "geometry": {"type": "LineString", "coordinates": [[2.5, 50.9902], [2.5102, 50.98], [2.52, 50.9697], [2.5309, 50.96], [2.54, 50.9453], [2.5447, 50.94], [2.54, 50.9302], [2.5357, 50.92], [2.5281, 50.9], [2.52, 50.886], [2.5164, 50.88], [2.52, 50.8696], [2.5264, 50.86], [2.527, 50.84], [2.52, 50.8355], [2.5042, 50.82], [2.5, 50.817]]}}, {"type": "Feature", "properties": {"level": 1015.0}, "geometry": {"type": "LineString", "coordinates": [[2.5, 51.0855], [2.52, 51.0823], [2.5215, 51.08], [2.5242, 51.06], [2.52, 51.0401], [2.5199, 51.04], [2.5, 51.0221]]}}, {"type": "Feature", "properties": {"level": 1015.0}, "geometry": {"type": "LineString", "coordinates": [[2.5, 52.5616], [2.5007, 52.56], [2.5, 52.5587]]}}, {"type": "Feature", "properties": {"level": 1015.0}, "geometry": {"type": "LineString", "coordinates": [[2.5, 52.6141], [2.5016, 52.6], [2.5, 52.5984]]}}, {"type": "Feature", "properties": {"level": 1015.0}, "geometry": {"type": "LineString", "coordinates": [[3.0371, 53.98], [3.0399, 53.96], [3.02, 53.9432], [3.0178, 53.94], [3.02, 53.9343], [3.0258, 53.92], [3.02, 53.9127], [3.0036, 53.9], [3.0019, 53.88], [3.02, 53.8645], [3.0224, 53.86], [3.02, 53.8552], [3.0139, 53.84], [3.02, 53.8276], [3.0241, 53.82], [3.02, 53.8127], [3.0066, 53.8], [3.0, 53.7872], [2.9962, 53.78], [2.98, 53.7684], [2.9728, 53.76], [2.96, 53.7436], [2.9575, 53.74], [2.96, 53.7346], [2.9666, 53.72], [2.96, 53.7089], [2.9503, 53.7], [2.9506, 53.68], [2.9515, 53.66], [2.9457, 53.64], [2.9423, 53.62], [2.94, 53.6162], [2.9255, 53.62], [2.92, 53.6215], [2.9187, 53.62], [2.92, 53.6157], [2.9249, 53.6], [2.92, 53.5948], [2.9, 53.5835], [2.898, 53.58], [2.8869, 53.56], [2.8808, 53.54], [2.88, 53.5363], [2.86, 53.5224], [2.8586, 53.52], [2.86, 53.5169], [2.8682, 53.5], [2.86, 53.487], [2.8554, 53.48], [2.8437, 53.46], [2.84, 53.4512], [2.8332, 53.44], [2.82, 53.4234], [2.8, 53.421], [2.7992, 53.42], [2.8, 53.4179], [2.8179, 53.4], [2.8, 53.3906], [2.7928, 53.38], [2.78, 53.3613], [2.7783, 53.36], [2.7723, 53.34], [2.78, 53.3271], [2.7821, 53.32], [2.78, 53.3161], [2.7706, 53.3], [2.76, 53.2877], [2.7495, 53.28], [2.74, 53.2617], [2.72, 53.2607], [2.7196, 53.26], [2.7162, 53.24], [2.72, 53.2359], [2.7276, 53.22], [2.72, 53.2052], [2.7172, 53.2], [2.72, 53.1941], [2.7272, 53.18], [2.72, 53.1683], [2.7104, 53.16], [2.7028, 53.14], [2.7, 53.1233], [2.6995, 53.12], [2.6889, 53.1], [2.68, 53.0819], [2.679, 53.08], [2.68, 53.0769], [2.6936, 53.06], [2.6827, 53.04], [2.68, 53.038], [2.6622, 53.02], [2.66, 53.0175], [2.64, 53.0149], [2.6299, 53.0], [2.62, 52.9901], [2.6144, 52.98], [2.62, 52.964], [2.6229, 52.96], [2.6207, 52.94], [2.621, 52.92], [2.6203, 52.9], [2.62, 52.8993], [2.6096, 52.88], [2.6, 52.8635], [2.5957, 52.86], [2.5822, 52.84], [2.58, 52.8372], [2.5628, 52.82], [2.56, 52.8167], [2.54, 52.8041], [2.5367, 52.8], [2.52, 52.78], [2.52, 52.78], [2.52, 52.78], [2.5322, 52.76], [2.54, 52.7475], [2.5476, 52.74], [2.5456, 52.72], [2.54, 52.7085], [2.5277, 52.7], [2.52, 52.6836], [2.5118, 52.68], [2.5118, 52.66], [2.5, 52.6502]]}}, {"type": "Feature", "properties": {"level": 1020.0}, "geometry": {"type": "LineString", "coordinates": [[8.1078, 50.58], [8.12, 50.5755], [8.14, 50.5748], [8.16, 50.5727], [8.1719, 50.58], [8.18, 50.5881], [8.2, 50.5961], [8.22, 50.5983], [8.2214, 50.6], [8.22, 50.6035], [8.2112, 50.62], [8.22, 50.6377], [8.24, 50.6325], [8.2551, 50.64], [8.24, 50.6442], [8.22, 50.6434], [8.2069, 50.66], [8.2, 50.6679], [8.184, 50.68], [8.1828, 50.7], [8.18, 50.7017], [8.1637, 50.7], [8.16, 50.6993], [8.14, 50.6993], [8.1391, 50.7], [8.12, 50.7068], [8.1, 50.7163], [8.08, 50.7116], [8.06, 50.7122], [8.04, 50.7122], [8.02, 50.7002], [8.0196, 50.7], [8.0198, 50.68], [8.0151, 50.66], [8.02, 50.6535], [8.0335, 50.64], [8.04, 50.6261], [8.06, 50.6382], [8.068, 50.62], [8.08, 50.6127], [8.1, 50.6039], [8.1055, 50.6], [8.1078, 50.58]]}}, {"type": "Feature", "properties": {"level": 1020.0}, "geometry": {"type": "LineString", "coordinates": [[8.5, 50.7567], [8.4877, 50.74], [8.5, 50.7241]]}}, {"type": "Feature", "properties": {"level": 1020.0}, "geometry": {"type": "LineString", "coordinates": [[8.5, 50.839], [8.48, 50.839], [8.4784, 50.84], [8.46, 50.8574], [8.4578, 50.86], [8.44, 50.8701], [8.4268, 50.88], [8.44, 50.899], [8.46, 50.8969], [8.4677, 50.88], [8.48, 50.8614], [8.4844, 50.86], [8.5, 50.8429]]}}, {"type": "Feature", "properties": {"level": 1020.0}, "geometry": {"type": "LineString", "coordinates": [[8.38, 50.9179], [8.379, 50.92], [8.38, 50.9217], [8.4, 50.9277], [8.4053, 50.92], [8.4, 50.9155], [8.38, 50.9179]]}}, {"type": "Feature", "properties": {"level": 1020.0}, "geometry": {"type": "LineString", "coordinates": [[8.5, 50.9132], [8.48, 50.9134], [8.46, 50.9153], [8.4576, 50.92], [8.44, 50.94], [8.46, 50.96], [8.48, 50.9434], [8.4872, 50.94], [8.5, 50.9312]]}}, {"type": "Feature", "properties": {"level": 1020.0}, "geometry": {"type": "LineString", "coordinates": [[8.3799, 51.28], [8.38, 51.28], [8.38, 51.28], [8.38, 51.28], [8.3799, 51.28]]}}, {"type": "Feature", "properties": {"level": 1020.0}, "geometry": {"type": "LineString", "coordinates": [[8.5, 51.2871], [8.4833, 51.3], [8.4952, 51.32], [8.48, 51.3223], [8.4721, 51.32], [8.46, 51.3151], [8.44, 51.3092], [8.42, 51.304], [8.4, 51.3021], [8.3937, 51.3], [8.4, 51.2915], [8.4071, 51.28], [8.4137, 51.26], [8.4, 51.252], [8.38, 51.2505], [8.3614, 51.24], [8.36, 51.2387], [8.3478, 51.22], [8.34, 51.2144], [8.3265, 51.22], [8.32, 51.2265], [8.3, 51.223], [8.2964, 51.22], [8.3, 51.2079], [8.3021, 51.2], [8.32, 51.1809], [8.3213, 51.18], [8.3327, 51.16], [8.34, 51.1518], [8.3446, 51.14], [8.34, 51.1331], [8.32, 51.1246], [8.3, 51.1228], [8.28, 51.1215], [8.2742, 51.12], [8.26, 51.1153], [8.24, 51.1172], [8.22, 51.1125], [8.2, 51.1097], [8.1888, 51.1], [8.18, 51.0912], [8.1738, 51.08], [8.16, 51.0642], [8.1548, 51.06], [8.1412, 51.04], [8.1456, 51.02], [8.14, 51.0055], [8.1391, 51.0], [8.14, 50.9992], [8.1547, 50.98], [8.16, 50.9729], [8.1721, 50.96], [8.1704, 50.94], [8.18, 50.9317], [8.1957, 50.92], [8.2, 50.9172], [8.2176, 50.9], [8.22, 50.8859], [8.2222, 50.88], [8.2286, 50.86], [8.22, 50.8451], [8.2148, 50.84], [8.22, 50.8348], [8.24, 50.8333], [8.26, 50.834], [8.2709, 50.84], [8.28, 50.8443], [8.3, 50.8443], [8.32, 50.8493], [8.34, 50.8508], [8.36, 50.8511], [8.38, 50.845], [8.395, 50.86], [8.4, 50.8654], [8.4031, 50.86], [8.4031, 50.84], [8.4, 50.8364], [8.392, 50.82], [8.4, 50.8066], [8.4067, 50.8], [8.4, 50.7929], [8.38, 50.7929], [8.36, 50.7815], [8.3581, 50.78], [8.36, 50.7776], [8.38, 50.7731], [8.4, 50.7663], [8.42, 50.7626], [8.44, 50.7614], [8.4427, 50.76], [8.46, 50.7457], [8.4777, 50.76], [8.48, 50.7618], [8.4982, 50.78], [8.5, 50.7811]]}}]}