{"type": "FeatureCollection", "features": [{"type": "Feature", "properties": {"level": 1025.0}, "geometry": {"type": "LineString", "coordinates": [[8.5, 52.8493], [8.4894, 52.84], [8.48, 52.8295], [8.4702, 52.82], [8.46, 52.8132], [8.44, 52.8064], [8.42, 52.8056], [8.4, 52.8056], [8.3887, 52.8], [8.38, 52.7975], [8.36, 52.7964], [8.341, 52.8], [8.34, 52.8004], [8.3204, 52.82], [8.32, 52.8201], [8.3176, 52.82], [8.3, 52.8184], [8.2964, 52.82], [8.28, 52.8247], [8.26, 52.8228], [8.24, 52.8224], [8.22, 52.8347], [8.2, 52.8322], [8.18, 52.8291], [8.16, 52.8284], [8.14, 52.8241], [8.12, 52.8215], [8.118, 52.82], [8.1, 52.8045], [8.0923, 52.8], [8.08, 52.7901], [8.0643, 52.78], [8.06, 52.7771], [8.04, 52.7768], [8.02, 52.7621], [8.0, 52.7604], [7.9987, 52.76], [7.98, 52.753], [7.96, 52.7429], [7.94, 52.7429], [7.9377, 52.74], [7.9267, 52.72], [7.92, 52.7133], [7.9, 52.7108], [7.88, 52.7041], [7.86, 52.7022], [7.84, 52.7022], [7.82, 52.7041], [7.8089, 52.7], [7.8, 52.6953], [7.78, 52.6955], [7.7631, 52.7], [7.76, 52.701], [7.74, 52.701], [7.72, 52.7071], [7.7067, 52.7], [7.7, 52.696], [7.68, 52.6915], [7.66, 52.6888], [7.64, 52.6981], [7.62, 52.6971], [7.6, 52.6934], [7.58, 52.6911], [7.56, 52.6914], [7.54, 52.6853], [7.5265, 52.68], [7.52, 52.6769], [7.5, 52.6685], [7.48, 52.6674], [7.46, 52.6674], [7.4414, 52.66], [7.44, 52.6597], [7.42, 52.6593], [7.4, 52.6573], [7.3923, 52.66], [7.38, 52.6662], [7.36, 52.6795], [7.34, 52.6781], [7.32, 52.6634], [7.3, 52.6634], [7.2847, 52.68], [7.28, 52.6825], [7.26, 52.686], [7.24, 52.6918], [7.22, 52.6973], [7.2, 52.6941], [7.18, 52.698], [7.16, 52.698], [7.143, 52.7], [7.14, 52.7003], [7.12, 52.7002], [7.1194, 52.7], [7.1, 52.6943], [7.08, 52.6973], [7.06, 52.6976], [7.04, 52.6899], [7.02, 52.6803], [7.017, 52.68], [7.0, 52.6783], [6.98, 52.6712], [6.96, 52.6713], [6.94, 52.6671], [6.92, 52.6667], [6.902, 52.66], [6.9, 52.6589], [6.8948, 52.66], [6.88, 52.6688], [6.86, 52.6688], [6.84, 52.6613], [6.82, 52.6607], [6.817, 52.66], [6.8, 52.658], [6.7973, 52.66], [6.78, 52.6717], [6.76, 52.6717], [6.7428, 52.68], [6.74, 52.6809], [6.7354, 52.68], [6.72, 52.6746], [6.7, 52.6738], [6.68, 52.669], [6.66, 52.6707], [6.64, 52.6697], [6.62, 52.6687], [6.6, 52.6635], [6.58, 52.6635], [6.56, 52.6616], [6.5572, 52.66], [6.54, 52.6474], [6.5275, 52.64], [6.52, 52.6346], [6.5036, 52.62], [6.5, 52.6154], [6.48, 52.6151], [6.46, 52.6137], [6.44, 52.6068], [6.4267, 52.6], [6.42, 52.5935], [6.4079, 52.58], [6.4, 52.5753], [6.38, 52.5707], [6.36, 52.5678], [6.34, 52.5678], [6.3327, 52.56], [6.32, 52.5538], [6.3, 52.5459], [6.28, 52.5423], [6.2751, 52.54], [6.26, 52.5325], [6.24, 52.523], [6.22, 52.5234], [6.2, 52.5214], [6.1972, 52.52], [6.18, 52.5109], [6.1609, 52.5], [6.16, 52.4994], [6.14, 52.4925], [6.12, 52.4925], [6.104, 52.48], [6.1, 52.4773], [6.08, 52.4618], [6.0781, 52.46], [6.06, 52.4487], [6.0459, 52.44], [6.04, 52.436], [6.02, 52.4292], [6.0, 52.4282], [5.98, 52.4245], [5.9673, 52.42], [5.96, 52.4127], [5.9448, 52.4], [5.94, 52.3984], [5.9378, 52.4], [5.92, 52.4099], [5.9, 52.4005], [5.88, 52.4005], [5.86, 52.4001], [5.8597, 52.4], [5.84, 52.3803], [5.8392, 52.38], [5.82, 52.3768], [5.8141, 52.38], [5.8, 52.3908], [5.78, 52.3837], [5.76, 52.384], [5.74, 52.3827], [5.7345, 52.38], [5.72, 52.3688], [5.7057, 52.36], [5.7, 52.3588], [5.6978, 52.36], [5.68, 52.373], [5.66, 52.3702], [5.64, 52.3726], [5.62, 52.3702], [5.6, 52.3742], [5.58, 52.3664], [5.5678, 52.36], [5.56, 52.3568], [5.54, 52.3572], [5.52, 52.3525], [5.5, 52.3465], [5.48, 52.3402], [5.46, 52.3401], [5.4595, 52.34], [5.44, 52.3352], [5.42, 52.3348], [5.4, 52.3367], [5.38, 52.3279], [5.36, 52.3221], [5.34, 52.3213], [5.3374, 52.32], [5.32, 52.3022], [5.3, 52.3054], [5.2954, 52.3], [5.3, 52.2867], [5.3067, 52.28], [5.3, 52.274], [5.28, 52.2724], [5.26, 52.2629], [5.2545, 52.26], [5.24, 52.2519], [5.22, 52.2549], [5.2, 52.2525], [5.18, 52.2545], [5.16, 52.2572], [5.14, 52.2563], [5.12, 52.253], [5.1, 52.2499], [5.0881, 52.24], [5.08, 52.2353], [5.06, 52.2246], [5.04, 52.2242], [5.02, 52.2237], [5.0078, 52.22], [5.0, 52.2143], [4.9895, 52.2], [4.98, 52.1941], [4.96, 52.1872], [4.94, 52.1838], [4.9299, 52.18], [4.92, 52.174], [4.9, 52.1681], [4.88, 52.1651], [4.86, 52.1651], [4.8494, 52.16], [4.84, 52.1547], [4.82, 52.1506], [4.8, 52.1529], [4.78, 52.1434], [4.7741, 52.14], [4.76, 52.1317], [4.7445, 52.12], [4.74, 52.1152], [4.7234, 52.1], [4.72, 52.0975], [4.7, 52.0946], [4.68, 52.0838], [4.6734, 52.08], [4.66, 52.0701], [4.6482, 52.06], [4.64, 52.0555], [4.62, 52.0506], [4.6003, 52.04], [4.6, 52.0398], [4.58, 52.032], [4.56, 52.0232], [4.5526, 52.02], [4.54, 52.0135], [4.5231, 52.0], [4.52, 51.9957], [4.5, 51.9893], [4.4893, 52.0], [4.48, 52.0019], [4.4756, 52.0], [4.46, 51.9932], [4.44, 51.988], [4.42, 51.9843], [4.4062, 51.98], [4.4, 51.9757], [4.3826, 51.96], [4.38, 51.959], [4.36, 51.9575], [4.34, 51.958], [4.32, 51.9517], [4.3066, 51.96], [4.3, 51.9629], [4.2943, 51.96], [4.28, 51.9471], [4.2727, 51.94], [4.26, 51.9344], [4.24, 51.9303], [4.22, 51.9275], [4.2, 51.929], [4.1829, 51.92], [4.18, 51.9187], [4.16, 51.9173], [4.14, 51.9111], [4.12, 51.9075], [4.1, 51.9081], [4.08, 51.9041], [4.06, 51.9053], [4.04, 51.9029], [4.0369, 51.9], [4.02, 51.8818], [4.0173, 51.88], [4.0, 51.8695], [3.9823, 51.86], [3.98, 51.8591], [3.9714, 51.86], [3.96, 51.862], [3.9553, 51.86], [3.94, 51.8554], [3.92, 51.8518], [3.9, 51.8524], [3.88, 51.8471], [3.8655, 51.84], [3.86, 51.8376], [3.84, 51.8337], [3.82, 51.8271], [3.8068, 51.82], [3.8, 51.8164], [3.78, 51.8132], [3.76, 51.8159], [3.74, 51.8115], [3.72, 51.8075], [3.7, 51.8046], [3.68, 51.8003], [3.66, 51.8002], [3.6592, 51.8], [3.64, 51.7879], [3.62, 51.7948], [3.6, 51.7997], [3.58, 51.7929], [3.56, 51.793], [3.54, 51.795], [3.52, 51.7953], [3.5085, 51.8], [3.5, 51.8028], [3.4847, 51.8], [3.48, 51.7991], [3.4764, 51.8], [3.46, 51.8038], [3.4483, 51.8], [3.44, 51.7965], [3.4215, 51.8], [3.42, 51.8002], [3.4194, 51.8], [3.4, 51.792], [3.38, 51.789], [3.36, 51.7915], [3.34, 51.7902], [3.32, 51.7905], [3.3, 51.7895], [3.28, 51.7866], [3.26, 51.7843], [3.24, 51.7887], [3.22, 51.7814], [3.2, 51.7875], [3.18, 51.7911], [3.16, 51.7948], [3.1467, 51.8], [3.14, 51.803], [3.12, 51.8052], [3.1, 51.8119], [3.0821, 51.82], [3.08, 51.822], [3.0608, 51.84], [3.06, 51.8404], [3.04, 51.8407], [3.02, 51.8495], [3.0, 51.8574], [2.98, 51.8577], [2.9746, 51.86], [2.96, 51.8663], [2.94, 51.8701], [2.92, 51.8701], [2.9012, 51.88], [2.9, 51.8803], [2.88, 51.8804], [2.8783, 51.88], [2.86, 51.8769], [2.8501, 51.88], [2.84, 51.8832], [2.8234, 51.88], [2.82, 51.8794], [2.8181, 51.88], [2.8, 51.887], [2.782, 51.9], [2.78, 51.9015], [2.76, 51.9014], [2.74, 51.902], [2.72, 51.903], [2.7, 51.9068], [2.68, 51.9038], [2.66, 51.9026], [2.64, 51.9039], [2.62, 51.9041], [2.6, 51.9067], [2.58, 51.9109], [2.56, 51.9118], [2.54, 51.9169], [2.52, 51.9124], [2.5056, 51.92], [2.5, 51.922]]}}]}