{"type": "FeatureCollection", "features": [{"type": "Feature", "properties": {"level": 1025.0}, "geometry": {"type": "LineString", "coordinates": [[2.9567, 50.5], [2.94, 50.5121], [2.9315, 50.52], [2.94, 50.5348], [2.9452, 50.54], [2.94, 50.5527], [2.9354, 50.56], [2.9262, 50.58], [2.92, 50.5854], [2.9, 50.5989], [2.88, 50.5891], [2.8623, 50.58], [2.86, 50.5783], [2.84, 50.5684], [2.82, 50.5684], [2.8, 50.5611], [2.7983, 50.56], [2.78, 50.5513], [2.76, 50.5411], [2.74, 50.5406], [2.72, 50.5434], [2.7135, 50.56], [2.7068, 50.58], [2.7, 50.5859], [2.6877, 50.6], [2.68, 50.6156], [2.6762, 50.62], [2.66, 50.6317], [2.6444, 50.64], [2.64, 50.6458], [2.62, 50.6458], [2.6, 50.6564], [2.5944, 50.66], [2.5884, 50.68], [2.58, 50.6877], [2.5677, 50.7], [2.56, 50.7083], [2.54, 50.7151], [2.52, 50.7176], [2.5158, 50.72], [2.5, 50.7287]]}}, {"type": "Feature", "properties": {"level": 1025.0}, "geometry": {"type": "LineString", "coordinates": [[6.0895, 50.5], [6.0926, 50.52], [6.08, 50.5253], [6.06, 50.5231], [6.0484, 50.52], [6.046, 50.5]]}}]}