{"type": "FeatureCollection", "features": [{"type": "Feature", "properties": {"level": 1005.0}, "geometry": {"type": "LineString", "coordinates": [[8.5, 53.7601], [8.4998, 53.76], [8.48, 53.7499], [8.4604, 53.74], [8.46, 53.7396], [8.44, 53.7396], [8.4384, 53.74], [8.42, 53.7423], [8.4128, 53.74], [8.4, 53.7356], [8.38, 53.7356], [8.3675, 53.74], [8.36, 53.7421], [8.3544, 53.74], [8.34, 53.7348], [8.32, 53.7358], [8.3, 53.729], [8.28, 53.7297], [8.26, 53.7297], [8.24, 53.7283], [8.22, 53.7273], [8.2, 53.7285], [8.18, 53.732], [8.16, 53.7286], [8.14, 53.7301], [8.12, 53.7237], [8.1, 53.7256], [8.08, 53.7233], [8.0735, 53.72], [8.06, 53.7136], [8.04, 53.7065], [8.02, 53.7084], [8.0, 53.7046], [7.9801, 53.7], [7.98, 53.7], [7.96, 53.6999], [7.94, 53.6949], [7.9284, 53.7], [7.9284, 53.72], [7.92, 53.7229], [7.9041, 53.72], [7.9, 53.7159], [7.88, 53.719], [7.86, 53.7191], [7.84, 53.7192], [7.8363, 53.72], [7.82, 53.7229], [7.809, 53.72], [7.8, 53.7165], [7.789, 53.72], [7.78, 53.7217], [7.76, 53.7222], [7.7529, 53.72], [7.74, 53.7163], [7.72, 53.7175], [7.7, 53.711], [7.68, 53.7039], [7.66, 53.7039], [7.64, 53.702], [7.6354, 53.7], [7.62, 53.6937], [7.6, 53.6903], [7.58, 53.6903], [7.56, 53.6894], [7.54, 53.6802], [7.52, 53.6867], [7.5, 53.6945], [7.48, 53.6972], [7.4694, 53.7], [7.46, 53.7047], [7.44, 53.7157], [7.42, 53.716], [7.4089, 53.72], [7.4, 53.7221], [7.3932, 53.72], [7.38, 53.7143], [7.36, 53.7138], [7.34, 53.7063], [7.3242, 53.7], [7.32, 53.6884], [7.3, 53.6822], [7.2977, 53.68], [7.3, 53.6713], [7.3021, 53.66], [7.3, 53.6586], [7.28, 53.6577], [7.2667, 53.66], [7.26, 53.6616], [7.24, 53.6607], [7.22, 53.6604], [7.2194, 53.66], [7.2, 53.6406], [7.1985, 53.64], [7.18, 53.6366], [7.1753, 53.64], [7.16, 53.6533], [7.14, 53.6549], [7.12, 53.6573], [7.1, 53.6486], [7.0814, 53.64], [7.08, 53.6385], [7.06, 53.6391], [7.0575, 53.64], [7.04, 53.6461], [7.02, 53.6449], [7.0, 53.6499], [6.9857, 53.66], [6.98, 53.6619], [6.96, 53.6666], [6.94, 53.6725], [6.9316, 53.68], [6.92, 53.6918], [6.9, 53.6848], [6.88, 53.6848], [6.8633, 53.68], [6.86, 53.6791], [6.8474, 53.66], [6.84, 53.6516], [6.82, 53.6456], [6.809, 53.64], [6.806, 53.62], [6.8, 53.6153], [6.7879, 53.62], [6.78, 53.6266], [6.7719, 53.64], [6.76, 53.6467], [6.746, 53.66], [6.74, 53.6626], [6.72, 53.6624], [6.7, 53.6661], [6.6841, 53.66], [6.68, 53.6559], [6.66, 53.6573], [6.64, 53.6527], [6.62, 53.6458], [6.6, 53.6474], [6.58, 53.6429], [6.5747, 53.64], [6.56, 53.6324], [6.5447, 53.62], [6.54, 53.6133], [6.5267, 53.6], [6.52, 53.5958], [6.5, 53.5948], [6.4818, 53.58], [6.48, 53.5782], [6.46, 53.5756], [6.44, 53.5632], [6.4352, 53.56], [6.42, 53.5559], [6.4019, 53.56], [6.4, 53.561], [6.38, 53.5615], [6.36, 53.5713], [6.3523, 53.58], [6.34, 53.5983], [6.3384, 53.6], [6.32, 53.6166], [6.315, 53.62], [6.3, 53.6265], [6.28, 53.625], [6.26, 53.6208], [6.2587, 53.62], [6.24, 53.6096], [6.22, 53.6084], [6.2026, 53.6], [6.2, 53.5981], [6.18, 53.5901], [6.16, 53.5845], [6.1471, 53.58], [6.14, 53.5779], [6.12, 53.5782], [6.1035, 53.58], [6.1, 53.5804], [6.099, 53.58], [6.08, 53.5721], [6.06, 53.5692], [6.04, 53.5692], [6.02, 53.5702], [6.0, 53.5722], [5.98, 53.572], [5.96, 53.5768], [5.94, 53.5768], [5.9326, 53.58], [5.92, 53.5835], [5.9, 53.5853], [5.8882, 53.58], [5.88, 53.5775], [5.868, 53.58], [5.868, 53.6], [5.86, 53.6021], [5.84, 53.6005], [5.82, 53.6004], [5.8, 53.6047], [5.78, 53.6047], [5.76, 53.6088], [5.74, 53.6115], [5.72, 53.614], [5.7056, 53.62], [5.7, 53.6221], [5.68, 53.623], [5.6663, 53.62], [5.66, 53.6189], [5.6563, 53.62], [5.64, 53.6252], [5.6249, 53.62], [5.62, 53.6183], [5.6127, 53.62], [5.6, 53.6224], [5.58, 53.6238], [5.56, 53.6271], [5.54, 53.6325], [5.5317, 53.64], [5.52, 53.6513], [5.5, 53.6549], [5.483, 53.66], [5.48, 53.6608], [5.46, 53.6636], [5.44, 53.6647], [5.4352, 53.68], [5.42, 53.6869], [5.4, 53.6903], [5.38, 53.6861], [5.36, 53.6857], [5.3433, 53.68], [5.34, 53.678], [5.336, 53.68], [5.32, 53.6871], [5.3, 53.6879], [5.28, 53.6908], [5.2654, 53.7], [5.26, 53.703], [5.24, 53.7035], [5.22, 53.7019], [5.2156, 53.7], [5.2, 53.685], [5.1951, 53.68], [5.18, 53.6678], [5.1649, 53.66], [5.16, 53.6587], [5.1527, 53.66], [5.14, 53.6653], [5.12, 53.673], [5.1, 53.6778], [5.0978, 53.68], [5.08, 53.6901], [5.0697, 53.7], [5.06, 53.7076], [5.04, 53.7187], [5.0235, 53.72], [5.02, 53.7203], [5.0, 53.725], [4.9897, 53.72], [4.98, 53.7143], [4.9612, 53.72], [4.96, 53.7206], [4.94, 53.7206], [4.9219, 53.72], [4.92, 53.72], [4.9199, 53.72], [4.9, 53.7389], [4.88, 53.7389], [4.86, 53.7395], [4.8595, 53.74], [4.84, 53.7582], [4.8355, 53.76], [4.82, 53.7743], [4.8, 53.7743], [4.78, 53.7795], [4.779, 53.78], [4.76, 53.789], [4.74, 53.7846], [4.72, 53.7824], [4.7, 53.7824], [4.6945, 53.78], [4.68, 53.771], [4.66, 53.7628], [4.64, 53.7647], [4.62, 53.7647], [4.6, 53.7741], [4.593, 53.78], [4.58, 53.7895], [4.5665, 53.8], [4.56, 53.8092], [4.5513, 53.82], [4.54, 53.8313], [4.5296, 53.84], [4.52, 53.8578], [4.5189, 53.86], [4.5083, 53.88], [4.5, 53.8918], [4.4914, 53.9], [4.48, 53.9071], [4.46, 53.9139], [4.44, 53.9084], [4.4211, 53.9], [4.42, 53.8992], [4.4041, 53.88], [4.4, 53.8766], [4.3916, 53.88], [4.38, 53.8916], [4.36, 53.8883], [4.3494, 53.9], [4.34, 53.9047], [4.321, 53.92], [4.32, 53.9206], [4.3, 53.9252], [4.28, 53.9252], [4.26, 53.9326], [4.2411, 53.94], [4.24, 53.941], [4.2325, 53.94], [4.22, 53.9387], [4.217, 53.94], [4.2, 53.957], [4.1955, 53.96], [4.18, 53.9636], [4.16, 53.9629], [4.14, 53.9634], [4.12, 53.9643], [4.1, 53.9624], [4.0932, 53.96], [4.08, 53.9509], [4.0702, 53.94], [4.06, 53.9332], [4.0503, 53.94], [4.04, 53.9464], [4.02, 53.948], [4.0, 53.9532], [3.9889, 53.96], [3.98, 53.9645], [3.96, 53.9699], [3.94, 53.9762], [3.9313, 53.98]]}}, {"type": "Feature", "properties": {"level": 1005.0}, "geometry": {"type": "LineString", "coordinates": [[3.9085, 53.98], [3.9, 53.9764], [3.88, 53.976], [3.86, 53.9738], [3.8533, 53.98]]}}, {"type": "Feature", "properties": {"level": 1010.0}, "geometry": {"type": "LineString", "coordinates": [[8.5, 52.0317], [8.48, 52.03], [8.47, 52.04], [8.46, 52.0466], [8.44, 52.0503], [8.42, 52.0496], [8.4, 52.0477], [8.38, 52.0535], [8.36, 52.051], [8.34, 52.0418], [8.32, 52.0421], [8.3156, 52.04], [8.3, 52.0319], [8.28, 52.0272], [8.26, 52.0287], [8.24, 52.0275], [8.22, 52.0204], [8.2, 52.0208], [8.1983, 52.02], [8.18, 52.0114], [8.16, 52.0114], [8.1403, 52.0], [8.14, 51.9998], [8.12, 51.9992], [8.1, 51.9898], [8.0803, 51.98], [8.08, 51.9799], [8.06, 51.9799], [8.0592, 51.98], [8.04, 51.9841], [8.02, 51.9831], [8.0, 51.9917], [7.9843, 52.0], [7.98, 52.003], [7.96, 52.0123], [7.9426, 52.0], [7.94, 51.9996], [7.92, 51.9994], [7.9, 51.9897], [7.8805, 52.0], [7.88, 52.0003], [7.86, 52.0038], [7.8483, 52.0], [7.84, 51.9917], [7.82, 51.9885], [7.8, 51.9974], [7.78, 51.9976], [7.7743, 52.0], [7.76, 52.0057], [7.74, 52.0046], [7.72, 52.0083], [7.7, 52.0066], [7.68, 52.0056], [7.66, 52.0053], [7.6471, 52.0], [7.64, 51.9975], [7.62, 51.9971], [7.6, 51.9894], [7.58, 51.9851], [7.56, 51.9877], [7.54, 51.987], [7.522, 51.98], [7.52, 51.9793], [7.5162, 51.98], [7.5, 51.9848], [7.4875, 51.98], [7.48, 51.9781], [7.4732, 51.98], [7.46, 51.9843], [7.44, 51.9959], [7.42, 51.9959], [7.4, 51.9909], [7.3841, 51.98], [7.38, 51.979], [7.36, 51.9789], [7.3589, 51.98], [7.34, 51.993], [7.32, 52.0], [7.3193, 52.0], [7.3, 52.0011], [7.28, 52.0055], [7.2652, 52.0], [7.26, 51.9966], [7.24, 51.9972], [7.2251, 52.0], [7.22, 52.0012], [7.2162, 52.0], [7.2, 51.9956], [7.1856, 52.0], [7.18, 52.0018], [7.1684, 52.0], [7.16, 51.9981], [7.1562, 52.0], [7.14, 52.0074], [7.12, 52.0073], [7.1, 52.0071], [7.08, 52.0055], [7.0663, 52.0], [7.06, 51.9978], [7.04, 51.9993], [7.02, 51.9993], [7.0, 51.9935], [6.98, 51.9896], [6.9673, 52.0], [6.96, 52.0052], [6.94, 52.009], [6.92, 52.0151], [6.9097, 52.02], [6.9, 52.0232], [6.885, 52.02], [6.88, 52.018], [6.8761, 52.02], [6.86, 52.0242], [6.8449, 52.02], [6.84, 52.0179], [6.82, 52.0183], [6.8113, 52.02], [6.8, 52.0222], [6.7936, 52.02], [6.78, 52.015], [6.76, 52.0167], [6.74, 52.0117], [6.72, 52.0138], [6.7, 52.0095], [6.68, 52.005], [6.6705, 52.0], [6.66, 51.9955], [6.64, 51.9933], [6.62, 51.9885], [6.6, 51.9893], [6.58, 51.9817], [6.56, 51.9877], [6.5401, 51.98], [6.54, 51.98], [6.5399, 51.98], [6.52, 51.9909], [6.5, 51.9982], [6.48, 51.9983], [6.4762, 52.0], [6.46, 52.0123], [6.44, 52.0076], [6.4269, 52.0], [6.42, 51.9875], [6.4125, 51.98], [6.4, 51.9765], [6.3859, 51.98], [6.3859, 52.0], [6.38, 52.0018], [6.36, 52.0032], [6.34, 52.0034], [6.3272, 52.02], [6.32, 52.0235], [6.3, 52.0232], [6.28, 52.0232], [6.26, 52.0279], [6.24, 52.0203], [6.22, 52.0252], [6.2089, 52.02], [6.2, 52.0168], [6.18, 52.0179], [6.16, 52.0166], [6.14, 52.0159], [6.12, 52.0134], [6.1, 52.01], [6.08, 52.003], [6.06, 52.003], [6.04, 52.003], [6.0323, 52.0], [6.02, 51.9961], [6.0, 51.9932], [5.98, 51.9888], [5.96, 51.9823], [5.9436, 51.98], [5.94, 51.9798], [5.92, 51.9796], [5.9193, 51.98], [5.9, 51.9921], [5.8956, 52.0], [5.88, 52.0127], [5.8746, 52.02], [5.86, 52.0383], [5.8575, 52.04], [5.8494, 52.06], [5.84, 52.0626], [5.82, 52.0623], [5.8144, 52.06], [5.8, 52.0536], [5.78, 52.0531], [5.76, 52.0528], [5.74, 52.0474], [5.7225, 52.04], [5.72, 52.0384], [5.7, 52.0382], [5.68, 52.0367], [5.6691, 52.04], [5.66, 52.0449], [5.64, 52.0449], [5.6363, 52.04], [5.62, 52.0286], [5.6059, 52.02], [5.6, 52.0156], [5.58, 52.0123], [5.56, 52.0122], [5.5414, 52.02], [5.54, 52.022], [5.52, 52.022], [5.5, 52.0285], [5.4927, 52.04], [5.48, 52.059], [5.46, 52.0594], [5.44, 52.0598], [5.4395, 52.06], [5.42, 52.0689], [5.4, 52.0639], [5.38, 52.0656], [5.3646, 52.06], [5.36, 52.0584], [5.34, 52.0595], [5.32, 52.0499], [5.3, 52.0528], [5.28, 52.0485], [5.26, 52.0479], [5.24, 52.0478], [5.22, 52.0481], [5.2, 52.0491], [5.18, 52.0531], [5.16, 52.0537], [5.14, 52.0503], [5.12, 52.0582], [5.1, 52.0577], [5.08, 52.0586], [5.06, 52.0534], [5.0507, 52.06], [5.04, 52.0676], [5.02, 52.068], [5.0, 52.0722], [4.98, 52.0687], [4.9618, 52.08], [4.96, 52.0807], [4.956, 52.08], [4.94, 52.0731], [4.9315, 52.08], [4.92, 52.0834], [4.9, 52.0808], [4.88, 52.0808], [4.86, 52.0851], [4.8469, 52.08], [4.84, 52.0779], [4.8321, 52.08], [4.82, 52.0837], [4.8, 52.083], [4.78, 52.0878], [4.76, 52.087], [4.74, 52.0933], [4.7251, 52.1], [4.72, 52.1043], [4.7115, 52.12], [4.7, 52.1261], [4.68, 52.1292], [4.66, 52.133], [4.64, 52.1397], [4.62, 52.1343], [4.6005, 52.14], [4.6, 52.1401], [4.5995, 52.14], [4.58, 52.1324], [4.56, 52.1331], [4.5448, 52.14], [4.54, 52.1468], [4.52, 52.1525], [4.5, 52.1578], [4.4957, 52.16], [4.4811, 52.18], [4.48, 52.1809], [4.46, 52.1818], [4.44, 52.1813], [4.4366, 52.18], [4.44, 52.1693], [4.4493, 52.16], [4.44, 52.1587], [4.42, 52.1568], [4.4132, 52.16], [4.4, 52.1651], [4.39, 52.18], [4.38, 52.1865], [4.36, 52.1928], [4.34, 52.1937], [4.322, 52.2], [4.32, 52.2006], [4.3175, 52.2], [4.3, 52.1941], [4.2883, 52.2], [4.28, 52.2041], [4.26, 52.2156], [4.24, 52.2156], [4.2383, 52.22], [4.22, 52.2362], [4.2113, 52.24], [4.2, 52.2534], [4.18, 52.2587], [4.16, 52.2595], [4.1575, 52.26], [4.14, 52.2637], [4.12, 52.2623], [4.1, 52.2618], [4.08, 52.2743], [4.06, 52.2743], [4.04, 52.2749], [4.0248, 52.28], [4.02, 52.2827], [4.0018, 52.28], [4.0, 52.2799], [3.9997, 52.28], [3.98, 52.2903], [3.961, 52.3], [3.96, 52.301], [3.94, 52.3105], [3.92, 52.3187], [3.9176, 52.32], [3.9, 52.3251], [3.88, 52.3259], [3.86, 52.3303], [3.84, 52.3378], [3.82, 52.3394], [3.8187, 52.34], [3.8, 52.3476], [3.78, 52.3489], [3.76, 52.3489], [3.74, 52.3544], [3.72, 52.3523], [3.7, 52.3551], [3.6914, 52.36], [3.68, 52.3664], [3.66, 52.3742], [3.6549, 52.38], [3.64, 52.3933], [3.62, 52.3961], [3.604, 52.4], [3.6, 52.4018], [3.58, 52.4018], [3.56, 52.4083], [3.54, 52.4129], [3.52, 52.4153], [3.5098, 52.42], [3.5, 52.424], [3.48, 52.4259], [3.46, 52.4322], [3.44, 52.4386], [3.42, 52.4384], [3.4163, 52.44], [3.4, 52.4501], [3.3901, 52.46], [3.38, 52.4636], [3.36, 52.4611], [3.34, 52.4609], [3.32, 52.4716], [3.3, 52.4695], [3.28, 52.4741], [3.2668, 52.48], [3.26, 52.4827], [3.24, 52.4808], [3.22, 52.4882], [3.2, 52.4902], [3.18, 52.4922], [3.16, 52.4999], [3.14, 52.4999], [3.12, 52.4984], [3.1166, 52.5], [3.1, 52.5127], [3.08, 52.5116], [3.06, 52.5153], [3.0548, 52.52], [3.04, 52.5333], [3.0218, 52.54], [3.02, 52.5413], [3.0, 52.541], [2.98, 52.5474], [2.96, 52.5532], [2.94, 52.5547], [2.9271, 52.56], [2.92, 52.5631], [2.9, 52.5637], [2.88, 52.5716], [2.86, 52.5797], [2.84, 52.5797], [2.82, 52.5789], [2.8176, 52.58], [2.8078, 52.6], [2.8, 52.6072], [2.78, 52.6138], [2.76, 52.6123], [2.74, 52.6156], [2.7299, 52.62], [2.72, 52.6278], [2.7, 52.6278], [2.68, 52.6321], [2.6613, 52.64], [2.66, 52.6405], [2.6554, 52.64], [2.64, 52.6381], [2.6353, 52.64], [2.62, 52.6457], [2.6, 52.6466], [2.58, 52.6524], [2.56, 52.6587], [2.54, 52.6584], [2.52, 52.657], [2.5126, 52.66], [2.5126, 52.68], [2.5, 52.6849]]}}, {"type": "Feature", "properties": {"level": 1015.0}, "geometry": {"type": "LineString", "coordinates": [[2.5418, 50.5], [2.54, 50.5019], [2.52, 50.5041], [2.5, 50.505]]}}]}