{"type": "FeatureCollection", "features": [{"type": "Feature", "properties": {"level": 1015.0}, "geometry": {"type": "LineString", "coordinates": [[8.4126, 50.54], [8.42, 50.5342], [8.44, 50.5359], [8.46, 50.5398], [8.48, 50.5399], [8.4803, 50.54], [8.48, 50.5406], [8.46, 50.5405], [8.44, 50.5481], [8.42, 50.5474], [8.4126, 50.54]]}}, {"type": "Feature", "properties": {"level": 1015.0}, "geometry": {"type": "LineString", "coordinates": [[8.324, 50.6], [8.34, 50.5981], [8.36, 50.6], [8.3603, 50.6], [8.38, 50.6082], [8.3885, 50.62], [8.38, 50.623], [8.36, 50.6251], [8.3501, 50.62], [8.34, 50.6054], [8.324, 50.6]]}}, {"type": "Feature", "properties": {"level": 1015.0}, "geometry": {"type": "LineString", "coordinates": [[8.338, 50.64], [8.34, 50.6341], [8.3425, 50.64], [8.34, 50.6465], [8.338, 50.64]]}}, {"type": "Feature", "properties": {"level": 1015.0}, "geometry": {"type": "LineString", "coordinates": [[8.2938, 50.68], [8.3, 50.6676], [8.32, 50.6625], [8.34, 50.666], [8.3493, 50.68], [8.34, 50.688], [8.3322, 50.7], [8.3274, 50.72], [8.32, 50.733], [8.3135, 50.74], [8.32, 50.7469], [8.3369, 50.76], [8.34, 50.764], [8.348, 50.78], [8.36, 50.7979], [8.3619, 50.8], [8.38, 50.8147], [8.3852, 50.82], [8.38, 50.8306], [8.3743, 50.84], [8.38, 50.8544], [8.3856, 50.86], [8.38, 50.8634], [8.3692, 50.86], [8.36, 50.8576], [8.34, 50.847], [8.3307, 50.84], [8.32, 50.8303], [8.3121, 50.82], [8.3063, 50.8], [8.3133, 50.78], [8.3, 50.7711], [8.28, 50.7737], [8.26, 50.7648], [8.242, 50.78], [8.24, 50.7807], [8.22, 50.7814], [8.2179, 50.78], [8.2115, 50.76], [8.22, 50.7535], [8.233, 50.74], [8.24, 50.7332], [8.26, 50.7336], [8.28, 50.7305], [8.2911, 50.72], [8.288, 50.7], [8.2938, 50.68]]}}, {"type": "Feature", "properties": {"level": 1015.0}, "geometry": {"type": "LineString", "coordinates": [[8.4385, 50.68], [8.44, 50.6784], [8.46, 50.6744], [8.4664, 50.68], [8.4783, 50.7], [8.46, 50.7077], [8.44, 50.7118], [8.42, 50.7014], [8.4168, 50.7], [8.42, 50.6981], [8.4385, 50.68]]}}, {"type": "Feature", "properties": {"level": 1015.0}, "geometry": {"type": "LineString", "coordinates": [[8.5, 50.7004], [8.4925, 50.7], [8.5, 50.6961]]}}, {"type": "Feature", "properties": {"level": 1015.0}, "geometry": {"type": "LineString", "coordinates": [[7.9776, 50.84], [7.98, 50.8388], [7.9853, 50.84], [8.0, 50.8447], [8.0089, 50.86], [8.02, 50.8688], [8.04, 50.8721], [8.0511, 50.86], [8.06, 50.8532], [8.08, 50.8455], [8.1, 50.846], [8.1113, 50.84], [8.12, 50.8378], [8.1249, 50.84], [8.14, 50.8484], [8.16, 50.8577], [8.18, 50.8577], [8.1855, 50.86], [8.18, 50.8629], [8.1633, 50.88], [8.1633, 50.9], [8.16, 50.9018], [8.14, 50.9014], [8.12, 50.902], [8.1, 50.9118], [8.08, 50.912], [8.0704, 50.92], [8.06, 50.9248], [8.0507, 50.94], [8.06, 50.9543], [8.08, 50.9573], [8.0865, 50.96], [8.1, 50.9735], [8.1021, 50.98], [8.1, 50.9819], [8.08, 50.9805], [8.06, 50.9805], [8.0591, 50.98], [8.04, 50.9621], [8.02, 50.9605], [8.0, 50.9605], [7.9973, 50.96], [7.98, 50.9539], [7.974, 50.94], [7.9615, 50.92], [7.96, 50.9148], [7.9522, 50.9], [7.9452, 50.88], [7.96, 50.8698], [7.9707, 50.86], [7.9776, 50.84]]}}, {"type": "Feature", "properties": {"level": 1015.0}, "geometry": {"type": "LineString", "coordinates": [[8.5, 50.8439], [8.4914, 50.86], [8.48, 50.8702], [8.4733, 50.88], [8.48, 50.8961], [8.4842, 50.9], [8.5, 50.919]]}}, {"type": "Feature", "properties": {"level": 1015.0}, "geometry": {"type": "LineString", "coordinates": [[8.3289, 50.92], [8.34, 50.9075], [8.36, 50.9048], [8.3765, 50.92], [8.36, 50.9343], [8.3409, 50.94], [8.34, 50.9401], [8.32, 50.9402], [8.3184, 50.94], [8.32, 50.9395], [8.3289, 50.92]]}}, {"type": "Feature", "properties": {"level": 1015.0}, "geometry": {"type": "LineString", "coordinates": [[8.5, 50.9212], [8.48, 50.9385], [8.46, 50.9389], [8.44, 50.9317], [8.42, 50.9267], [8.4032, 50.92], [8.42, 50.9136], [8.4264, 50.9], [8.4262, 50.88], [8.44, 50.8644], [8.447, 50.86], [8.46, 50.8464], [8.4744, 50.84], [8.48, 50.8364], [8.5, 50.8373]]}}, {"type": "Feature", "properties": {"level": 1015.0}, "geometry": {"type": "LineString", "coordinates": [[7.8026, 51.0], [7.82, 50.988], [7.8334, 51.0], [7.84, 51.0057], [7.86, 51.0057], [7.8675, 51.02], [7.88, 51.0386], [7.8817, 51.04], [7.8807, 51.06], [7.88, 51.0623], [7.8696, 51.08], [7.88, 51.089], [7.9, 51.0942], [7.9132, 51.1], [7.92, 51.1039], [7.94, 51.1046], [7.96, 51.1057], [7.98, 51.1056], [8.0, 51.1004], [8.02, 51.1048], [8.0286, 51.1], [8.04, 51.0945], [8.06, 51.0946], [8.08, 51.0927], [8.0942, 51.08], [8.0942, 51.06], [8.1, 51.0563], [8.12, 51.0587], [8.14, 51.0572], [8.1403, 51.06], [8.14, 51.0603], [8.1252, 51.08], [8.12, 51.0948], [8.116, 51.1], [8.1, 51.1139], [8.08, 51.1139], [8.0754, 51.12], [8.08, 51.1274], [8.0915, 51.14], [8.1, 51.149], [8.12, 51.156], [8.1258, 51.16], [8.12, 51.1711], [8.108, 51.18], [8.1, 51.1829], [8.08, 51.1835], [8.06, 51.1929], [8.0515, 51.2], [8.04, 51.2031], [8.0335, 51.2], [8.02, 51.1902], [8.0062, 51.2], [8.0, 51.2026], [7.98, 51.2078], [7.9655, 51.2], [7.96, 51.1983], [7.9402, 51.18], [7.94, 51.1797], [7.9234, 51.16], [7.92, 51.157], [7.9, 51.156], [7.88, 51.1508], [7.86, 51.1477], [7.8523, 51.14], [7.84, 51.1273], [7.8316, 51.12], [7.82, 51.1084], [7.8093, 51.1], [7.8, 51.0864], [7.7956, 51.08], [7.7896, 51.06], [7.7855, 51.04], [7.78, 51.0358], [7.7606, 51.02], [7.78, 51.0074], [7.8, 51.0031], [7.8026, 51.0]]}}, {"type": "Feature", "properties": {"level": 1015.0}, "geometry": {"type": "LineString", "coordinates": [[8.5, 51.0286], [8.48, 51.0266], [8.46, 51.03], [8.44, 51.0287], [8.42, 51.0341], [8.4114, 51.04], [8.4199, 51.06], [8.42, 51.0601], [8.44, 51.0611], [8.46, 51.0792], [8.461, 51.08], [8.4734, 51.1], [8.46, 51.1129], [8.4428, 51.12], [8.4497, 51.14], [8.46, 51.1503], [8.4648, 51.16], [8.46, 51.1661], [8.4402, 51.18], [8.44, 51.1803], [8.42, 51.1803], [8.4, 51.1857], [8.3848, 51.18], [8.38, 51.1734], [8.3713, 51.18], [8.36, 51.1822], [8.3523, 51.18], [8.34, 51.1739], [8.3283, 51.18], [8.32, 51.1832], [8.3, 51.1855], [8.28, 51.192], [8.2674, 51.2], [8.26, 51.2091], [8.2524, 51.22], [8.26, 51.232], [8.2733, 51.24], [8.28, 51.2432], [8.3, 51.2436], [8.32, 51.2502], [8.34, 51.248], [8.36, 51.2489], [8.38, 51.2502], [8.4, 51.255], [8.4109, 51.24], [8.42, 51.2314], [8.4345, 51.22], [8.44, 51.2117], [8.4525, 51.2], [8.46, 51.1948], [8.4689, 51.2], [8.48, 51.2063], [8.4988, 51.22], [8.5, 51.221]]}}, {"type": "Feature", "properties": {"level": 1015.0}, "geometry": {"type": "LineString", "coordinates": [[8.08, 51.1515], [8.0744, 51.16], [8.08, 51.1722], [8.089, 51.16], [8.08, 51.1515]]}}, {"type": "Feature", "properties": {"level": 1015.0}, "geometry": {"type": "LineString", "coordinates": [[7.5554, 51.2], [7.56, 51.1953], [7.58, 51.1944], [7.5858, 51.2], [7.58, 51.2038], [7.56, 51.2024], [7.5554, 51.2]]}}, {"type": "Feature", "properties": {"level": 1015.0}, "geometry": {"type": "LineString", "coordinates": [[7.875, 51.24], [7.88, 51.2344], [7.8822, 51.24], [7.88, 51.2405], [7.875, 51.24]]}}, {"type": "Feature", "properties": {"level": 1015.0}, "geometry": {"type": "LineString", "coordinates": [[8.32, 51.275], [8.315, 51.28], [8.3, 51.2987], [8.299, 51.3], [8.3, 51.3012], [8.3188, 51.32], [8.32, 51.3217], [8.34, 51.3311], [8.358, 51.32], [8.36, 51.3187], [8.38, 51.3198], [8.3963, 51.3], [8.38, 51.291], [8.3756, 51.28], [8.36, 51.2681], [8.34, 51.275], [8.32, 51.275]]}}, {"type": "Feature", "properties": {"level": 1015.0}, "geometry": {"type": "LineString", "coordinates": [[7.9706, 51.32], [7.98, 51.3123], [8.0, 51.3131], [8.02, 51.3155], [8.04, 51.3133], [8.0474, 51.32], [8.04, 51.3227], [8.02, 51.3229], [8.0047, 51.34], [8.0, 51.3453], [7.98, 51.3473], [7.96, 51.3451], [7.9563, 51.34], [7.96, 51.3335], [7.9706, 51.32]]}}, {"type": "Feature", "properties": {"level": 1015.0}, "geometry": {"type": "LineString", "coordinates": [[8.42, 51.3031], [8.4001, 51.32], [8.4, 51.3314], [8.3999, 51.34], [8.4, 51.34], [8.42, 51.34], [8.4201, 51.34], [8.44, 51.3283], [8.4516, 51.32], [8.44, 51.3031], [8.42, 51.3031]]}}, {"type": "Feature", "properties": {"level": 1015.0}, "geometry": {"type": "LineString", "coordinates": [[8.5, 51.3726], [8.4849, 51.38], [8.48, 51.3831], [8.46, 51.3821], [8.44, 51.3899], [8.42, 51.3863], [8.4, 51.3812], [8.3988, 51.38], [8.38, 51.3688], [8.36, 51.366], [8.34, 51.3643], [8.32, 51.367], [8.3, 51.3652], [8.28, 51.3677], [8.26, 51.3629], [8.24, 51.3658], [8.22, 51.3678], [8.2, 51.3666], [8.184, 51.38], [8.18, 51.3841], [8.1614, 51.4], [8.16, 51.4023], [8.14, 51.4014], [8.129, 51.4], [8.14, 51.3939], [8.148, 51.38], [8.14, 51.371], [8.129, 51.36], [8.1317, 51.34], [8.12, 51.3295], [8.1115, 51.32], [8.12, 51.3106], [8.14, 51.3102], [8.1428, 51.3], [8.16, 51.2832], [8.1631, 51.28], [8.16, 51.2765], [8.1489, 51.26], [8.14, 51.2492], [8.12, 51.2419], [8.1139, 51.24], [8.12, 51.2336], [8.1255, 51.22], [8.14, 51.2072], [8.16, 51.2065], [8.18, 51.2035], [8.1841, 51.2], [8.1836, 51.18], [8.2, 51.1669], [8.2114, 51.16], [8.22, 51.1495], [8.2333, 51.14], [8.24, 51.1328], [8.26, 51.1358], [8.28, 51.1298], [8.3, 51.1382], [8.32, 51.1383], [8.34, 51.1384], [8.3411, 51.14], [8.36, 51.1505], [8.38, 51.1544], [8.4, 51.15], [8.4161, 51.14], [8.4191, 51.12], [8.4, 51.1063], [8.3921, 51.1], [8.38, 51.0911], [8.3666, 51.08], [8.36, 51.0755], [8.34, 51.0641], [8.32, 51.0641], [8.3, 51.0777], [8.28, 51.078], [8.26, 51.0605], [8.2593, 51.06], [8.26, 51.056], [8.2662, 51.04], [8.26, 51.0377], [8.2549, 51.04], [8.24, 51.0462], [8.22, 51.0408], [8.2, 51.0404], [8.18, 51.0405], [8.173, 51.04], [8.18, 51.0392], [8.2, 51.0392], [8.2099, 51.02], [8.22, 51.0086], [8.2245, 51.0], [8.22, 50.9889], [8.2111, 50.98], [8.22, 50.9747], [8.24, 50.9685], [8.26, 50.9685], [8.28, 50.9662], [8.2962, 50.98], [8.3, 50.9815], [8.32, 50.981], [8.3319, 50.98], [8.34, 50.9789], [8.3412, 50.98], [8.36, 50.9902], [8.3774, 51.0], [8.38, 51.0011], [8.4, 51.0012], [8.4023, 51.0], [8.42, 50.9846], [8.44, 50.9873], [8.46, 50.9832], [8.48, 50.9847], [8.5, 50.9861]]}}, {"type": "Feature", "properties": {"level": 1015.0}, "geometry": {"type": "LineString", "coordinates": [[8.5, 51.4589], [8.498, 51.46], [8.48, 51.4648], [8.4615, 51.48], [8.46, 51.4809], [8.44, 51.4809], [8.4314, 51.48], [8.44, 51.4792], [8.4571, 51.46], [8.46, 51.4571], [8.4751, 51.44], [8.48, 51.4273], [8.5, 51.4248]]}}]}