{"type": "FeatureCollection", "features": [{"type": "Feature", "properties": {"level": 1015.0}, "geometry": {"type": "LineString", "coordinates": [[5.3198, 52.7], [5.32, 52.6996], [5.322, 52.7], [5.32, 52.7002], [5.3198, 52.7]]}}, {"type": "Feature", "properties": {"level": 1015.0}, "geometry": {"type": "LineString", "coordinates": [[7.4197, 53.9], [7.42, 53.8992], [7.4208, 53.9], [7.42, 53.9003], [7.4197, 53.9]]}}, {"type": "Feature", "properties": {"level": 1015.0}, "geometry": {"type": "LineString", "coordinates": [[7.54, 53.9197], [7.5395, 53.92], [7.54, 53.9232], [7.5404, 53.92], [7.54, 53.9197]]}}, {"type": "Feature", "properties": {"level": 1015.0}, "geometry": {"type": "LineString", "coordinates": [[7.5629, 53.98], [7.56, 53.9768], [7.5508, 53.96], [7.54, 53.9421], [7.5232, 53.94], [7.52, 53.9395], [7.5, 53.93], [7.4841, 53.92], [7.48, 53.9159], [7.4683, 53.9], [7.46, 53.8932], [7.44, 53.8808], [7.4392, 53.88], [7.42, 53.8732], [7.4, 53.8623], [7.3971, 53.86], [7.3828, 53.84], [7.3903, 53.82], [7.3902, 53.8], [7.4, 53.7857], [7.4032, 53.78], [7.4, 53.7722], [7.389, 53.76], [7.3848, 53.74], [7.38, 53.7284], [7.3736, 53.72], [7.3626, 53.7], [7.36, 53.6953], [7.34, 53.6962], [7.32, 53.6977], [7.3163, 53.7], [7.3078, 53.72], [7.3012, 53.74], [7.3, 53.7412], [7.28, 53.7414], [7.2758, 53.74], [7.26, 53.7368], [7.24, 53.7371], [7.22, 53.7361], [7.2111, 53.74], [7.2, 53.7459], [7.1898, 53.76], [7.18, 53.7656], [7.16, 53.7714], [7.14, 53.7784], [7.1369, 53.78], [7.12, 53.7905], [7.1, 53.7972], [7.08, 53.7945], [7.06, 53.7978], [7.04, 53.7963], [7.02, 53.7914], [7.0007, 53.78], [7.0, 53.7793], [6.98, 53.7718], [6.9665, 53.76], [6.967, 53.74], [6.98, 53.7265], [6.9838, 53.72], [6.98, 53.7128], [6.96, 53.7123], [6.9533, 53.7], [6.96, 53.6854], [6.9654, 53.68], [6.96, 53.6745], [6.94, 53.6607], [6.9398, 53.66], [6.9332, 53.64], [6.9252, 53.62], [6.92, 53.6118], [6.9, 53.6044], [6.8949, 53.6], [6.9, 53.5827], [6.9008, 53.58], [6.9, 53.5794], [6.88, 53.5785], [6.8785, 53.58], [6.86, 53.5878], [6.846, 53.58], [6.84, 53.5711], [6.8273, 53.56], [6.82, 53.5536], [6.8, 53.549], [6.78, 53.5404], [6.76, 53.5406], [6.7598, 53.54], [6.76, 53.5376], [6.7688, 53.52], [6.76, 53.515], [6.74, 53.515], [6.72, 53.5003], [6.7197, 53.5], [6.7108, 53.48], [6.7, 53.4658], [6.68, 53.4624], [6.6778, 53.46], [6.68, 53.4516], [6.6827, 53.44], [6.68, 53.4376], [6.674, 53.44], [6.66, 53.4457], [6.64, 53.4457], [6.63, 53.44], [6.62, 53.4233], [6.613, 53.42], [6.6, 53.4148], [6.58, 53.4128], [6.56, 53.4157], [6.54, 53.4157], [6.52, 53.4131], [6.5, 53.4106], [6.48, 53.4159], [6.4759, 53.42], [6.46, 53.4284], [6.44, 53.4367], [6.4242, 53.44], [6.42, 53.4414], [6.4, 53.4465], [6.38, 53.4423], [6.36, 53.4423], [6.3563, 53.44], [6.34, 53.4291], [6.3322, 53.42], [6.32, 53.4087], [6.3, 53.4042], [6.2958, 53.4], [6.28, 53.3891], [6.26, 53.388], [6.2435, 53.38], [6.24, 53.3784], [6.22, 53.3767], [6.2, 53.37], [6.187, 53.36], [6.18, 53.351], [6.16, 53.351], [6.1504, 53.34], [6.14, 53.3275], [6.1344, 53.32], [6.12, 53.3119], [6.101, 53.3], [6.1, 53.2993], [6.08, 53.2907], [6.06, 53.2814], [6.04, 53.2804], [6.0386, 53.28], [6.02, 53.2731], [6.0081, 53.26], [6.0, 53.2541], [5.9911, 53.24], [5.98, 53.2315], [5.9675, 53.22], [5.96, 53.2013], [5.9587, 53.2], [5.94, 53.1935], [5.92, 53.1955], [5.9111, 53.2], [5.9, 53.2089], [5.88, 53.2124], [5.86, 53.2131], [5.84, 53.2154], [5.8278, 53.22], [5.82, 53.223], [5.8083, 53.22], [5.8, 53.2171], [5.7937, 53.22], [5.78, 53.2285], [5.7643, 53.22], [5.76, 53.2181], [5.74, 53.2159], [5.7254, 53.2], [5.72, 53.1907], [5.7137, 53.18], [5.7, 53.1663], [5.6952, 53.16], [5.7, 53.1433], [5.7008, 53.14], [5.7, 53.1393], [5.68, 53.1379], [5.66, 53.1221], [5.6564, 53.12], [5.64, 53.1063], [5.633, 53.1], [5.62, 53.0912], [5.6, 53.0833], [5.5977, 53.08], [5.5939, 53.06], [5.5939, 53.04], [5.58, 53.0354], [5.5669, 53.04], [5.56, 53.0427], [5.5575, 53.04], [5.56, 53.0331], [5.5646, 53.02], [5.56, 53.0149], [5.54, 53.0075], [5.5353, 53.0], [5.522, 52.98], [5.52, 52.9753], [5.5132, 52.96], [5.5, 52.9506], [5.492, 52.94], [5.5, 52.9211], [5.5005, 52.92], [5.5, 52.9191], [5.48, 52.9177], [5.4704, 52.9], [5.4724, 52.88], [5.46, 52.8736], [5.4422, 52.86], [5.44, 52.858], [5.4229, 52.84], [5.42, 52.8356], [5.4, 52.8259], [5.3978, 52.82], [5.38, 52.8022], [5.3788, 52.8], [5.38, 52.7956], [5.3904, 52.78], [5.38, 52.7738], [5.3617, 52.76], [5.36, 52.7566], [5.3511, 52.74], [5.3436, 52.72], [5.3418, 52.7], [5.34, 52.697], [5.3298, 52.68], [5.32, 52.6619], [5.3179, 52.66], [5.3172, 52.64], [5.3171, 52.62], [5.3, 52.6036], [5.2981, 52.6], [5.3, 52.5961], [5.3161, 52.58], [5.3, 52.5632], [5.2984, 52.56], [5.2965, 52.54], [5.3, 52.5367], [5.3106, 52.52], [5.32, 52.5017], [5.3209, 52.5], [5.32, 52.4985], [5.3015, 52.48], [5.3, 52.4763], [5.2953, 52.46], [5.2952, 52.44], [5.2883, 52.42], [5.28, 52.4118], [5.2693, 52.4], [5.26, 52.3858], [5.2542, 52.38], [5.24, 52.365], [5.22, 52.3634], [5.2157, 52.36], [5.2, 52.344], [5.1945, 52.34], [5.1891, 52.32], [5.18, 52.3126], [5.16, 52.3046], [5.1541, 52.3], [5.14, 52.2908], [5.1322, 52.28], [5.14, 52.2649], [5.1425, 52.26], [5.14, 52.2571], [5.12, 52.245], [5.1178, 52.24], [5.1066, 52.22], [5.1022, 52.2], [5.1, 52.1963], [5.08, 52.1885], [5.0728, 52.18], [5.08, 52.1637], [5.0811, 52.16], [5.08, 52.1586], [5.06, 52.1553], [5.04, 52.1457], [5.0343, 52.14], [5.02, 52.1221], [5.0, 52.121], [4.9993, 52.12], [4.9863, 52.1], [4.98, 52.0887], [4.9772, 52.08], [4.98, 52.0774], [4.9882, 52.06], [4.98, 52.0426], [4.96, 52.0426], [4.9579, 52.04], [4.96, 52.0358], [4.9764, 52.02], [4.9702, 52.0], [4.96, 51.9916], [4.9503, 51.98], [4.94, 51.9687], [4.9232, 51.96], [4.94, 51.9432], [4.9415, 51.94], [4.94, 51.9376], [4.9224, 51.92], [4.92, 51.9164], [4.9095, 51.9], [4.9, 51.8921], [4.88, 51.8808], [4.879, 51.88], [4.8623, 51.86], [4.86, 51.8582], [4.84, 51.8485], [4.8309, 51.84], [4.82, 51.8264], [4.815, 51.82], [4.8, 51.8082], [4.7847, 51.8], [4.78, 51.7974], [4.76, 51.7914], [4.74, 51.7849], [4.7303, 51.78], [4.72, 51.7707], [4.7, 51.7703], [4.68, 51.7637], [4.6765, 51.76], [4.68, 51.7484], [4.6824, 51.74], [4.68, 51.7368], [4.66, 51.7205], [4.6596, 51.72], [4.64, 51.7004], [4.6398, 51.7], [4.62, 51.6806], [4.6192, 51.68], [4.6153, 51.66], [4.62, 51.6424], [4.6206, 51.64], [4.64, 51.6257], [4.6435, 51.62], [4.64, 51.6107], [4.6293, 51.6], [4.6381, 51.58], [4.6348, 51.56], [4.64, 51.5442], [4.642, 51.54], [4.64, 51.5373], [4.635, 51.52], [4.64, 51.5117], [4.6471, 51.5], [4.66, 51.4842], [4.6652, 51.48], [4.6677, 51.46], [4.66, 51.4519], [4.65, 51.44], [4.66, 51.4307], [4.6658, 51.42], [4.66, 51.4084], [4.6516, 51.4], [4.6481, 51.38], [4.6472, 51.36], [4.6436, 51.34], [4.6441, 51.32], [4.64, 51.3059], [4.6373, 51.3], [4.64, 51.2984], [4.66, 51.2963], [4.68, 51.2842], [4.6872, 51.28], [4.7, 51.2711], [4.7145, 51.26], [4.7134, 51.24], [4.72, 51.2307], [4.7274, 51.22], [4.72, 51.2112], [4.7088, 51.2], [4.7, 51.1907], [4.68, 51.1818], [4.665, 51.18], [4.66, 51.1793], [4.64, 51.1669], [4.6323, 51.16], [4.62, 51.1508], [4.6104, 51.14], [4.6, 51.1265], [4.5946, 51.12], [4.6, 51.1056], [4.6024, 51.1], [4.6, 51.0975], [4.58, 51.0954], [4.56, 51.0928], [4.54, 51.0828], [4.5355, 51.08], [4.52, 51.0665], [4.5106, 51.06], [4.5, 51.0539], [4.48, 51.046], [4.46, 51.0515], [4.4446, 51.06], [4.44, 51.0632], [4.4373, 51.06], [4.42, 51.0457], [4.4128, 51.04], [4.4, 51.0315], [4.38, 51.0261], [4.36, 51.0261], [4.3416, 51.02], [4.34, 51.0193], [4.32, 51.0046], [4.315, 51.0], [4.3, 50.9915], [4.29, 50.98], [4.28, 50.965], [4.2768, 50.96], [4.26, 50.9507], [4.2418, 50.94], [4.24, 50.9386], [4.22, 50.9235], [4.2, 50.9257], [4.182, 50.92], [4.18, 50.9187], [4.1725, 50.9], [4.18, 50.8921], [4.1937, 50.88], [4.2, 50.8709], [4.2082, 50.86], [4.2, 50.8522], [4.1852, 50.84], [4.18, 50.8306], [4.16, 50.8273], [4.14, 50.8227], [4.1368, 50.82], [4.14, 50.81], [4.16, 50.8144], [4.18, 50.8039], [4.1835, 50.8], [4.1986, 50.78], [4.1986, 50.76], [4.1887, 50.74], [4.18, 50.7344], [4.16, 50.7309], [4.1447, 50.72], [4.1443, 50.7], [4.14, 50.685], [4.1358, 50.68], [4.12, 50.6695], [4.1, 50.6657], [4.0963, 50.66], [4.1, 50.6545], [4.1145, 50.64], [4.1044, 50.62], [4.1, 50.6158], [4.0809, 50.6], [4.08, 50.5994], [4.0628, 50.58], [4.06, 50.5764], [4.0423, 50.56], [4.04, 50.5569], [4.02, 50.5569], [4.008, 50.54], [4.02, 50.5302], [4.0334, 50.52], [4.04, 50.5128], [4.0536, 50.5]]}}]}