{"type": "FeatureCollection", "features": [{"type": "Feature", "properties": {"level": 1015.0}, "geometry": {"type": "LineString", "coordinates": [[6.82, 50.5508], [6.8094, 50.56], [6.82, 50.5781], [6.8302, 50.56], [6.82, 50.5508]]}}, {"type": "Feature", "properties": {"level": 1015.0}, "geometry": {"type": "LineString", "coordinates": [[7.14, 50.6199], [7.1398, 50.62], [7.14, 50.6206], [7.1403, 50.62], [7.14, 50.6199]]}}, {"type": "Feature", "properties": {"level": 1015.0}, "geometry": {"type": "LineString", "coordinates": [[7.1, 50.6364], [7.0979, 50.64], [7.1, 50.6432], [7.1163, 50.66], [7.12, 50.6709], [7.1256, 50.66], [7.1241, 50.64], [7.12, 50.6385], [7.1, 50.6364]]}}, {"type": "Feature", "properties": {"level": 1015.0}, "geometry": {"type": "LineString", "coordinates": [[7.06, 50.6799], [7.0594, 50.68], [7.06, 50.6801], [7.08, 50.6801], [7.0805, 50.68], [7.08, 50.6799], [7.06, 50.6799]]}}, {"type": "Feature", "properties": {"level": 1015.0}, "geometry": {"type": "LineString", "coordinates": [[6.9341, 50.8], [6.94, 50.7902], [6.96, 50.7912], [6.9788, 50.8], [6.96, 50.8188], [6.9573, 50.82], [6.9486, 50.84], [6.94, 50.85], [6.9273, 50.86], [6.92, 50.8719], [6.9, 50.8695], [6.88, 50.867], [6.86, 50.8634], [6.8558, 50.86], [6.8564, 50.84], [6.86, 50.8352], [6.88, 50.831], [6.9, 50.8312], [6.9125, 50.82], [6.92, 50.8172], [6.9341, 50.8]]}}, {"type": "Feature", "properties": {"level": 1015.0}, "geometry": {"type": "LineString", "coordinates": [[7.08, 50.9761], [7.0675, 50.98], [7.08, 50.9823], [7.1, 50.9825], [7.12, 50.9853], [7.14, 50.9816], [7.1421, 50.98], [7.14, 50.9719], [7.12, 50.9709], [7.1, 50.9728], [7.08, 50.9761]]}}, {"type": "Feature", "properties": {"level": 1015.0}, "geometry": {"type": "LineString", "coordinates": [[7.16, 51.918], [7.1554, 51.92], [7.1571, 51.94], [7.16, 51.9423], [7.1686, 51.94], [7.18, 51.9298], [7.2, 51.9283], [7.2022, 51.92], [7.2, 51.9183], [7.18, 51.9173], [7.16, 51.918]]}}, {"type": "Feature", "properties": {"level": 1015.0}, "geometry": {"type": "LineString", "coordinates": [[5.275, 53.98], [5.2668, 53.96], [5.26, 53.9415], [5.2595, 53.94], [5.24, 53.9256], [5.2309, 53.92], [5.22, 53.9085], [5.2, 53.9033], [5.1972, 53.9], [5.2, 53.8934], [5.2134, 53.88], [5.2, 53.8754], [5.1855, 53.86], [5.18, 53.8539], [5.16, 53.842], [5.1561, 53.84], [5.14, 53.833], [5.12, 53.8225], [5.1, 53.822], [5.0969, 53.82], [5.08, 53.8022], [5.0765, 53.8], [5.06, 53.7895], [5.04, 53.7817], [5.02, 53.7807], [5.019, 53.78], [5.02, 53.7779], [5.0329, 53.76], [5.04, 53.7572], [5.06, 53.7564], [5.08, 53.7526], [5.1, 53.7506], [5.12, 53.753], [5.14, 53.742], [5.16, 53.742], [5.18, 53.7411], [5.182, 53.74], [5.2, 53.7298], [5.2145, 53.72], [5.22, 53.7031], [5.24, 53.7018], [5.26, 53.7007], [5.2606, 53.7], [5.26, 53.6978], [5.2422, 53.68], [5.2452, 53.66], [5.2405, 53.64], [5.24, 53.6396], [5.2258, 53.62], [5.22, 53.6104], [5.2092, 53.6], [5.2092, 53.58], [5.22, 53.5632], [5.222, 53.56], [5.2392, 53.54], [5.24, 53.5385], [5.2475, 53.52], [5.24, 53.5138], [5.233, 53.5], [5.24, 53.485], [5.2429, 53.48], [5.26, 53.4624], [5.2641, 53.46], [5.28, 53.4475], [5.29, 53.44], [5.2908, 53.42], [5.28, 53.4096], [5.2736, 53.4], [5.28, 53.3892], [5.2875, 53.38], [5.3, 53.3756], [5.32, 53.3708], [5.34, 53.3651], [5.3489, 53.36], [5.36, 53.3495], [5.3697, 53.34], [5.3701, 53.32], [5.38, 53.3028], [5.3828, 53.3], [5.38, 53.2932], [5.3776, 53.28], [5.38, 53.2776], [5.4, 53.2719], [5.4163, 53.26], [5.42, 53.2576], [5.44, 53.2419], [5.4418, 53.24], [5.4418, 53.22], [5.44, 53.2185], [5.4309, 53.2], [5.42, 53.1805], [5.4196, 53.18], [5.4181, 53.16], [5.4194, 53.14], [5.42, 53.1276], [5.4276, 53.12], [5.4212, 53.1], [5.44, 53.091], [5.46, 53.0829], [5.4648, 53.08], [5.48, 53.0618], [5.4811, 53.06], [5.5, 53.0453], [5.5064, 53.04], [5.52, 53.0202], [5.5202, 53.02], [5.5204, 53.0], [5.5331, 52.98], [5.54, 52.9646], [5.5416, 52.96], [5.56, 52.9436], [5.5636, 52.94], [5.58, 52.9275], [5.5907, 52.92], [5.5829, 52.9], [5.5936, 52.88], [5.6, 52.8723], [5.62, 52.8632], [5.64, 52.8614], [5.6435, 52.86], [5.64, 52.8538], [5.62, 52.8538], [5.6129, 52.84], [5.62, 52.8329], [5.6318, 52.82], [5.64, 52.8148], [5.66, 52.8166], [5.68, 52.8143], [5.6902, 52.82], [5.7, 52.8254], [5.72, 52.8255], [5.74, 52.8205], [5.76, 52.8251], [5.7746, 52.82], [5.78, 52.8172], [5.8, 52.8165], [5.82, 52.8094], [5.84, 52.8122], [5.8558, 52.82], [5.86, 52.8219], [5.88, 52.8258], [5.8932, 52.82], [5.9, 52.8162], [5.92, 52.8042], [5.9228, 52.8], [5.92, 52.7876], [5.9, 52.7876], [5.8956, 52.78], [5.9, 52.7765], [5.92, 52.7662], [5.9216, 52.76], [5.9345, 52.74], [5.9256, 52.72], [5.92, 52.7087], [5.9124, 52.7], [5.9, 52.6848], [5.8952, 52.68], [5.88, 52.6602], [5.86, 52.6601], [5.8598, 52.66], [5.84, 52.6463], [5.8259, 52.64], [5.82, 52.6356], [5.8007, 52.62], [5.8, 52.6193], [5.7877, 52.6], [5.8, 52.5837], [5.8027, 52.58], [5.8, 52.5765], [5.7901, 52.56], [5.7958, 52.54], [5.8, 52.5326], [5.811, 52.52], [5.82, 52.5124], [5.84, 52.5041], [5.86, 52.5023], [5.8605, 52.5], [5.86, 52.4989], [5.847, 52.48], [5.84, 52.4603], [5.8398, 52.46], [5.84, 52.4589], [5.8443, 52.44], [5.85, 52.42], [5.8459, 52.4], [5.84, 52.3941], [5.8322, 52.38], [5.82, 52.3652], [5.8128, 52.36], [5.8173, 52.34], [5.82, 52.3376], [5.8306, 52.32], [5.822, 52.3], [5.82, 52.298], [5.8116, 52.28], [5.82, 52.2698], [5.8349, 52.26], [5.84, 52.2504], [5.8447, 52.24], [5.8419, 52.22], [5.84, 52.2161], [5.8303, 52.2], [5.84, 52.1876], [5.8448, 52.18], [5.8555, 52.16], [5.86, 52.1535], [5.8702, 52.14], [5.88, 52.1325], [5.9, 52.1254], [5.92, 52.1228], [5.9233, 52.12], [5.92, 52.1143], [5.9138, 52.1], [5.9133, 52.08], [5.92, 52.0749], [5.94, 52.0715], [5.96, 52.0693], [5.98, 52.0664], [6.0, 52.0664], [6.02, 52.0658], [6.0265, 52.06], [6.0342, 52.04], [6.04, 52.0333], [6.06, 52.033], [6.067, 52.04], [6.08, 52.0504], [6.1, 52.0498], [6.12, 52.0531], [6.14, 52.0534], [6.16, 52.045], [6.18, 52.0516], [6.2, 52.0516], [6.21, 52.06], [6.22, 52.0641], [6.24, 52.0684], [6.26, 52.0677], [6.28, 52.079], [6.3, 52.07], [6.32, 52.07], [6.3203, 52.06], [6.34, 52.0475], [6.3482, 52.04], [6.36, 52.0307], [6.3744, 52.02], [6.38, 52.0166], [6.4, 52.0136], [6.42, 52.0092], [6.44, 52.0063], [6.46, 52.0048], [6.468, 52.0], [6.48, 51.992], [6.5, 51.993], [6.52, 51.9903], [6.54, 51.9927], [6.56, 51.9961], [6.58, 51.9963], [6.6, 51.9933], [6.62, 51.985], [6.6315, 51.98], [6.64, 51.9757], [6.6491, 51.98], [6.66, 51.984], [6.68, 51.9808], [6.69, 51.98], [6.7, 51.9776], [6.72, 51.9655], [6.74, 51.9646], [6.76, 51.9638], [6.7641, 51.96], [6.78, 51.9466], [6.7977, 51.94], [6.8, 51.9384], [6.82, 51.9379], [6.84, 51.9291], [6.8531, 51.92], [6.84, 51.9007], [6.82, 51.9004], [6.8177, 51.9], [6.82, 51.8997], [6.84, 51.8998], [6.86, 51.8917], [6.88, 51.8814], [6.8986, 51.9], [6.9, 51.9014], [6.9014, 51.9], [6.9014, 51.88], [6.92, 51.874], [6.9333, 51.86], [6.94, 51.8556], [6.96, 51.8563], [6.98, 51.851], [7.0, 51.8598], [7.02, 51.8598], [7.0277, 51.84], [7.02, 51.8308], [7.0, 51.8265], [6.98, 51.8272], [6.9685, 51.82], [6.9657, 51.8], [6.98, 51.7812], [6.982, 51.78], [7.0, 51.77], [7.02, 51.7781], [7.04, 51.7792], [7.06, 51.7781], [7.08, 51.7665], [7.0853, 51.76], [7.1, 51.7503], [7.1167, 51.74], [7.12, 51.7362], [7.1322, 51.72], [7.14, 51.7046], [7.146, 51.7], [7.1539, 51.68], [7.14, 51.6626], [7.12, 51.6615], [7.1184, 51.66], [7.12, 51.6577], [7.1377, 51.64], [7.14, 51.6352], [7.1461, 51.62], [7.16, 51.6063], [7.1695, 51.6], [7.16, 51.584], [7.1582, 51.58], [7.16, 51.5772], [7.18, 51.5674], [7.187, 51.56], [7.2, 51.5425], [7.2023, 51.54], [7.2194, 51.52], [7.22, 51.5192], [7.2257, 51.5], [7.2202, 51.48], [7.22, 51.4799], [7.2, 51.4758], [7.18, 51.4722], [7.16, 51.4672], [7.14, 51.4671], [7.12, 51.472], [7.1, 51.4677], [7.08, 51.4652], [7.0715, 51.46], [7.06, 51.4495], [7.053, 51.44], [7.04, 51.4227], [7.0383, 51.42], [7.0304, 51.4], [7.04, 51.3917], [7.0599, 51.38], [7.06, 51.3799], [7.0686, 51.36], [7.06, 51.3415], [7.04, 51.3408], [7.0386, 51.34], [7.02, 51.3213], [7.0, 51.3279], [6.98, 51.3333], [6.96, 51.3286], [6.946, 51.32], [6.94, 51.31], [6.9355, 51.3], [6.94, 51.2927], [6.9473, 51.28], [6.94, 51.2725], [6.9254, 51.26], [6.9204, 51.24], [6.94, 51.2264], [6.96, 51.2219], [6.98, 51.2211], [7.0, 51.2202], [7.0002, 51.22], [7.0064, 51.2], [7.02, 51.1992], [7.032, 51.18], [7.02, 51.1681], [7.0091, 51.16], [7.0, 51.154], [6.9802, 51.14], [6.9914, 51.12], [7.0, 51.1084], [7.02, 51.1031], [7.0239, 51.1], [7.02, 51.0918], [7.0069, 51.08], [7.0049, 51.06], [7.0, 51.0484], [6.98, 51.0443], [6.9777, 51.04], [6.98, 51.0362], [6.989, 51.02], [7.0, 51.0053], [7.0047, 51.0], [7.02, 50.9863], [7.0332, 50.98], [7.03, 50.96], [7.04, 50.943], [7.0428, 50.94], [7.04, 50.9321], [7.0279, 50.92], [7.04, 50.9108], [7.0459, 50.9], [7.04, 50.8883], [7.0312, 50.88], [7.02, 50.8688], [7.0156, 50.86], [7.02, 50.8563], [7.0319, 50.84], [7.04, 50.8285], [7.0473, 50.82], [7.0412, 50.8], [7.06, 50.7829], [7.0627, 50.78], [7.08, 50.7611], [7.0815, 50.76], [7.0815, 50.74], [7.1, 50.7254], [7.1059, 50.72], [7.1, 50.7173], [7.08, 50.719], [7.06, 50.7161], [7.04, 50.7095], [7.0329, 50.7], [7.0257, 50.68], [7.02, 50.6797], [7.0194, 50.68], [7.0, 50.6941], [6.9814, 50.7], [6.98, 50.7009], [6.9764, 50.7], [6.96, 50.6984], [6.9575, 50.7], [6.94, 50.7175], [6.938, 50.72], [6.9335, 50.74], [6.92, 50.7581], [6.9169, 50.76], [6.9, 50.7707], [6.8801, 50.78], [6.88, 50.7801], [6.8798, 50.78], [6.86, 50.7765], [6.8562, 50.78], [6.84, 50.7962], [6.8362, 50.8], [6.8314, 50.82], [6.82, 50.83], [6.8009, 50.84], [6.8, 50.8408], [6.7948, 50.84], [6.78, 50.8348], [6.7645, 50.82], [6.76, 50.8165], [6.7518, 50.8], [6.76, 50.7831], [6.7614, 50.78], [6.76, 50.7764], [6.7472, 50.76], [6.74, 50.7527], [6.7309, 50.74], [6.72, 50.7285], [6.7, 50.7249], [6.6919, 50.72], [6.68, 50.7108], [6.66, 50.7014], [6.64, 50.7068], [6.62, 50.704], [6.6155, 50.7], [6.6, 50.6825], [6.58, 50.6808], [6.5788, 50.68], [6.58, 50.6787], [6.5911, 50.66], [6.6, 50.6498], [6.6034, 50.64], [6.6, 50.6375], [6.58, 50.6305], [6.5643, 50.62], [6.56, 50.6186], [6.54, 50.6176], [6.531, 50.62], [6.52, 50.631], [6.5165, 50.64], [6.52, 50.6451], [6.5381, 50.66], [6.5275, 50.68], [6.52, 50.6861], [6.5011, 50.7], [6.5, 50.7014], [6.48, 50.7088], [6.46, 50.7153], [6.4485, 50.72], [6.44, 50.7285], [6.42, 50.7231], [6.4145, 50.72], [6.4, 50.706], [6.3893, 50.7], [6.38, 50.6955], [6.36, 50.6933], [6.34, 50.6891], [6.3246, 50.7], [6.32, 50.7018], [6.3161, 50.7], [6.3161, 50.68], [6.3, 50.6688], [6.28, 50.6704], [6.26, 50.6644], [6.2546, 50.66], [6.24, 50.6457], [6.2301, 50.64], [6.22, 50.6334], [6.2, 50.6213], [6.1982, 50.62], [6.1805, 50.6], [6.18, 50.5995], [6.16, 50.5979], [6.14, 50.5882], [6.12, 50.5896], [6.1026, 50.58], [6.1, 50.5774], [6.0923, 50.56], [6.08, 50.5401], [6.0799, 50.54], [6.08, 50.5385], [6.0815, 50.52], [6.08, 50.5182], [6.06, 50.5148], [6.04, 50.5031], [6.0327, 50.5]]}}]}