{"type": "FeatureCollection", "features": [{"type": "Feature", "properties": {"level": 1030.0}, "geometry": {"type": "LineString", "coordinates": [[4.8774, 50.52], [4.88, 50.5187], [4.8944, 50.52], [4.9, 50.5219], [4.92, 50.5377], [4.923, 50.54], [4.94, 50.5537], [4.96, 50.5578], [4.9638, 50.56], [4.96, 50.5738], [4.9571, 50.58], [4.96, 50.584], [4.9781, 50.6], [4.96, 50.6189], [4.94, 50.6163], [4.92, 50.6169], [4.9, 50.604], [4.88, 50.6063], [4.872, 50.6], [4.86, 50.5942], [4.84, 50.5819], [4.82, 50.5813], [4.8192, 50.58], [4.8, 50.5629], [4.7974, 50.56], [4.8, 50.5518], [4.8053, 50.54], [4.82, 50.5229], [4.84, 50.5305], [4.86, 50.5314], [4.8774, 50.52]]}}, {"type": "Feature", "properties": {"level": 1030.0}, "geometry": {"type": "LineString", "coordinates": [[5.7015, 50.5], [5.7, 50.5014], [5.68, 50.5025], [5.6668, 50.5]]}}, {"type": "Feature", "properties": {"level": 1030.0}, "geometry": {"type": "LineString", "coordinates": [[6.036, 50.5], [6.04, 50.5028], [6.06, 50.5059], [6.08, 50.5078], [6.1, 50.5025], [6.12, 50.5025], [6.1214, 50.5]]}}, {"type": "Feature", "properties": {"level": 1030.0}, "geometry": {"type": "LineString", "coordinates": [[6.656, 50.5], [6.66, 50.5081], [6.6685, 50.52], [6.68, 50.5264], [6.6998, 50.54], [6.7, 50.5402], [6.7005, 50.54], [6.72, 50.5332], [6.74, 50.5277], [6.7439, 50.52], [6.76, 50.5058], [6.78, 50.5043], [6.7943, 50.5]]}}, {"type": "Feature", "properties": {"level": 1030.0}, "geometry": {"type": "LineString", "coordinates": [[6.8087, 50.5], [6.8065, 50.52], [6.8, 50.5348], [6.78, 50.538], [6.76, 50.5372], [6.7541, 50.54], [6.76, 50.5448], [6.78, 50.5448], [6.784, 50.56], [6.78, 50.5666], [6.7754, 50.58], [6.78, 50.5858], [6.8, 50.5858], [6.8096, 50.6], [6.82, 50.6111], [6.8288, 50.62], [6.84, 50.6354], [6.8495, 50.64], [6.86, 50.6502], [6.88, 50.6504], [6.9, 50.653], [6.92, 50.6528], [6.94, 50.6512], [6.96, 50.6477], [6.98, 50.6526], [6.9984, 50.64], [7.0, 50.6387], [7.0093, 50.62], [7.02, 50.6038], [7.0225, 50.6], [7.02, 50.5947], [7.009, 50.58], [7.0, 50.571], [6.9845, 50.56], [6.98, 50.5582], [6.9692, 50.56], [6.96, 50.5614], [6.9552, 50.56], [6.94, 50.5483], [6.9351, 50.54], [6.94, 50.5235], [6.9413, 50.52], [6.94, 50.5184], [6.93, 50.5]]}}, {"type": "Feature", "properties": {"level": 1030.0}, "geometry": {"type": "LineString", "coordinates": [[7.0349, 50.5], [7.04, 50.5068], [7.0553, 50.52], [7.06, 50.5247], [7.08, 50.5323], [7.1, 50.535], [7.119, 50.54], [7.12, 50.5405], [7.14, 50.5409], [7.1412, 50.54], [7.16, 50.5364], [7.1723, 50.54], [7.1716, 50.56], [7.1716, 50.58], [7.16, 50.5882], [7.14, 50.5934], [7.12, 50.5944], [7.1108, 50.6], [7.1, 50.6089], [7.08, 50.618], [7.0732, 50.62], [7.06, 50.6248], [7.04, 50.6321], [7.0217, 50.64], [7.0317, 50.66], [7.02, 50.6697], [7.007, 50.68], [7.0, 50.6849], [6.9819, 50.7], [6.98, 50.7026], [6.96, 50.7099], [6.9499, 50.72], [6.96, 50.7355], [6.9622, 50.74], [6.96, 50.7415], [6.94, 50.7431], [6.92, 50.7472], [6.9, 50.7459], [6.88, 50.7493], [6.86, 50.7538], [6.84, 50.7462], [6.82, 50.7493], [6.8, 50.7429], [6.796, 50.74], [6.78, 50.7213], [6.7771, 50.72], [6.76, 50.7083], [6.74, 50.7052], [6.7287, 50.72], [6.72, 50.7228], [6.7, 50.7237], [6.6877, 50.72], [6.68, 50.7182], [6.6719, 50.72], [6.66, 50.7222], [6.6509, 50.72], [6.64, 50.718], [6.62, 50.7177], [6.6072, 50.7], [6.6016, 50.68], [6.6, 50.6749], [6.58, 50.6703], [6.56, 50.665], [6.54, 50.6776], [6.5387, 50.68], [6.52, 50.6939], [6.5107, 50.7], [6.5009, 50.72], [6.5, 50.7218], [6.4904, 50.74], [6.5, 50.7514], [6.5059, 50.76], [6.5, 50.7762], [6.48, 50.7645], [6.46, 50.7612], [6.4586, 50.76], [6.4498, 50.74], [6.44, 50.7331], [6.42, 50.7252], [6.4143, 50.72], [6.42, 50.7079], [6.4229, 50.7], [6.42, 50.6951], [6.4092, 50.68], [6.4, 50.6662], [6.3922, 50.66], [6.38, 50.6541], [6.36, 50.6444], [6.34, 50.6435], [6.32, 50.6465], [6.3, 50.6449], [6.28, 50.6508], [6.26, 50.6426], [6.24, 50.6527], [6.22, 50.6594], [6.2194, 50.66], [6.22, 50.6606], [6.2265, 50.68], [6.22, 50.6898], [6.2093, 50.7], [6.2, 50.7163], [6.1946, 50.72], [6.2, 50.7236], [6.22, 50.7264], [6.2274, 50.74], [6.22, 50.7549], [6.2159, 50.76], [6.2159, 50.78], [6.2057, 50.8], [6.2, 50.8087], [6.18, 50.81], [6.16, 50.8112], [6.14, 50.8055], [6.1242, 50.8], [6.14, 50.7934], [6.1471, 50.78], [6.14, 50.7664], [6.1378, 50.76], [6.14, 50.7556], [6.1467, 50.74], [6.14, 50.7326], [6.12, 50.7259], [6.1, 50.7213], [6.0977, 50.72], [6.08, 50.7145], [6.06, 50.7119], [6.04, 50.7119], [6.0245, 50.72], [6.02, 50.7234], [6.0, 50.7385], [5.98, 50.7396], [5.9795, 50.74], [5.96, 50.7471], [5.94, 50.7592], [5.9378, 50.76], [5.92, 50.7746], [5.9146, 50.76], [5.92, 50.7537], [5.9287, 50.74], [5.9287, 50.72], [5.94, 50.7059], [5.945, 50.7], [5.9414, 50.68], [5.94, 50.6794], [5.9337, 50.68], [5.92, 50.6847], [5.9, 50.6852], [5.8927, 50.68], [5.88, 50.6757], [5.8743, 50.68], [5.873, 50.7], [5.86, 50.7174], [5.8504, 50.72], [5.84, 50.7212], [5.82, 50.7212], [5.8, 50.724], [5.7875, 50.72], [5.78, 50.7125], [5.7706, 50.7], [5.78, 50.6877], [5.7855, 50.68], [5.8, 50.6746], [5.82, 50.6732], [5.84, 50.6644], [5.8537, 50.66], [5.8405, 50.64], [5.84, 50.6397], [5.8222, 50.62], [5.82, 50.617], [5.8034, 50.6], [5.8, 50.5972], [5.78, 50.5958], [5.7765, 50.6], [5.76, 50.6115], [5.74, 50.6173], [5.72, 50.61], [5.7017, 50.6], [5.7, 50.5982], [5.68, 50.5902], [5.6704, 50.6], [5.66, 50.6012], [5.64, 50.601], [5.6381, 50.6], [5.64, 50.5839], [5.6441, 50.58], [5.66, 50.5725], [5.6654, 50.56], [5.68, 50.5516], [5.7, 50.556], [5.72, 50.5532], [5.74, 50.5532], [5.76, 50.5523], [5.7749, 50.54], [5.78, 50.5275], [5.8, 50.5259], [5.82, 50.5224], [5.822, 50.52], [5.822, 50.5]]}}, {"type": "Feature", "properties": {"level": 1030.0}, "geometry": {"type": "LineString", "coordinates": [[7.3167, 50.5], [7.32, 50.5101], [7.3224, 50.52], [7.32, 50.5247], [7.3, 50.5231], [7.28, 50.5243], [7.26, 50.5248], [7.2536, 50.52], [7.24, 50.5112], [7.22, 50.5043], [7.2141, 50.5]]}}, {"type": "Feature", "properties": {"level": 1030.0}, "geometry": {"type": "LineString", "coordinates": [[7.4218, 50.5], [7.44, 50.5131], [7.46, 50.511], [7.4664, 50.52], [7.46, 50.5255], [7.4521, 50.54], [7.44, 50.5561], [7.4377, 50.56], [7.44, 50.5649], [7.4591, 50.58], [7.46, 50.5803], [7.462, 50.58], [7.48, 50.5736], [7.4865, 50.58], [7.5, 50.5838], [7.52, 50.5819], [7.54, 50.5813], [7.5492, 50.58], [7.56, 50.5756], [7.5694, 50.56], [7.571, 50.54], [7.58, 50.5288], [7.5859, 50.52], [7.58, 50.5171], [7.56, 50.5178], [7.547, 50.52], [7.54, 50.5228], [7.52, 50.5251], [7.5163, 50.52], [7.5, 50.5114], [7.48, 50.5018], [7.4771, 50.5]]}}, {"type": "Feature", "properties": {"level": 1030.0}, "geometry": {"type": "LineString", "coordinates": [[7.776, 50.5], [7.776, 50.52], [7.78, 50.5223], [7.799, 50.54], [7.792, 50.56], [7.78, 50.5665], [7.76, 50.5674], [7.74, 50.5651], [7.7242, 50.58], [7.72, 50.5847], [7.7077, 50.6], [7.72, 50.6147], [7.7272, 50.62], [7.74, 50.6264], [7.7509, 50.64], [7.76, 50.6458], [7.78, 50.6533], [7.8, 50.6533], [7.82, 50.6517], [7.84, 50.654], [7.8485, 50.64], [7.84, 50.6219], [7.8368, 50.62], [7.84, 50.615], [7.847, 50.6], [7.847, 50.58], [7.86, 50.5691], [7.88, 50.5717], [7.9, 50.5692], [7.9134, 50.56], [7.9, 50.5518], [7.8936, 50.54], [7.8936, 50.52], [7.88, 50.5097], [7.8725, 50.5]]}}, {"type": "Feature", "properties": {"level": 1030.0}, "geometry": {"type": "LineString", "coordinates": [[6.32, 50.5309], [6.3174, 50.54], [6.32, 50.5411], [6.34, 50.5436], [6.36, 50.5424], [6.3734, 50.54], [6.36, 50.5277], [6.34, 50.5306], [6.32, 50.5309]]}}, {"type": "Feature", "properties": {"level": 1030.0}, "geometry": {"type": "LineString", "coordinates": [[5.92, 50.5756], [5.9059, 50.58], [5.92, 50.5914], [5.94, 50.5841], [5.96, 50.5865], [5.9664, 50.58], [5.96, 50.5773], [5.94, 50.5751], [5.92, 50.5756]]}}, {"type": "Feature", "properties": {"level": 1030.0}, "geometry": {"type": "LineString", "coordinates": [[8.12, 50.571], [8.105, 50.58], [8.1043, 50.6], [8.1, 50.6062], [8.089, 50.62], [8.1, 50.6344], [8.12, 50.6376], [8.1323, 50.64], [8.14, 50.6482], [8.157, 50.66], [8.16, 50.6615], [8.1661, 50.66], [8.1632, 50.64], [8.1632, 50.62], [8.18, 50.6014], [8.1809, 50.6], [8.18, 50.5968], [8.1632, 50.58], [8.16, 50.5751], [8.14, 50.5668], [8.12, 50.571]]}}, {"type": "Feature", "properties": {"level": 1030.0}, "geometry": {"type": "LineString", "coordinates": [[6.46, 50.5986], [6.4574, 50.6], [6.46, 50.6033], [6.4633, 50.6], [6.46, 50.5986]]}}, {"type": "Feature", "properties": {"level": 1030.0}, "geometry": {"type": "LineString", "coordinates": [[7.86, 50.6142], [7.8461, 50.62], [7.86, 50.623], [7.8629, 50.62], [7.86, 50.6142]]}}, {"type": "Feature", "properties": {"level": 1030.0}, "geometry": {"type": "LineString", "coordinates": [[4.9493, 50.64], [4.96, 50.6224], [4.98, 50.6355], [5.0, 50.6322], [5.0119, 50.64], [5.0, 50.6488], [4.98, 50.6424], [4.96, 50.6459], [4.9493, 50.64]]}}, {"type": "Feature", "properties": {"level": 1030.0}, "geometry": {"type": "LineString", "coordinates": [[5.1396, 50.64], [5.14, 50.6398], [5.141, 50.64], [5.14, 50.6403], [5.1396, 50.64]]}}, {"type": "Feature", "properties": {"level": 1030.0}, "geometry": {"type": "LineString", "coordinates": [[5.177, 50.64], [5.18, 50.6397], [5.181, 50.64], [5.18, 50.642], [5.177, 50.64]]}}, {"type": "Feature", "properties": {"level": 1030.0}, "geometry": {"type": "LineString", "coordinates": [[6.58, 50.6386], [6.5781, 50.64], [6.58, 50.6499], [6.6, 50.6453], [6.6008, 50.64], [6.6, 50.6396], [6.58, 50.6386]]}}, {"type": "Feature", "properties": {"level": 1030.0}, "geometry": {"type": "LineString", "coordinates": [[7.94, 50.6498], [7.9337, 50.66], [7.92, 50.6655], [7.9, 50.6687], [7.88, 50.6778], [7.8774, 50.68], [7.8745, 50.7], [7.8609, 50.72], [7.86, 50.7211], [7.84, 50.7337], [7.8227, 50.74], [7.84, 50.7461], [7.86, 50.7543], [7.88, 50.7462], [7.9, 50.7484], [7.92, 50.7419], [7.927, 50.74], [7.927, 50.72], [7.94, 50.7147], [7.9521, 50.72], [7.96, 50.7235], [7.9756, 50.74], [7.98, 50.7454], [7.9955, 50.76], [8.0, 50.7617], [8.02, 50.7628], [8.0233, 50.76], [8.04, 50.7461], [8.06, 50.7408], [8.08, 50.7411], [8.0818, 50.74], [8.0901, 50.72], [8.08, 50.712], [8.0669, 50.7], [8.08, 50.6848], [8.0912, 50.68], [8.1, 50.6709], [8.1124, 50.66], [8.1, 50.6499], [8.08, 50.6532], [8.06, 50.6532], [8.04, 50.648], [8.028, 50.66], [8.02, 50.6653], [8.0, 50.6662], [7.98, 50.6647], [7.9694, 50.66], [7.96, 50.6533], [7.94, 50.6498]]}}, {"type": "Feature", "properties": {"level": 1030.0}, "geometry": {"type": "LineString", "coordinates": [[6.46, 50.7176], [6.4531, 50.72], [6.46, 50.7298], [6.4783, 50.72], [6.46, 50.7176]]}}, {"type": "Feature", "properties": {"level": 1030.0}, "geometry": {"type": "LineString", "coordinates": [[5.8914, 50.8], [5.9, 50.7844], [5.92, 50.7832], [5.929, 50.8], [5.94, 50.8111], [5.9498, 50.82], [5.94, 50.8351], [5.9349, 50.84], [5.92, 50.8559], [5.9, 50.8488], [5.88, 50.8509], [5.86, 50.8509], [5.8524, 50.84], [5.86, 50.8344], [5.8731, 50.82], [5.88, 50.8109], [5.8914, 50.8]]}}, {"type": "Feature", "properties": {"level": 1030.0}, "geometry": {"type": "LineString", "coordinates": [[7.38, 50.7977], [7.3786, 50.8], [7.38, 50.8016], [7.4, 50.8023], [7.4023, 50.8], [7.4, 50.7989], [7.38, 50.7977]]}}, {"type": "Feature", "properties": {"level": 1030.0}, "geometry": {"type": "LineString", "coordinates": [[4.7576, 50.84], [4.76, 50.8352], [4.7627, 50.84], [4.76, 50.8422], [4.7576, 50.84]]}}, {"type": "Feature", "properties": {"level": 1030.0}, "geometry": {"type": "LineString", "coordinates": [[6.2915, 50.86], [6.3, 50.8454], [6.3031, 50.86], [6.3016, 50.88], [6.3, 50.8925], [6.28, 50.8829], [6.2784, 50.88], [6.28, 50.8765], [6.2915, 50.86]]}}, {"type": "Feature", "properties": {"level": 1030.0}, "geometry": {"type": "LineString", "coordinates": [[6.3514, 50.88], [6.36, 50.8738], [6.38, 50.8708], [6.4, 50.8774], [6.42, 50.8659], [6.4301, 50.88], [6.42, 50.8832], [6.4, 50.8815], [6.38, 50.8837], [6.3643, 50.9], [6.36, 50.9087], [6.34, 50.9066], [6.3211, 50.9], [6.34, 50.8904], [6.3514, 50.88]]}}, {"type": "Feature", "properties": {"level": 1030.0}, "geometry": {"type": "LineString", "coordinates": [[5.5747, 50.96], [5.58, 50.9574], [5.5829, 50.96], [5.6, 50.9754], [5.6032, 50.98], [5.62, 50.9957], [5.6282, 51.0], [5.64, 51.0091], [5.6587, 51.02], [5.66, 51.0214], [5.68, 51.0308], [5.7, 51.0308], [5.72, 51.023], [5.7221, 51.02], [5.74, 51.0062], [5.76, 51.0095], [5.78, 51.0141], [5.7974, 51.02], [5.8, 51.0215], [5.82, 51.0242], [5.84, 51.0267], [5.86, 51.0332], [5.88, 51.0379], [5.9, 51.035], [5.9132, 51.04], [5.9014, 51.06], [5.9, 51.0611], [5.88, 51.0771], [5.86, 51.0775], [5.8566, 51.08], [5.84, 51.0887], [5.8271, 51.1], [5.82, 51.1131], [5.8027, 51.12], [5.8, 51.1234], [5.7914, 51.14], [5.8, 51.1506], [5.806, 51.16], [5.82, 51.1696], [5.8274, 51.18], [5.82, 51.1997], [5.8199, 51.2], [5.82, 51.2001], [5.84, 51.2002], [5.86, 51.2028], [5.8772, 51.22], [5.88, 51.2257], [5.8951, 51.24], [5.8969, 51.26], [5.8967, 51.28], [5.9, 51.2915], [5.9023, 51.3], [5.9, 51.3031], [5.8871, 51.32], [5.8806, 51.34], [5.88, 51.3408], [5.8604, 51.36], [5.86, 51.3602], [5.8569, 51.36], [5.84, 51.3588], [5.8357, 51.36], [5.82, 51.3664], [5.8, 51.3657], [5.7864, 51.36], [5.78, 51.358], [5.76, 51.3561], [5.74, 51.3476], [5.7299, 51.34], [5.72, 51.3331], [5.7008, 51.32], [5.7, 51.3196], [5.68, 51.3194], [5.66, 51.3125], [5.6487, 51.3], [5.64, 51.2903], [5.62, 51.2852], [5.6101, 51.28], [5.6, 51.2738], [5.5843, 51.26], [5.58, 51.2536], [5.5664, 51.24], [5.56, 51.2322], [5.5504, 51.22], [5.54, 51.2148], [5.52, 51.2013], [5.5195, 51.2], [5.5, 51.189], [5.4892, 51.18], [5.48, 51.1705], [5.4707, 51.16], [5.46, 51.1524], [5.4529, 51.14], [5.46, 51.1253], [5.4653, 51.12], [5.46, 51.1165], [5.4484, 51.1], [5.44, 51.0891], [5.4249, 51.08], [5.42, 51.0744], [5.4098, 51.06], [5.4, 51.0437], [5.3994, 51.04], [5.4, 51.0392], [5.4142, 51.02], [5.42, 51.0126], [5.44, 51.0028], [5.46, 51.004], [5.4687, 51.0], [5.48, 50.9954], [5.4945, 51.0], [5.5, 51.0024], [5.5093, 51.0], [5.52, 50.9887], [5.5276, 50.98], [5.54, 50.973], [5.56, 50.9725], [5.5747, 50.96]]}}, {"type": "Feature", "properties": {"level": 1030.0}, "geometry": {"type": "LineString", "coordinates": [[8.04, 50.9999], [8.0394, 51.0], [8.04, 51.0002], [8.0404, 51.0], [8.04, 50.9999]]}}, {"type": "Feature", "properties": {"level": 1030.0}, "geometry": {"type": "LineString", "coordinates": [[7.7, 51.1375], [7.6892, 51.14], [7.6857, 51.16], [7.7, 51.1726], [7.72, 51.1659], [7.7314, 51.16], [7.72, 51.141], [7.7191, 51.14], [7.7, 51.1375]]}}, {"type": "Feature", "properties": {"level": 1030.0}, "geometry": {"type": "LineString", "coordinates": [[7.76, 51.1395], [7.7419, 51.14], [7.76, 51.1478], [7.7625, 51.14], [7.76, 51.1395]]}}, {"type": "Feature", "properties": {"level": 1030.0}, "geometry": {"type": "LineString", "coordinates": [[8.3, 51.2196], [8.2997, 51.22], [8.3, 51.2204], [8.32, 51.2235], [8.3235, 51.22], [8.32, 51.219], [8.3, 51.2196]]}}, {"type": "Feature", "properties": {"level": 1030.0}, "geometry": {"type": "LineString", "coordinates": [[5.906, 51.24], [5.92, 51.2206], [5.94, 51.2341], [5.9511, 51.24], [5.9413, 51.26], [5.94, 51.2613], [5.933, 51.26], [5.92, 51.254], [5.906, 51.24]]}}, {"type": "Feature", "properties": {"level": 1030.0}, "geometry": {"type": "LineString", "coordinates": [[8.02, 51.232], [8.0154, 51.24], [8.0, 51.2559], [7.98, 51.2559], [7.9778, 51.26], [7.9633, 51.28], [7.98, 51.2848], [8.0, 51.2809], [8.02, 51.2809], [8.04, 51.2801], [8.0402, 51.28], [8.0433, 51.26], [8.04, 51.2477], [8.0296, 51.24], [8.02, 51.232]]}}, {"type": "Feature", "properties": {"level": 1030.0}, "geometry": {"type": "LineString", "coordinates": [[5.62, 51.2586], [5.616, 51.26], [5.62, 51.2673], [5.6218, 51.26], [5.62, 51.2586]]}}, {"type": "Feature", "properties": {"level": 1030.0}, "geometry": {"type": "LineString", "coordinates": [[5.1777, 51.28], [5.18, 51.2776], [5.2, 51.2738], [5.2157, 51.28], [5.2, 51.2859], [5.18, 51.2859], [5.1777, 51.28]]}}, {"type": "Feature", "properties": {"level": 1030.0}, "geometry": {"type": "LineString", "coordinates": [[5.4878, 51.28], [5.5, 51.2711], [5.52, 51.2686], [5.54, 51.2753], [5.56, 51.2717], [5.5661, 51.28], [5.58, 51.2921], [5.5879, 51.3], [5.5961, 51.32], [5.58, 51.3288], [5.56, 51.337], [5.54, 51.337], [5.52, 51.325], [5.5157, 51.32], [5.5, 51.3024], [5.4948, 51.3], [5.4878, 51.28]]}}, {"type": "Feature", "properties": {"level": 1030.0}, "geometry": {"type": "LineString", "coordinates": [[7.6, 51.2787], [7.595, 51.28], [7.58, 51.286], [7.5726, 51.3], [7.5761, 51.32], [7.58, 51.3245], [7.6, 51.3308], [7.6068, 51.32], [7.62, 51.303], [7.6222, 51.3], [7.6222, 51.28], [7.62, 51.2784], [7.6, 51.2787]]}}, {"type": "Feature", "properties": {"level": 1030.0}, "geometry": {"type": "LineString", "coordinates": [[7.74, 51.2995], [7.7394, 51.3], [7.72, 51.3173], [7.714, 51.32], [7.7, 51.3292], [7.6848, 51.34], [7.68, 51.3513], [7.6753, 51.36], [7.674, 51.38], [7.6704, 51.4], [7.68, 51.4093], [7.7, 51.4124], [7.7139, 51.42], [7.72, 51.4223], [7.728, 51.42], [7.74, 51.4155], [7.76, 51.4079], [7.78, 51.4052], [7.7986, 51.4], [7.7986, 51.38], [7.8, 51.3793], [7.8037, 51.38], [7.82, 51.3963], [7.84, 51.3816], [7.8414, 51.38], [7.8447, 51.36], [7.84, 51.3485], [7.8325, 51.34], [7.82, 51.3213], [7.8, 51.3208], [7.7977, 51.32], [7.78, 51.3125], [7.76, 51.3104], [7.7431, 51.3], [7.74, 51.2995]]}}, {"type": "Feature", "properties": {"level": 1030.0}, "geometry": {"type": "LineString", "coordinates": [[5.2267, 51.32], [5.24, 51.3043], [5.26, 51.3098], [5.2638, 51.32], [5.26, 51.3292], [5.24, 51.3267], [5.2267, 51.32]]}}, {"type": "Feature", "properties": {"level": 1030.0}, "geometry": {"type": "LineString", "coordinates": [[5.1916, 51.34], [5.2, 51.3256], [5.2078, 51.34], [5.2, 51.3438], [5.1916, 51.34]]}}, {"type": "Feature", "properties": {"level": 1030.0}, "geometry": {"type": "LineString", "coordinates": [[8.42, 51.5778], [8.4156, 51.58], [8.4, 51.5931], [8.3889, 51.6], [8.4, 51.6097], [8.42, 51.6112], [8.44, 51.6108], [8.4503, 51.6], [8.44, 51.5897], [8.4259, 51.58], [8.42, 51.5778]]}}, {"type": "Feature", "properties": {"level": 1030.0}, "geometry": {"type": "LineString", "coordinates": [[8.5, 51.8841], [8.48, 51.8828], [8.46, 51.8822], [8.4518, 51.88], [8.44, 51.8709], [8.42, 51.8696], [8.4, 51.8603], [8.3991, 51.86], [8.38, 51.851], [8.36, 51.8522], [8.34, 51.856], [8.32, 51.8509], [8.3072, 51.84], [8.3, 51.8355], [8.2839, 51.84], [8.28, 51.8408], [8.26, 51.8408], [8.2587, 51.84], [8.24, 51.8246], [8.2377, 51.82], [8.22, 51.8037], [8.2179, 51.8], [8.22, 51.7953], [8.2317, 51.78], [8.22, 51.7669], [8.2127, 51.76], [8.2, 51.7497], [8.18, 51.7465], [8.16, 51.7414], [8.14, 51.7412], [8.1382, 51.74], [8.12, 51.7221], [8.1158, 51.72], [8.1, 51.7111], [8.08, 51.7117], [8.06, 51.7083], [8.04, 51.7099], [8.02, 51.7086], [8.0, 51.7098], [7.98, 51.7032], [7.96, 51.7127], [7.94, 51.7127], [7.9283, 51.7], [7.92, 51.6906], [7.9127, 51.68], [7.92, 51.6697], [7.94, 51.6697], [7.96, 51.6627], [7.9654, 51.66], [7.96, 51.6493], [7.94, 51.645], [7.9318, 51.64], [7.94, 51.6302], [7.945, 51.62], [7.94, 51.6122], [7.92, 51.6122], [7.9126, 51.6], [7.92, 51.5897], [7.9343, 51.58], [7.9299, 51.56], [7.92, 51.5566], [7.9, 51.5583], [7.88, 51.5519], [7.86, 51.5518], [7.8553, 51.54], [7.84, 51.5351], [7.82, 51.5313], [7.8, 51.5313], [7.78, 51.5259], [7.7711, 51.52], [7.76, 51.5145], [7.74, 51.5138], [7.72, 51.5115], [7.7, 51.5184], [7.68, 51.5184], [7.66, 51.5154], [7.64, 51.5134], [7.62, 51.5072], [7.6085, 51.5], [7.6, 51.497], [7.58, 51.4955], [7.56, 51.4887], [7.54, 51.484], [7.5347, 51.48], [7.52, 51.4701], [7.508, 51.46], [7.5, 51.4537], [7.4857, 51.44], [7.48, 51.4362], [7.46, 51.4357], [7.44, 51.4382], [7.42, 51.4293], [7.4017, 51.42], [7.4, 51.4178], [7.38, 51.4174], [7.36, 51.4187], [7.34, 51.4167], [7.3307, 51.4], [7.32, 51.3893], [7.3139, 51.38], [7.32, 51.3696], [7.3283, 51.36], [7.32, 51.3515], [7.3, 51.3479], [7.2966, 51.34], [7.3, 51.3318], [7.32, 51.3229], [7.34, 51.3229], [7.3553, 51.34], [7.36, 51.3445], [7.38, 51.3536], [7.4, 51.3586], [7.42, 51.3542], [7.44, 51.3573], [7.46, 51.3517], [7.4712, 51.34], [7.48, 51.3327], [7.4899, 51.32], [7.5, 51.3022], [7.5016, 51.3], [7.5, 51.2986], [7.48, 51.2967], [7.4659, 51.28], [7.4686, 51.26], [7.46, 51.249], [7.44, 51.2456], [7.42, 51.2456], [7.4122, 51.26], [7.4, 51.2688], [7.38, 51.2771], [7.3684, 51.26], [7.38, 51.2416], [7.3867, 51.24], [7.38, 51.2351], [7.3744, 51.22], [7.36, 51.2141], [7.34, 51.2148], [7.3329, 51.22], [7.3234, 51.24], [7.32, 51.243], [7.3, 51.2495], [7.28, 51.257], [7.2766, 51.26], [7.28, 51.2779], [7.2805, 51.28], [7.28, 51.2808], [7.26, 51.2819], [7.24, 51.2978], [7.22, 51.295], [7.2, 51.2921], [7.18, 51.2861], [7.16, 51.2841], [7.1501, 51.28], [7.16, 51.2733], [7.18, 51.2717], [7.2, 51.2686], [7.2086, 51.26], [7.22, 51.2435], [7.2235, 51.24], [7.24, 51.2299], [7.2508, 51.22], [7.2581, 51.2], [7.24, 51.1827], [7.2349, 51.18], [7.24, 51.1698], [7.2418, 51.16], [7.24, 51.1563], [7.22, 51.1562], [7.2, 51.1543], [7.1907, 51.16], [7.18, 51.1707], [7.16, 51.1793], [7.1597, 51.18], [7.14, 51.1912], [7.1254, 51.2], [7.12, 51.203], [7.1104, 51.2], [7.1, 51.1932], [7.0916, 51.18], [7.08, 51.1662], [7.0733, 51.16], [7.08, 51.1531], [7.0882, 51.14], [7.0832, 51.12], [7.1, 51.1132], [7.12, 51.1087], [7.1318, 51.1], [7.12, 51.0835], [7.1183, 51.08], [7.12, 51.0705], [7.1215, 51.06], [7.12, 51.0551], [7.116, 51.04], [7.12, 51.0351], [7.135, 51.02], [7.14, 51.0018], [7.16, 51.0018], [7.1633, 51.0], [7.18, 50.9966], [7.1866, 50.98], [7.18, 50.9601], [7.1799, 50.96], [7.1645, 50.94], [7.16, 50.928], [7.1564, 50.92], [7.16, 50.9158], [7.18, 50.9054], [7.2, 50.9025], [7.2046, 50.9], [7.2, 50.8889], [7.18, 50.888], [7.1761, 50.88], [7.18, 50.8712], [7.1837, 50.86], [7.18, 50.8442], [7.1789, 50.84], [7.18, 50.8382], [7.2, 50.8386], [7.22, 50.8326], [7.24, 50.8326], [7.26, 50.8222], [7.2635, 50.82], [7.269, 50.8], [7.28, 50.7848], [7.2847, 50.78], [7.28, 50.7736], [7.26, 50.7684], [7.2517, 50.76], [7.26, 50.7576], [7.28, 50.7482], [7.3, 50.7519], [7.3162, 50.74], [7.32, 50.7362], [7.34, 50.7245], [7.3522, 50.74], [7.36, 50.7425], [7.38, 50.7417], [7.4, 50.7443], [7.4166, 50.74], [7.42, 50.7386], [7.4214, 50.74], [7.44, 50.7468], [7.46, 50.7441], [7.48, 50.746], [7.5, 50.7404], [7.52, 50.7431], [7.5213, 50.74], [7.52, 50.7387], [7.5077, 50.72], [7.5, 50.7156], [7.4801, 50.7], [7.48, 50.7], [7.46, 50.6964], [7.44, 50.693], [7.42, 50.6957], [7.4, 50.693], [7.3878, 50.7], [7.38, 50.7094], [7.36, 50.718], [7.3526, 50.7], [7.3473, 50.68], [7.3535, 50.66], [7.3581, 50.64], [7.3482, 50.62], [7.36, 50.6042], [7.3632, 50.6], [7.38, 50.581], [7.3816, 50.58], [7.38, 50.5746], [7.3736, 50.56], [7.3754, 50.54], [7.3742, 50.52], [7.38, 50.5121], [7.3921, 50.5]]}}, {"type": "Feature", "properties": {"level": 1030.0}, "geometry": {"type": "LineString", "coordinates": [[8.5, 51.9238], [8.4913, 51.92], [8.5, 51.9144]]}}, {"type": "Feature", "properties": {"level": 1030.0}, "geometry": {"type": "LineString", "coordinates": [[8.2376, 52.18], [8.24, 52.1778], [8.26, 52.1768], [8.2697, 52.18], [8.28, 52.1897], [8.3, 52.1897], [8.3144, 52.18], [8.32, 52.1762], [8.34, 52.163], [8.36, 52.1708], [8.38, 52.169], [8.4, 52.169], [8.4081, 52.18], [8.4198, 52.2], [8.406, 52.22], [8.4, 52.223], [8.38, 52.2206], [8.3785, 52.22], [8.36, 52.2015], [8.34, 52.2014], [8.3235, 52.22], [8.32, 52.2232], [8.3, 52.2229], [8.28, 52.2267], [8.26, 52.234], [8.2577, 52.22], [8.2474, 52.2], [8.24, 52.192], [8.2376, 52.18]]}}, {"type": "Feature", "properties": {"level": 1030.0}, "geometry": {"type": "LineString", "coordinates": [[8.5, 52.2035], [8.48, 52.2026], [8.46, 52.2046], [8.4425, 52.2], [8.46, 52.1968], [8.4769, 52.18], [8.46, 52.1669], [8.44, 52.1681], [8.42, 52.1669], [8.4103, 52.16], [8.42, 52.1555], [8.44, 52.1539], [8.46, 52.1538], [8.48, 52.1514], [8.4997, 52.14], [8.5, 52.1397]]}}, {"type": "Feature", "properties": {"level": 1030.0}, "geometry": {"type": "LineString", "coordinates": [[2.5, 52.6232], [2.5099, 52.62], [2.52, 52.6169], [2.54, 52.6104], [2.56, 52.6014], [2.562, 52.6], [2.58, 52.582], [2.582, 52.58], [2.6, 52.5688], [2.62, 52.5611], [2.64, 52.5609], [2.642, 52.56], [2.66, 52.5533], [2.68, 52.5526], [2.7, 52.5476], [2.7116, 52.54], [2.72, 52.5334], [2.7324, 52.52], [2.74, 52.5152], [2.7554, 52.5], [2.76, 52.4942], [2.7704, 52.48], [2.78, 52.4724], [2.7946, 52.46], [2.8, 52.4467], [2.82, 52.4467], [2.8298, 52.44], [2.84, 52.4308], [2.8517, 52.42], [2.84, 52.4083], [2.8374, 52.4], [2.84, 52.3965], [2.86, 52.3854], [2.863, 52.38], [2.8695, 52.36], [2.8753, 52.34], [2.88, 52.3284], [2.8844, 52.32], [2.88, 52.3156], [2.8748, 52.3], [2.88, 52.2928], [2.8972, 52.28], [2.9, 52.277], [2.9187, 52.26], [2.92, 52.259], [2.94, 52.2533], [2.96, 52.2501], [2.98, 52.2509], [3.0, 52.2506], [3.02, 52.2556], [3.0288, 52.26], [3.04, 52.2672], [3.06, 52.2776], [3.0677, 52.28], [3.08, 52.2854], [3.1, 52.294], [3.1107, 52.3], [3.12, 52.306], [3.14, 52.3157], [3.16, 52.3165], [3.18, 52.3194], [3.181, 52.32], [3.2, 52.339], [3.2009, 52.34], [3.22, 52.3511], [3.2371, 52.36], [3.24, 52.3614], [3.26, 52.3624], [3.28, 52.3689], [3.3, 52.3714], [3.32, 52.3674], [3.34, 52.3676], [3.36, 52.3668], [3.38, 52.3639], [3.4, 52.3653], [3.42, 52.3658], [3.438, 52.36], [3.438, 52.34], [3.44, 52.3393], [3.4437, 52.34], [3.46, 52.3563], [3.48, 52.3439], [3.5, 52.3432], [3.52, 52.3432], [3.5304, 52.34], [3.54, 52.3378], [3.5486, 52.34], [3.56, 52.343], [3.5718, 52.34], [3.58, 52.338], [3.5868, 52.34], [3.6, 52.3451], [3.62, 52.3478], [3.64, 52.3537], [3.6479, 52.36], [3.66, 52.3713], [3.68, 52.3792], [3.6808, 52.38], [3.7, 52.3992], [3.7006, 52.4], [3.7, 52.408], [3.6969, 52.42], [3.7, 52.4224], [3.72, 52.4224], [3.74, 52.4325], [3.7573, 52.44], [3.76, 52.4412], [3.78, 52.4415], [3.8, 52.4508], [3.8198, 52.46], [3.82, 52.4601], [3.84, 52.4602], [3.8425, 52.46], [3.86, 52.4594], [3.8613, 52.46], [3.88, 52.4698], [3.9, 52.4763], [3.92, 52.4781], [3.9241, 52.48], [3.94, 52.492], [3.9481, 52.5], [3.96, 52.5195], [3.9605, 52.52], [3.9647, 52.54], [3.9718, 52.56], [3.98, 52.5705], [3.9868, 52.58], [4.0, 52.589], [4.0115, 52.6], [4.02, 52.6084], [4.0331, 52.62], [4.04, 52.6301], [4.06, 52.6301], [4.0663, 52.64], [4.08, 52.6547], [4.0854, 52.66], [4.1, 52.679], [4.1017, 52.68], [4.1059, 52.7], [4.1, 52.7065], [4.0931, 52.72], [4.1, 52.7335], [4.12, 52.7335], [4.1234, 52.74], [4.12, 52.7511], [4.1147, 52.76], [4.12, 52.767], [4.1307, 52.78], [4.14, 52.7879], [4.16, 52.7879], [4.1729, 52.8], [4.18, 52.8056], [4.2, 52.8178], [4.2027, 52.82], [4.22, 52.8288], [4.2345, 52.84], [4.24, 52.8478], [4.2499, 52.86], [4.26, 52.8668], [4.28, 52.8789], [4.2815, 52.88], [4.3, 52.8941], [4.3069, 52.9], [4.32, 52.9036], [4.34, 52.9112], [4.344, 52.92], [4.3427, 52.94], [4.34, 52.9554], [4.3354, 52.96], [4.3391, 52.98], [4.3337, 53.0], [4.3353, 53.02], [4.34, 53.0234], [4.3529, 53.04], [4.36, 53.0475], [4.3753, 53.06], [4.38, 53.0668], [4.4, 53.0668], [4.4118, 53.08], [4.42, 53.0865], [4.4367, 53.1], [4.44, 53.1023], [4.46, 53.1063], [4.48, 53.112], [4.4886, 53.12], [4.5, 53.1248], [4.52, 53.1305], [4.54, 53.1305], [4.56, 53.1288], [4.58, 53.1373], [4.6, 53.1356], [4.6103, 53.14], [4.62, 53.1441], [4.64, 53.1489], [4.6561, 53.16], [4.66, 53.1654], [4.6707, 53.18], [4.68, 53.1888], [4.6857, 53.2], [4.68, 53.2112], [4.6712, 53.22], [4.68, 53.2302], [4.6837, 53.24], [4.68, 53.2478], [4.6684, 53.26], [4.6732, 53.28], [4.66, 53.2957], [4.6562, 53.3], [4.66, 53.3117], [4.6628, 53.32], [4.66, 53.3343], [4.6588, 53.34], [4.66, 53.3439], [4.664, 53.36], [4.6699, 53.38], [4.66, 53.3916], [4.6478, 53.4], [4.6478, 53.42], [4.64, 53.4229], [4.6257, 53.42], [4.62, 53.4143], [4.6, 53.4173], [4.598, 53.42], [4.58, 53.4333], [4.5705, 53.44], [4.5748, 53.46], [4.56, 53.4709], [4.5534, 53.48], [4.56, 53.4978], [4.5609, 53.5], [4.5608, 53.52], [4.5733, 53.54], [4.58, 53.5496], [4.5899, 53.56], [4.6, 53.5734], [4.6059, 53.58], [4.6, 53.5835], [4.58, 53.5852], [4.5632, 53.6], [4.56, 53.6023], [4.54, 53.6049], [4.52, 53.6076], [4.5, 53.6053], [4.48, 53.6077], [4.46, 53.6136], [4.44, 53.6163], [4.4342, 53.62], [4.42, 53.6342], [4.4148, 53.64], [4.4, 53.6531], [4.3869, 53.66], [4.3869, 53.68], [4.38, 53.6822], [4.3715, 53.68], [4.36, 53.6685], [4.34, 53.6708], [4.32, 53.6685], [4.3033, 53.66], [4.3, 53.6593], [4.28, 53.6588], [4.26, 53.6591], [4.2589, 53.66], [4.24, 53.6747], [4.2352, 53.68], [4.238, 53.7], [4.22, 53.7158], [4.2133, 53.72], [4.2, 53.7269], [4.18, 53.7369], [4.16, 53.7363], [4.1552, 53.74], [4.14, 53.7563], [4.1363, 53.76], [4.12, 53.7679], [4.1048, 53.78], [4.1, 53.782], [4.08, 53.7804], [4.06, 53.7866], [4.04, 53.7895], [4.02, 53.7863], [4.0, 53.793], [3.9897, 53.8], [3.98, 53.8138], [3.9746, 53.82], [3.9746, 53.84], [3.96, 53.8521], [3.948, 53.86], [3.94, 53.8646], [3.92, 53.8617], [3.9, 53.8614], [3.88, 53.8722], [3.86, 53.8702], [3.84, 53.8759], [3.8325, 53.88], [3.82, 53.8867], [3.8, 53.8951], [3.78, 53.8975], [3.7726, 53.9], [3.76, 53.9107], [3.74, 53.9157], [3.7243, 53.9], [3.72, 53.899], [3.7165, 53.9], [3.7165, 53.92], [3.7, 53.9252], [3.68, 53.9256], [3.6663, 53.94], [3.66, 53.9533], [3.64, 53.9533], [3.6343, 53.96], [3.62, 53.9645], [3.6, 53.9632], [3.5935, 53.96], [3.58, 53.9537], [3.56, 53.9546], [3.54, 53.9566], [3.527, 53.96], [3.52, 53.9619], [3.5, 53.9627], [3.4809, 53.98]]}}, {"type": "Feature", "properties": {"level": 1030.0}, "geometry": {"type": "LineString", "coordinates": [[2.5408, 53.98], [2.54, 53.9796], [2.52, 53.9791], [2.5, 53.9696]]}}]}