{"type": "FeatureCollection", "features": [{"type": "Feature", "properties": {"level": 1015.0}, "geometry": {"type": "LineString", "coordinates": [[6.492, 50.5], [6.48, 50.5158], [6.4693, 50.52], [6.48, 50.527], [6.4891, 50.54], [6.5, 50.5521], [6.52, 50.5521], [6.5277, 50.56], [6.52, 50.5691], [6.5031, 50.58], [6.5, 50.5812], [6.4976, 50.58], [6.48, 50.5679], [6.4752, 50.56], [6.46, 50.5455], [6.4553, 50.54], [6.44, 50.5225], [6.4381, 50.52], [6.44, 50.5118], [6.445, 50.5]]}}, {"type": "Feature", "properties": {"level": 1015.0}, "geometry": {"type": "LineString", "coordinates": [[7.01, 50.5], [7.0, 50.5086], [6.98, 50.5135], [6.96, 50.5028], [6.957, 50.5]]}}, {"type": "Feature", "properties": {"level": 1015.0}, "geometry": {"type": "LineString", "coordinates": [[7.7744, 50.5], [7.7744, 50.52], [7.76, 50.528], [7.7493, 50.54], [7.74, 50.5465], [7.72, 50.5583], [7.7, 50.5557], [7.6913, 50.56], [7.68, 50.57], [7.6702, 50.58], [7.66, 50.5902], [7.64, 50.5885], [7.6321, 50.58], [7.62, 50.5604], [7.6199, 50.56], [7.62, 50.5599], [7.6395, 50.54], [7.64, 50.5277], [7.66, 50.5277], [7.6614, 50.52], [7.68, 50.5121], [7.7, 50.514], [7.7136, 50.52], [7.72, 50.5242], [7.7245, 50.52], [7.7308, 50.5]]}}, {"type": "Feature", "properties": {"level": 1015.0}, "geometry": {"type": "LineString", "coordinates": [[7.8204, 50.5], [7.82, 50.5002], [7.8, 50.5017], [7.7983, 50.5]]}}, {"type": "Feature", "properties": {"level": 1015.0}, "geometry": {"type": "LineString", "coordinates": [[7.9403, 50.5], [7.94, 50.5006], [7.92, 50.5159], [7.9, 50.5042], [7.88, 50.5034], [7.8741, 50.5]]}}, {"type": "Feature", "properties": {"level": 1015.0}, "geometry": {"type": "LineString", "coordinates": [[8.0741, 50.5], [8.0643, 50.52], [8.06, 50.5257], [8.0544, 50.52], [8.04, 50.5143], [8.0307, 50.5]]}}, {"type": "Feature", "properties": {"level": 1015.0}, "geometry": {"type": "LineString", "coordinates": [[8.1699, 50.5], [8.16, 50.512], [8.14, 50.5064], [8.12, 50.5044], [8.1101, 50.5]]}}, {"type": "Feature", "properties": {"level": 1015.0}, "geometry": {"type": "LineString", "coordinates": [[6.2231, 50.54], [6.24, 50.5306], [6.26, 50.532], [6.28, 50.54], [6.28, 50.54], [6.3, 50.5519], [6.32, 50.5554], [6.3334, 50.56], [6.32, 50.5703], [6.3, 50.5645], [6.28, 50.5654], [6.26, 50.5631], [6.24, 50.5621], [6.2378, 50.56], [6.2231, 50.54]]}}, {"type": "Feature", "properties": {"level": 1015.0}, "geometry": {"type": "LineString", "coordinates": [[8.24, 50.5882], [8.2331, 50.6], [8.22, 50.6169], [8.2171, 50.62], [8.22, 50.6301], [8.2306, 50.64], [8.24, 50.643], [8.26, 50.641], [8.28, 50.6403], [8.2803, 50.64], [8.28, 50.6377], [8.2682, 50.62], [8.28, 50.6082], [8.284, 50.6], [8.28, 50.5941], [8.26, 50.5913], [8.24, 50.5882]]}}, {"type": "Feature", "properties": {"level": 1015.0}, "geometry": {"type": "LineString", "coordinates": [[7.9, 50.6545], [7.8942, 50.66], [7.88, 50.6703], [7.8675, 50.68], [7.86, 50.688], [7.84, 50.6849], [7.82, 50.6848], [7.8, 50.6898], [7.78, 50.6927], [7.7718, 50.7], [7.7742, 50.72], [7.76, 50.7302], [7.753, 50.74], [7.76, 50.7497], [7.78, 50.7507], [7.7936, 50.76], [7.8, 50.7623], [7.82, 50.762], [7.8288, 50.76], [7.84, 50.7539], [7.86, 50.7565], [7.88, 50.7548], [7.891, 50.76], [7.9, 50.7621], [7.9054, 50.76], [7.92, 50.7513], [7.94, 50.7461], [7.9504, 50.74], [7.96, 50.7344], [7.98, 50.7376], [8.0, 50.7388], [8.02, 50.7355], [8.0367, 50.72], [8.0314, 50.7], [8.04, 50.6921], [8.0492, 50.68], [8.04, 50.6632], [8.02, 50.6648], [8.0, 50.6643], [7.98, 50.6624], [7.9715, 50.66], [7.96, 50.6481], [7.94, 50.6403], [7.92, 50.6539], [7.9, 50.6545]]}}, {"type": "Feature", "properties": {"level": 1015.0}, "geometry": {"type": "LineString", "coordinates": [[7.7, 50.696], [7.696, 50.7], [7.7, 50.7022], [7.72, 50.7003], [7.7205, 50.7], [7.72, 50.6988], [7.7, 50.696]]}}, {"type": "Feature", "properties": {"level": 1015.0}, "geometry": {"type": "LineString", "coordinates": [[7.5171, 50.8], [7.52, 50.7963], [7.5389, 50.8], [7.52, 50.8011], [7.5171, 50.8]]}}, {"type": "Feature", "properties": {"level": 1015.0}, "geometry": {"type": "LineString", "coordinates": [[8.5, 50.791], [8.4917, 50.8], [8.5, 50.8044]]}}, {"type": "Feature", "properties": {"level": 1015.0}, "geometry": {"type": "LineString", "coordinates": [[8.28, 50.8587], [8.278, 50.86], [8.28, 50.8658], [8.3, 50.8658], [8.3013, 50.86], [8.3, 50.859], [8.28, 50.8587]]}}, {"type": "Feature", "properties": {"level": 1015.0}, "geometry": {"type": "LineString", "coordinates": [[7.64, 50.9535], [7.6268, 50.96], [7.64, 50.9728], [7.66, 50.9769], [7.6612, 50.98], [7.68, 50.9981], [7.6822, 51.0], [7.7, 51.0122], [7.72, 51.0039], [7.74, 51.0021], [7.7473, 51.0], [7.74, 50.9838], [7.72, 50.9838], [7.7192, 50.98], [7.72, 50.978], [7.74, 50.9725], [7.76, 50.9757], [7.7636, 50.98], [7.78, 50.9876], [7.8, 50.9831], [7.8061, 50.98], [7.8, 50.9646], [7.796, 50.96], [7.78, 50.9508], [7.76, 50.95], [7.74, 50.9532], [7.72, 50.9452], [7.7, 50.941], [7.68, 50.9411], [7.66, 50.9451], [7.64, 50.9535]]}}, {"type": "Feature", "properties": {"level": 1015.0}, "geometry": {"type": "LineString", "coordinates": [[7.9, 50.9742], [7.8914, 50.98], [7.8818, 51.0], [7.9, 51.0099], [7.9081, 51.02], [7.9, 51.0316], [7.8962, 51.04], [7.9, 51.0487], [7.9162, 51.06], [7.9086, 51.08], [7.92, 51.0829], [7.94, 51.0837], [7.9453, 51.08], [7.96, 51.0712], [7.98, 51.0689], [8.0, 51.0729], [8.02, 51.0687], [8.04, 51.076], [8.0594, 51.06], [8.06, 51.0596], [8.0756, 51.04], [8.08, 51.0375], [8.1, 51.0334], [8.1069, 51.02], [8.1, 51.015], [8.0866, 51.0], [8.08, 50.9959], [8.06, 50.996], [8.04, 50.9832], [8.02, 50.9904], [8.0127, 51.0], [8.0, 51.0143], [7.98, 51.0153], [7.96, 51.0164], [7.94, 51.0084], [7.9296, 51.0], [7.92, 50.9893], [7.9048, 50.98], [7.9, 50.9742]]}}, {"type": "Feature", "properties": {"level": 1015.0}, "geometry": {"type": "LineString", "coordinates": [[7.3581, 51.0], [7.36, 50.9968], [7.3606, 51.0], [7.36, 51.0006], [7.3581, 51.0]]}}, {"type": "Feature", "properties": {"level": 1015.0}, "geometry": {"type": "LineString", "coordinates": [[7.4006, 51.1], [7.42, 51.0951], [7.44, 51.0974], [7.46, 51.0974], [7.48, 51.0978], [7.5, 51.0979], [7.52, 51.0933], [7.5378, 51.1], [7.52, 51.1168], [7.5, 51.1117], [7.48, 51.1184], [7.4795, 51.12], [7.46, 51.134], [7.44, 51.134], [7.42, 51.1363], [7.4006, 51.12], [7.4006, 51.1]]}}, {"type": "Feature", "properties": {"level": 1015.0}, "geometry": {"type": "LineString", "coordinates": [[7.3676, 51.12], [7.38, 51.1009], [7.3991, 51.12], [7.3933, 51.14], [7.38, 51.1421], [7.3711, 51.14], [7.3676, 51.12]]}}, {"type": "Feature", "properties": {"level": 1015.0}, "geometry": {"type": "LineString", "coordinates": [[7.573, 51.14], [7.58, 51.1285], [7.6, 51.1245], [7.6083, 51.14], [7.6, 51.1518], [7.5958, 51.16], [7.6, 51.1662], [7.6082, 51.18], [7.6186, 51.2], [7.6, 51.2134], [7.5843, 51.22], [7.5842, 51.24], [7.58, 51.2465], [7.5758, 51.26], [7.56, 51.2701], [7.5471, 51.28], [7.5495, 51.3], [7.54, 51.307], [7.52, 51.3105], [7.5134, 51.3], [7.5, 51.2868], [7.4912, 51.28], [7.4916, 51.26], [7.4904, 51.24], [7.5, 51.2289], [7.5079, 51.22], [7.52, 51.2083], [7.5281, 51.2], [7.5252, 51.18], [7.54, 51.1681], [7.5514, 51.16], [7.56, 51.1483], [7.573, 51.14]]}}, {"type": "Feature", "properties": {"level": 1015.0}, "geometry": {"type": "LineString", "coordinates": [[8.14, 51.1359], [8.1356, 51.14], [8.14, 51.1422], [8.16, 51.1409], [8.1618, 51.14], [8.16, 51.1382], [8.14, 51.1359]]}}, {"type": "Feature", "properties": {"level": 1015.0}, "geometry": {"type": "LineString", "coordinates": [[8.08, 51.1973], [8.0716, 51.2], [8.08, 51.2059], [8.0909, 51.2], [8.08, 51.1973]]}}, {"type": "Feature", "properties": {"level": 1015.0}, "geometry": {"type": "LineString", "coordinates": [[7.56, 51.2186], [7.5579, 51.22], [7.5579, 51.24], [7.56, 51.2431], [7.5718, 51.24], [7.5713, 51.22], [7.56, 51.2186]]}}, {"type": "Feature", "properties": {"level": 1015.0}, "geometry": {"type": "LineString", "coordinates": [[8.0, 51.2132], [7.9882, 51.22], [7.98, 51.2282], [7.9707, 51.24], [7.9666, 51.26], [7.98, 51.2753], [8.0, 51.2681], [8.02, 51.2718], [8.04, 51.2767], [8.055, 51.26], [8.06, 51.2545], [8.0684, 51.24], [8.06, 51.2261], [8.0522, 51.22], [8.04, 51.2129], [8.02, 51.2047], [8.0, 51.2132]]}}, {"type": "Feature", "properties": {"level": 1015.0}, "geometry": {"type": "LineString", "coordinates": [[7.84, 51.2572], [7.8366, 51.26], [7.84, 51.2697], [7.86, 51.2654], [7.88, 51.2796], [7.9, 51.2796], [7.915, 51.26], [7.9, 51.2543], [7.88, 51.2556], [7.86, 51.2592], [7.84, 51.2572]]}}, {"type": "Feature", "properties": {"level": 1015.0}, "geometry": {"type": "LineString", "coordinates": [[8.04, 51.3582], [8.0386, 51.36], [8.04, 51.3625], [8.06, 51.3646], [8.0618, 51.36], [8.06, 51.3572], [8.04, 51.3582]]}}, {"type": "Feature", "properties": {"level": 1015.0}, "geometry": {"type": "LineString", "coordinates": [[8.5, 51.5586], [8.4881, 51.54], [8.48, 51.5304], [8.46, 51.5221], [8.4421, 51.54], [8.44, 51.5411], [8.4353, 51.54], [8.42, 51.5333], [8.4, 51.5274], [8.38, 51.5244], [8.36, 51.5341], [8.34, 51.5373], [8.32, 51.5335], [8.3, 51.5373], [8.28, 51.5323], [8.26, 51.5311], [8.24, 51.5311], [8.22, 51.5326], [8.2, 51.5267], [8.18, 51.5267], [8.1719, 51.52], [8.16, 51.5125], [8.1464, 51.5], [8.14, 51.492], [8.126, 51.48], [8.126, 51.46], [8.14, 51.4413], [8.1413, 51.44], [8.14, 51.439], [8.12, 51.4393], [8.1, 51.4373], [8.08, 51.4336], [8.0739, 51.44], [8.06, 51.4516], [8.04, 51.4591], [8.02, 51.4596], [8.0195, 51.46], [8.0, 51.4711], [7.9817, 51.48], [7.98, 51.4814], [7.96, 51.4823], [7.94, 51.4837], [7.9302, 51.48], [7.92, 51.4717], [7.9059, 51.46], [7.92, 51.4508], [7.9278, 51.44], [7.94, 51.4233], [7.9426, 51.42], [7.94, 51.4148], [7.9308, 51.4], [7.92, 51.3844], [7.9, 51.3835], [7.88, 51.3824], [7.86, 51.3901], [7.8592, 51.38], [7.8528, 51.36], [7.8428, 51.34], [7.84, 51.3377], [7.8252, 51.32], [7.82, 51.3109], [7.8083, 51.3], [7.8, 51.286], [7.794, 51.28], [7.78, 51.2746], [7.76, 51.2763], [7.755, 51.28], [7.74, 51.2935], [7.7323, 51.3], [7.72, 51.3099], [7.7028, 51.32], [7.7, 51.3216], [7.6866, 51.32], [7.68, 51.3184], [7.6784, 51.32], [7.66, 51.3283], [7.64, 51.3391], [7.62, 51.3377], [7.6173, 51.32], [7.62, 51.3162], [7.632, 51.3], [7.64, 51.2831], [7.6421, 51.28], [7.6414, 51.26], [7.64, 51.2532], [7.6321, 51.24], [7.64, 51.227], [7.654, 51.22], [7.6572, 51.2], [7.66, 51.1984], [7.68, 51.1947], [7.7, 51.1891], [7.72, 51.185], [7.74, 51.1881], [7.7448, 51.18], [7.76, 51.1653], [7.7749, 51.16], [7.78, 51.1568], [7.792, 51.16], [7.8, 51.1615], [7.803, 51.16], [7.82, 51.1456], [7.8266, 51.14], [7.82, 51.1337], [7.8, 51.1275], [7.7867, 51.12], [7.78, 51.116], [7.76, 51.1121], [7.74, 51.1135], [7.72, 51.1055], [7.7, 51.106], [7.68, 51.1101], [7.66, 51.1085], [7.64, 51.1082], [7.62, 51.1165], [7.6, 51.1161], [7.5872, 51.1], [7.6, 51.0927], [7.6158, 51.08], [7.6046, 51.06], [7.6, 51.0554], [7.587, 51.04], [7.58, 51.0347], [7.5643, 51.02], [7.56, 51.0153], [7.54, 51.0106], [7.52, 51.0085], [7.5, 51.0076], [7.48, 51.0072], [7.4644, 51.02], [7.46, 51.028], [7.44, 51.0346], [7.4339, 51.02], [7.42, 51.0036], [7.4164, 51.0], [7.4, 50.9816], [7.38, 50.9806], [7.3768, 50.98], [7.38, 50.9794], [7.4, 50.9789], [7.42, 50.9777], [7.44, 50.9799], [7.46, 50.969], [7.478, 50.96], [7.48, 50.9583], [7.5, 50.9548], [7.52, 50.9436], [7.5251, 50.94], [7.54, 50.9254], [7.56, 50.9224], [7.58, 50.9272], [7.6, 50.9259], [7.62, 50.9307], [7.64, 50.9326], [7.66, 50.938], [7.68, 50.9396], [7.7, 50.9397], [7.72, 50.9376], [7.74, 50.9376], [7.7583, 50.92], [7.76, 50.9104], [7.761, 50.9], [7.76, 50.8989], [7.7455, 50.88], [7.74, 50.8752], [7.72, 50.8718], [7.7118, 50.88], [7.7, 50.888], [7.6889, 50.88], [7.68, 50.8688], [7.6729, 50.86], [7.66, 50.8483], [7.6455, 50.84], [7.64, 50.8343], [7.62, 50.8308], [7.6, 50.8294], [7.58, 50.8282], [7.5736, 50.82], [7.56, 50.8071], [7.5402, 50.8], [7.551, 50.78], [7.56, 50.7734], [7.58, 50.7665], [7.6, 50.7631], [7.6033, 50.76], [7.6045, 50.74], [7.62, 50.7281], [7.64, 50.7272], [7.66, 50.7249], [7.669, 50.72], [7.66, 50.7163], [7.64, 50.716], [7.62, 50.7099], [7.6, 50.7073], [7.5875, 50.7], [7.58, 50.6953], [7.56, 50.6892], [7.54, 50.6882], [7.5317, 50.68], [7.5228, 50.66], [7.52, 50.6572], [7.5033, 50.64], [7.5, 50.6301], [7.4971, 50.64], [7.48, 50.6578], [7.46, 50.6582], [7.44, 50.6532], [7.42, 50.6543], [7.4, 50.6515], [7.3897, 50.64], [7.4, 50.6265], [7.4041, 50.62], [7.4, 50.6063], [7.38, 50.6035], [7.3791, 50.6], [7.38, 50.5991], [7.4, 50.598], [7.4063, 50.6], [7.42, 50.6041], [7.44, 50.6125], [7.46, 50.6146], [7.48, 50.6165], [7.5, 50.6185], [7.52, 50.6191], [7.5272, 50.62], [7.54, 50.6253], [7.56, 50.6277], [7.569, 50.62], [7.58, 50.6174], [7.5994, 50.6], [7.6, 50.5975], [7.62, 50.5949], [7.6256, 50.6], [7.62, 50.6023], [7.6024, 50.62], [7.6, 50.6227], [7.58, 50.638], [7.5784, 50.64], [7.58, 50.6416], [7.6, 50.6522], [7.62, 50.6554], [7.6324, 50.66], [7.64, 50.6668], [7.6563, 50.68], [7.66, 50.6837], [7.68, 50.6924], [7.6924, 50.68], [7.7, 50.678], [7.7139, 50.66], [7.72, 50.6569], [7.74, 50.6479], [7.76, 50.6585], [7.7624, 50.66], [7.78, 50.6718], [7.8, 50.6744], [7.82, 50.6734], [7.84, 50.6744], [7.8472, 50.66], [7.854, 50.64], [7.86, 50.6316], [7.8708, 50.62], [7.88, 50.6118], [7.9, 50.6042], [7.92, 50.6048], [7.9291, 50.6], [7.94, 50.5963], [7.9487, 50.6], [7.96, 50.6098], [7.9798, 50.6], [7.98, 50.5999], [7.9805, 50.6], [8.0, 50.6051], [8.02, 50.6116], [8.04, 50.6116], [8.0422, 50.62], [8.055, 50.64], [8.06, 50.6471], [8.0679, 50.64], [8.08, 50.6371], [8.0959, 50.64], [8.1, 50.6406], [8.1066, 50.64], [8.12, 50.6382], [8.1244, 50.64], [8.14, 50.6581], [8.1409, 50.66], [8.16, 50.6765], [8.18, 50.6727], [8.1937, 50.66], [8.18, 50.6516], [8.1697, 50.64], [8.1669, 50.62], [8.16, 50.6026], [8.1581, 50.6], [8.1581, 50.58], [8.16, 50.5782], [8.1798, 50.56], [8.18, 50.5573], [8.1819, 50.54], [8.1904, 50.52], [8.2, 50.5124], [8.207, 50.5]]}}, {"type": "Feature", "properties": {"level": 1015.0}, "geometry": {"type": "LineString", "coordinates": [[8.5, 52.2065], [8.48, 52.2089], [8.46, 52.209], [8.44, 52.2104], [8.42, 52.2098], [8.4069, 52.22], [8.4, 52.2247], [8.38, 52.2225], [8.3749, 52.22], [8.36, 52.2051], [8.3581, 52.2], [8.34, 52.1821], [8.3349, 52.18], [8.34, 52.1752], [8.36, 52.1758], [8.3627, 52.18], [8.38, 52.1975], [8.4, 52.1954], [8.42, 52.1889], [8.44, 52.1832], [8.4424, 52.18], [8.46, 52.1702], [8.48, 52.1675], [8.5, 52.1681]]}}, {"type": "Feature", "properties": {"level": 1015.0}, "geometry": {"type": "LineString", "coordinates": [[8.5, 53.8741], [8.48, 53.8677], [8.4655, 53.86], [8.46, 53.8571], [8.44, 53.8571], [8.42, 53.8538], [8.4, 53.8471], [8.3845, 53.84], [8.38, 53.8373], [8.36, 53.8356], [8.3451, 53.82], [8.34, 53.8149], [8.3307, 53.8], [8.32, 53.7846], [8.3154, 53.78], [8.3092, 53.76], [8.304, 53.74], [8.3, 53.7366], [8.2901, 53.72], [8.28, 53.7067], [8.2706, 53.7], [8.2706, 53.68], [8.26, 53.6726], [8.2529, 53.66], [8.2429, 53.64], [8.24, 53.62], [8.24, 53.62], [8.233, 53.6], [8.22, 53.5889], [8.214, 53.58], [8.22, 53.5675], [8.2233, 53.56], [8.22, 53.5542], [8.2023, 53.54], [8.2, 53.5327], [8.18, 53.5247], [8.1736, 53.52], [8.18, 53.5109], [8.2, 53.5109], [8.2045, 53.5], [8.22, 53.4902], [8.2367, 53.48], [8.24, 53.4757], [8.2506, 53.46], [8.26, 53.4458], [8.2656, 53.44], [8.26, 53.438], [8.24, 53.4336], [8.22, 53.4236], [8.2164, 53.42], [8.2, 53.4096], [8.1897, 53.4], [8.18, 53.3859], [8.1702, 53.38], [8.18, 53.3702], [8.1846, 53.36], [8.18, 53.3513], [8.16, 53.3517], [8.1531, 53.34], [8.16, 53.3293], [8.1686, 53.32], [8.16, 53.3107], [8.15, 53.3], [8.1494, 53.28], [8.1491, 53.26], [8.16, 53.2409], [8.1609, 53.24], [8.16, 53.2387], [8.1511, 53.22], [8.1502, 53.2], [8.16, 53.1837], [8.1623, 53.18], [8.18, 53.1623], [8.1816, 53.16], [8.18, 53.1493], [8.16, 53.1435], [8.1584, 53.14], [8.16, 53.1368], [8.176, 53.12], [8.18, 53.1164], [8.1933, 53.1], [8.2, 53.088], [8.22, 53.0872], [8.24, 53.0809], [8.2409, 53.08], [8.2421, 53.06], [8.26, 53.0541], [8.28, 53.0518], [8.3, 53.043], [8.32, 53.0418], [8.34, 53.0418], [8.341, 53.04], [8.34, 53.0334], [8.3338, 53.02], [8.34, 53.0172], [8.3482, 53.0], [8.3499, 52.98], [8.36, 52.9677], [8.369, 52.96], [8.38, 52.9413], [8.3805, 52.94], [8.38, 52.9372], [8.36, 52.9261], [8.3571, 52.92], [8.36, 52.9115], [8.3676, 52.9], [8.3627, 52.88], [8.36, 52.8758], [8.3454, 52.86], [8.34, 52.8424], [8.32, 52.8424], [8.3194, 52.84], [8.32, 52.8395], [8.34, 52.8389], [8.36, 52.831], [8.3655, 52.82], [8.36, 52.8108], [8.3538, 52.8], [8.3515, 52.78], [8.36, 52.7766], [8.3728, 52.78], [8.38, 52.7882], [8.4, 52.7864], [8.42, 52.784], [8.44, 52.7922], [8.4503, 52.8], [8.46, 52.806], [8.4748, 52.82], [8.48, 52.8298], [8.4904, 52.84], [8.5, 52.8442]]}}]}