{"type": "FeatureCollection", "features": [{"type": "Feature", "properties": {"level": 1005.0}, "geometry": {"type": "LineString", "coordinates": [[8.5, 53.2433], [8.48, 53.246], [8.46, 53.2445], [8.44, 53.2474], [8.42, 53.2522], [8.4, 53.2534], [8.38, 53.2597], [8.36, 53.253], [8.3432, 53.26], [8.34, 53.2611], [8.32, 53.2612], [8.3161, 53.26], [8.3, 53.2563], [8.2867, 53.26], [8.28, 53.2627], [8.2714, 53.26], [8.26, 53.2574], [8.2511, 53.26], [8.24, 53.2711], [8.22, 53.2748], [8.2, 53.276], [8.1873, 53.28], [8.18, 53.2808], [8.16, 53.2812], [8.14, 53.2869], [8.12, 53.2849], [8.1, 53.2835], [8.08, 53.2916], [8.06, 53.288], [8.04, 53.2896], [8.02, 53.2902], [8.0, 53.2904], [7.98, 53.2946], [7.96, 53.2949], [7.94, 53.2954], [7.92, 53.2934], [7.9156, 53.3], [7.9, 53.3119], [7.88, 53.3153], [7.86, 53.3102], [7.84, 53.3164], [7.82, 53.3108], [7.8, 53.3131], [7.78, 53.3171], [7.76, 53.314], [7.74, 53.3186], [7.72, 53.3186], [7.7131, 53.32], [7.7, 53.3218], [7.68, 53.322], [7.6748, 53.32], [7.66, 53.3158], [7.64, 53.3189], [7.62, 53.3193], [7.6, 53.3157], [7.58, 53.3131], [7.56, 53.3113], [7.5455, 53.32], [7.54, 53.3255], [7.52, 53.3233], [7.5117, 53.32], [7.5, 53.3107], [7.4861, 53.3], [7.48, 53.2979], [7.4765, 53.3], [7.46, 53.3112], [7.44, 53.3112], [7.42, 53.3176], [7.4, 53.312], [7.38, 53.3137], [7.3614, 53.32], [7.36, 53.3206], [7.3579, 53.32], [7.34, 53.3169], [7.3304, 53.32], [7.32, 53.3243], [7.3, 53.3225], [7.28, 53.3304], [7.26, 53.3385], [7.24, 53.3385], [7.2377, 53.34], [7.22, 53.3536], [7.2035, 53.36], [7.2, 53.3608], [7.18, 53.3612], [7.16, 53.3684], [7.14, 53.3679], [7.12, 53.3656], [7.1, 53.3711], [7.08, 53.3711], [7.06, 53.3713], [7.04, 53.3742], [7.02, 53.3742], [7.0, 53.379], [6.98, 53.3786], [6.96, 53.3737], [6.94, 53.3696], [6.92, 53.3705], [6.9, 53.3755], [6.8939, 53.38], [6.88, 53.3906], [6.86, 53.3928], [6.84, 53.3946], [6.82, 53.3966], [6.8103, 53.4], [6.8, 53.4044], [6.78, 53.4034], [6.76, 53.4083], [6.74, 53.4082], [6.72, 53.4082], [6.7, 53.4149], [6.68, 53.4128], [6.66, 53.4125], [6.64, 53.4167], [6.62, 53.416], [6.6034, 53.42], [6.6, 53.4214], [6.5855, 53.44], [6.58, 53.4435], [6.56, 53.4495], [6.54, 53.4526], [6.52, 53.4511], [6.5, 53.4439], [6.4967, 53.44], [6.5, 53.4269], [6.5038, 53.42], [6.5, 53.4149], [6.4916, 53.4], [6.48, 53.3892], [6.4617, 53.38], [6.46, 53.3788], [6.44, 53.3786], [6.42, 53.3783], [6.4083, 53.38], [6.4, 53.3819], [6.3805, 53.4], [6.38, 53.4002], [6.36, 53.4004], [6.34, 53.4063], [6.3244, 53.4], [6.32, 53.3977], [6.3, 53.3928], [6.28, 53.3846], [6.26, 53.3871], [6.24, 53.3857], [6.22, 53.3847], [6.2005, 53.4], [6.2, 53.4001], [6.18, 53.4002], [6.1796, 53.4], [6.1672, 53.38], [6.16, 53.3791], [6.14, 53.3735], [6.12, 53.3637], [6.1, 53.3621], [6.0966, 53.36], [6.08, 53.3514], [6.06, 53.3522], [6.04, 53.3511], [6.02, 53.3481], [6.0, 53.3569], [5.98, 53.3569], [5.96, 53.3549], [5.9411, 53.36], [5.94, 53.3603], [5.9387, 53.36], [5.92, 53.3554], [5.9, 53.3585], [5.88, 53.3585], [5.8756, 53.36], [5.86, 53.3664], [5.8482, 53.38], [5.84, 53.3893], [5.8308, 53.4], [5.82, 53.4058], [5.8, 53.4136], [5.78, 53.4169], [5.7748, 53.42], [5.76, 53.4245], [5.7433, 53.42], [5.74, 53.4181], [5.72, 53.4189], [5.7, 53.4189], [5.68, 53.4064], [5.6669, 53.4], [5.66, 53.3962], [5.64, 53.39], [5.62, 53.3863], [5.6, 53.3883], [5.58, 53.3859], [5.56, 53.3887], [5.54, 53.3914], [5.52, 53.389], [5.5027, 53.4], [5.5, 53.4011], [5.48, 53.4018], [5.4721, 53.4], [5.46, 53.3975], [5.4453, 53.4], [5.44, 53.4007], [5.42, 53.4007], [5.4179, 53.4], [5.4, 53.3934], [5.38, 53.3881], [5.36, 53.3833], [5.3534, 53.38], [5.34, 53.3734], [5.32, 53.371], [5.3, 53.3719], [5.28, 53.3682], [5.26, 53.3625], [5.24, 53.3645], [5.2278, 53.36], [5.22, 53.3571], [5.2099, 53.36], [5.2, 53.3643], [5.18, 53.3672], [5.16, 53.3777], [5.1554, 53.38], [5.14, 53.3848], [5.1222, 53.4], [5.12, 53.4014], [5.1054, 53.4], [5.1, 53.3975], [5.08, 53.3833], [5.06, 53.3809], [5.0565, 53.38], [5.04, 53.3704], [5.02, 53.378], [5.0129, 53.38], [5.0, 53.3844], [4.9813, 53.38], [4.98, 53.3797], [4.96, 53.3797], [4.9592, 53.38], [4.9494, 53.4], [4.94, 53.4061], [4.92, 53.4123], [4.9, 53.4154], [4.88, 53.4129], [4.86, 53.4173], [4.84, 53.4177], [4.8328, 53.42], [4.82, 53.4252], [4.8052, 53.44], [4.8, 53.4433], [4.78, 53.4443], [4.76, 53.4427], [4.7554, 53.44], [4.74, 53.432], [4.72, 53.4207], [4.7, 53.4204], [4.6992, 53.42], [4.68, 53.4106], [4.6694, 53.4], [4.66, 53.3975], [4.6446, 53.4], [4.6446, 53.42], [4.64, 53.4217], [4.6275, 53.42], [4.62, 53.4125], [4.6, 53.419], [4.5992, 53.42], [4.6, 53.4218], [4.6139, 53.44], [4.6, 53.4538], [4.58, 53.4522], [4.5721, 53.46], [4.56, 53.4645], [4.54, 53.4662], [4.52, 53.4607], [4.5, 53.4653], [4.4845, 53.46], [4.48, 53.4585], [4.4601, 53.46], [4.46, 53.46], [4.44, 53.46], [4.44, 53.46], [4.42, 53.4547], [4.4, 53.4503], [4.38, 53.4487], [4.36, 53.45], [4.34, 53.4506], [4.32, 53.4556], [4.3, 53.455], [4.2965, 53.46], [4.28, 53.4752], [4.2698, 53.48], [4.26, 53.4841], [4.24, 53.4831], [4.22, 53.4824], [4.2, 53.4907], [4.18, 53.4907], [4.16, 53.4934], [4.1429, 53.5], [4.14, 53.5019], [4.1265, 53.5], [4.12, 53.4994], [4.118, 53.5], [4.1, 53.5101], [4.08, 53.52], [4.08, 53.52], [4.06, 53.5202], [4.04, 53.5352], [4.0352, 53.54], [4.02, 53.5436], [4.0007, 53.54], [4.0, 53.5393], [3.98, 53.5393], [3.96, 53.5285], [3.94, 53.5231], [3.9231, 53.54], [3.92, 53.5408], [3.9177, 53.54], [3.9, 53.5349], [3.8903, 53.54], [3.88, 53.5491], [3.8706, 53.56], [3.86, 53.5663], [3.84, 53.5747], [3.82, 53.5747], [3.8, 53.5763], [3.78, 53.571], [3.76, 53.5673], [3.7466, 53.56], [3.74, 53.5577], [3.7301, 53.56], [3.72, 53.5646], [3.7, 53.5715], [3.68, 53.5728], [3.6737, 53.58], [3.68, 53.5863], [3.6861, 53.6], [3.68, 53.6044], [3.66, 53.6083], [3.64, 53.6096], [3.62, 53.6127], [3.6, 53.607], [3.58, 53.6061], [3.56, 53.609], [3.54, 53.6096], [3.52, 53.6115], [3.5, 53.6116], [3.4865, 53.62], [3.48, 53.6259], [3.46, 53.6324], [3.44, 53.632], [3.42, 53.6312], [3.4, 53.638], [3.38, 53.634], [3.363, 53.64], [3.36, 53.641], [3.34, 53.6434], [3.3244, 53.64], [3.32, 53.6397], [3.3, 53.6394], [3.28, 53.636], [3.2685, 53.64], [3.26, 53.6485], [3.25, 53.66], [3.24, 53.6712], [3.22, 53.667], [3.2, 53.6708], [3.18, 53.6776], [3.16, 53.6734], [3.1416, 53.68], [3.14, 53.6805], [3.1371, 53.68], [3.12, 53.6758], [3.1, 53.6768], [3.0933, 53.68], [3.08, 53.6857], [3.06, 53.6866], [3.04, 53.69], [3.02, 53.6962], [3.0, 53.6977], [2.9935, 53.7], [2.98, 53.7041], [2.96, 53.7052], [2.94, 53.701], [2.92, 53.7081], [2.9032, 53.72], [2.9, 53.7234], [2.88, 53.7223], [2.86, 53.7208], [2.84, 53.7208], [2.82, 53.7267], [2.8, 53.7254], [2.78, 53.7241], [2.76, 53.7265], [2.74, 53.7269], [2.72, 53.7306], [2.7, 53.7312], [2.68, 53.7277], [2.66, 53.7325], [2.64, 53.7293], [2.62, 53.7324], [2.6, 53.737], [2.58, 53.7362], [2.5699, 53.74], [2.56, 53.7438], [2.54, 53.7422], [2.52, 53.7422], [2.5, 53.748]]}}, {"type": "Feature", "properties": {"level": 1010.0}, "geometry": {"type": "LineString", "coordinates": [[8.32, 51.3555], [8.3062, 51.36], [8.32, 51.3686], [8.338, 51.36], [8.32, 51.3555]]}}, {"type": "Feature", "properties": {"level": 1010.0}, "geometry": {"type": "LineString", "coordinates": [[8.3722, 51.4], [8.38, 51.3897], [8.3849, 51.4], [8.38, 51.4035], [8.3722, 51.4]]}}, {"type": "Feature", "properties": {"level": 1010.0}, "geometry": {"type": "LineString", "coordinates": [[8.5, 51.3916], [8.48, 51.3967], [8.4654, 51.4], [8.46, 51.4007], [8.4592, 51.4], [8.4498, 51.38], [8.44, 51.3693], [8.4322, 51.36], [8.42, 51.3482], [8.4, 51.3444], [8.38, 51.3542], [8.3619, 51.36], [8.36, 51.3623], [8.3482, 51.38], [8.3524, 51.4], [8.34, 51.4164], [8.32, 51.4164], [8.3, 51.417], [8.2928, 51.42], [8.28, 51.4266], [8.26, 51.4248], [8.2492, 51.44], [8.24, 51.4456], [8.22, 51.4481], [8.2, 51.4492], [8.18, 51.4528], [8.16, 51.449], [8.14, 51.4531], [8.12, 51.4571], [8.1153, 51.46], [8.1, 51.4702], [8.08, 51.4777], [8.06, 51.4721], [8.04, 51.4743], [8.0294, 51.48], [8.02, 51.4849], [8.0042, 51.48], [8.0, 51.478], [7.98, 51.4719], [7.96, 51.4723], [7.9459, 51.48], [7.94, 51.482], [7.9361, 51.48], [7.92, 51.4612], [7.9, 51.4736], [7.88, 51.4712], [7.86, 51.4704], [7.8403, 51.46], [7.84, 51.4599], [7.8388, 51.46], [7.82, 51.4632], [7.8, 51.4637], [7.7931, 51.46], [7.78, 51.4555], [7.76, 51.4464], [7.7442, 51.46], [7.74, 51.4667], [7.7241, 51.48], [7.72, 51.4823], [7.7, 51.4824], [7.68, 51.4877], [7.6647, 51.5], [7.66, 51.5012], [7.657, 51.5], [7.64, 51.4875], [7.62, 51.4861], [7.6, 51.4836], [7.58, 51.4906], [7.56, 51.4837], [7.54, 51.4871], [7.52, 51.4812], [7.5, 51.4827], [7.48, 51.4805], [7.46, 51.4867], [7.44, 51.4887], [7.42, 51.4913], [7.4083, 51.5], [7.4, 51.5057], [7.38, 51.5055], [7.36, 51.5078], [7.34, 51.5045], [7.32, 51.5044], [7.3, 51.5191], [7.28, 51.5091], [7.2671, 51.52], [7.26, 51.5231], [7.24, 51.5231], [7.2286, 51.52], [7.22, 51.5173], [7.2, 51.5163], [7.18, 51.5127], [7.16, 51.5143], [7.14, 51.515], [7.12, 51.5134], [7.1, 51.5104], [7.08, 51.5189], [7.06, 51.5187], [7.04, 51.5194], [7.0394, 51.52], [7.04, 51.5395], [7.06, 51.5395], [7.06, 51.54], [7.06, 51.54], [7.04, 51.54], [7.02, 51.5511], [7.0045, 51.56], [7.0, 51.5627], [6.9849, 51.56], [6.98, 51.5593], [6.9784, 51.56], [6.96, 51.5681], [6.94, 51.5643], [6.92, 51.573], [6.9, 51.5755], [6.88, 51.5754], [6.8673, 51.58], [6.86, 51.5848], [6.84, 51.5994], [6.82, 51.5994], [6.8187, 51.6], [6.8, 51.6048], [6.78, 51.6033], [6.76, 51.6029], [6.7547, 51.6], [6.74, 51.5918], [6.72, 51.5891], [6.7, 51.5939], [6.68, 51.5905], [6.66, 51.588], [6.64, 51.5885], [6.62, 51.5828], [6.6, 51.5828], [6.58, 51.587], [6.5614, 51.58], [6.56, 51.5796], [6.558, 51.58], [6.54, 51.584], [6.5305, 51.58], [6.52, 51.5765], [6.5015, 51.58], [6.5, 51.5804], [6.48, 51.5805], [6.46, 51.5841], [6.44, 51.584], [6.42, 51.5978], [6.4135, 51.6], [6.4, 51.6017], [6.38, 51.6025], [6.36, 51.6085], [6.34, 51.6099], [6.32, 51.6062], [6.3, 51.6154], [6.28, 51.6104], [6.26, 51.613], [6.24, 51.6157], [6.22, 51.6134], [6.2, 51.6178], [6.18, 51.6145], [6.16, 51.6198], [6.14, 51.6198], [6.12, 51.6184], [6.1, 51.6171], [6.08, 51.6114], [6.06, 51.6121], [6.04, 51.6143], [6.02, 51.6143], [6.0094, 51.62], [6.0, 51.6253], [5.98, 51.626], [5.96, 51.6251], [5.94, 51.6281], [5.92, 51.6326], [5.9, 51.6332], [5.88, 51.6391], [5.86, 51.6333], [5.8455, 51.64], [5.84, 51.642], [5.82, 51.6432], [5.8022, 51.64], [5.8, 51.6398], [5.7991, 51.64], [5.78, 51.6483], [5.76, 51.6425], [5.74, 51.6447], [5.7263, 51.64], [5.72, 51.6379], [5.7097, 51.64], [5.7, 51.643], [5.68, 51.6423], [5.66, 51.6406], [5.64, 51.6415], [5.6385, 51.64], [5.62, 51.6351], [5.6015, 51.64], [5.6015, 51.66], [5.6, 51.6604], [5.5986, 51.66], [5.58, 51.6414], [5.5761, 51.64], [5.56, 51.6379], [5.54, 51.6374], [5.5367, 51.64], [5.52, 51.6519], [5.5, 51.6511], [5.48, 51.6497], [5.46, 51.6536], [5.44, 51.6492], [5.42, 51.6523], [5.4, 51.6484], [5.38, 51.6502], [5.36, 51.6502], [5.34, 51.6492], [5.32, 51.6438], [5.3, 51.6446], [5.2818, 51.64], [5.28, 51.6394], [5.2783, 51.64], [5.26, 51.6438], [5.246, 51.64], [5.24, 51.6373], [5.22, 51.6377], [5.2, 51.6384], [5.18, 51.6315], [5.16, 51.6295], [5.14, 51.6298], [5.12, 51.6273], [5.1, 51.6273], [5.08, 51.6316], [5.06, 51.6272], [5.04, 51.6293], [5.02, 51.6294], [5.0, 51.6335], [4.98, 51.6351], [4.96, 51.6349], [4.94, 51.6371], [4.92, 51.6354], [4.9, 51.6376], [4.8965, 51.64], [4.88, 51.6565], [4.86, 51.6497], [4.84, 51.6573], [4.82, 51.6532], [4.8, 51.654], [4.78, 51.6552], [4.76, 51.6556], [4.748, 51.66], [4.74, 51.6624], [4.7299, 51.66], [4.72, 51.6577], [4.7117, 51.66], [4.7, 51.6634], [4.6855, 51.66], [4.68, 51.6583], [4.6749, 51.66], [4.66, 51.665], [4.64, 51.6648], [4.624, 51.66], [4.62, 51.6589], [4.6164, 51.66], [4.6, 51.6652], [4.58, 51.6602], [4.56, 51.6639], [4.5456, 51.66], [4.54, 51.6582], [4.5297, 51.66], [4.52, 51.6624], [4.5, 51.6621], [4.48, 51.6605], [4.46, 51.6605], [4.4578, 51.66], [4.44, 51.6572], [4.4287, 51.66], [4.42, 51.6709], [4.4, 51.6709], [4.38, 51.6714], [4.36, 51.6747], [4.34, 51.6768], [4.3331, 51.68], [4.32, 51.6825], [4.3, 51.685], [4.28, 51.691], [4.26, 51.696], [4.24, 51.6961], [4.2284, 51.7], [4.22, 51.703], [4.2008, 51.7], [4.2, 51.6998], [4.1998, 51.7], [4.18, 51.7092], [4.16, 51.7101], [4.14, 51.7087], [4.12, 51.7152], [4.1, 51.7135], [4.08, 51.7134], [4.0651, 51.72], [4.06, 51.7251], [4.0427, 51.74], [4.04, 51.7422], [4.02, 51.7423], [4.0, 51.7453], [3.98, 51.7486], [3.96, 51.7524], [3.94, 51.7583], [3.92, 51.756], [3.9098, 51.76], [3.9, 51.7629], [3.8868, 51.76], [3.88, 51.7574], [3.8747, 51.76], [3.86, 51.7655], [3.84, 51.7702], [3.82, 51.7694], [3.8009, 51.78], [3.8, 51.7806], [3.78, 51.7817], [3.7783, 51.78], [3.76, 51.7773], [3.7536, 51.78], [3.74, 51.7936], [3.7297, 51.8], [3.72, 51.8041], [3.7, 51.8033], [3.68, 51.8075], [3.66, 51.8099], [3.64, 51.8126], [3.6215, 51.82], [3.62, 51.8206], [3.6148, 51.82], [3.6, 51.8185], [3.596, 51.82], [3.58, 51.8269], [3.56, 51.8289], [3.54, 51.8329], [3.5206, 51.84], [3.52, 51.8403], [3.5, 51.8404], [3.48, 51.8473], [3.46, 51.8509], [3.44, 51.8485], [3.4285, 51.86], [3.42, 51.8672], [3.4001, 51.88], [3.4, 51.88], [3.3998, 51.88], [3.38, 51.8769], [3.36, 51.8781], [3.3541, 51.88], [3.34, 51.8896], [3.32, 51.8896], [3.3, 51.8937], [3.2856, 51.9], [3.28, 51.9022], [3.26, 51.9025], [3.24, 51.9103], [3.22, 51.9192], [3.2, 51.9196], [3.1989, 51.92], [3.18, 51.9345], [3.1726, 51.94], [3.16, 51.944], [3.14, 51.946], [3.12, 51.9506], [3.1, 51.959], [3.08, 51.9554], [3.0732, 51.96], [3.06, 51.9649], [3.04, 51.9651], [3.02, 51.9651], [3.0, 51.9773], [2.98, 51.9767], [2.96, 51.9764], [2.9513, 51.98], [2.94, 51.9845], [2.92, 51.985], [2.9, 51.9916], [2.88, 51.995], [2.86, 51.9965], [2.847, 52.0], [2.84, 52.0044], [2.82, 52.0148], [2.8, 52.0193], [2.7984, 52.02], [2.78, 52.0269], [2.76, 52.0287], [2.74, 52.0267], [2.72, 52.0369], [2.7, 52.0369], [2.68, 52.0356], [2.6676, 52.04], [2.66, 52.0428], [2.64, 52.041], [2.62, 52.0482], [2.6, 52.052], [2.58, 52.0555], [2.5615, 52.06], [2.56, 52.0604], [2.54, 52.0627], [2.52, 52.0747], [2.5129, 52.08], [2.5, 52.0841]]}}]}