{"type": "FeatureCollection", "features": [{"type": "Feature", "properties": {"level": 1015.0}, "geometry": {"type": "LineString", "coordinates": [[4.9591, 53.96], [4.96, 53.957], [4.9622, 53.96], [4.96, 53.9609], [4.9591, 53.96]]}}, {"type": "Feature", "properties": {"level": 1015.0}, "geometry": {"type": "LineString", "coordinates": [[5.0, 53.98], [5.0, 53.9799], [5.0073, 53.96], [5.0, 53.9535], [4.98, 53.9422], [4.977, 53.94], [4.96, 53.9295], [4.94, 53.9212], [4.92, 53.9203], [4.9196, 53.92], [4.9, 53.9061], [4.8916, 53.9], [4.88, 53.8877], [4.8725, 53.88], [4.86, 53.8705], [4.8507, 53.86], [4.84, 53.8421], [4.82, 53.8486], [4.8108, 53.84], [4.8, 53.8248], [4.7972, 53.82], [4.78, 53.8008], [4.7789, 53.8], [4.7647, 53.78], [4.76, 53.7757], [4.74, 53.7612], [4.7386, 53.76], [4.72, 53.7481], [4.7115, 53.74], [4.7, 53.7242], [4.694, 53.72], [4.694, 53.7], [4.6894, 53.68], [4.68, 53.6714], [4.66, 53.667], [4.6488, 53.66], [4.64, 53.6495], [4.6321, 53.64], [4.62, 53.6232], [4.6166, 53.62], [4.6, 53.6034], [4.5973, 53.6], [4.58, 53.5817], [4.5774, 53.58], [4.56, 53.5661], [4.5539, 53.56], [4.54, 53.5514], [4.5227, 53.54], [4.52, 53.5385], [4.5, 53.538], [4.48, 53.5322], [4.46, 53.5227], [4.4554, 53.52], [4.44, 53.5078], [4.4339, 53.5], [4.44, 53.4888], [4.444, 53.48], [4.44, 53.4748], [4.4218, 53.48], [4.42, 53.4807], [4.418, 53.48], [4.4, 53.4672], [4.3928, 53.46], [4.38, 53.4569], [4.3686, 53.46], [4.36, 53.4686], [4.34, 53.469], [4.3284, 53.46], [4.32, 53.4573], [4.3, 53.4541], [4.28, 53.4414], [4.26, 53.4414], [4.2591, 53.44], [4.24, 53.422], [4.2369, 53.42], [4.22, 53.4081], [4.2068, 53.4], [4.2, 53.3968], [4.18, 53.3948], [4.16, 53.3884], [4.1407, 53.38], [4.14, 53.3797], [4.12, 53.3796], [4.1, 53.3697], [4.08, 53.3626], [4.0747, 53.36], [4.06, 53.353], [4.0405, 53.34], [4.04, 53.3394], [4.0206, 53.32], [4.02, 53.3196], [4.0, 53.3106], [3.98, 53.3048], [3.96, 53.3022], [3.9582, 53.3], [3.94, 53.289], [3.9226, 53.28], [3.92, 53.2788], [3.9, 53.2764], [3.88, 53.2764], [3.86, 53.2682], [3.8445, 53.26], [3.84, 53.2574], [3.82, 53.2501], [3.8, 53.2411], [3.7984, 53.24], [3.78, 53.2291], [3.7682, 53.22], [3.76, 53.2136], [3.742, 53.2], [3.74, 53.1976], [3.72, 53.1976], [3.7062, 53.18], [3.7, 53.1758], [3.68, 53.1682], [3.66, 53.163], [3.6544, 53.16], [3.64, 53.152], [3.62, 53.1417], [3.6095, 53.14], [3.6, 53.1383], [3.58, 53.1383], [3.56, 53.1272], [3.5471, 53.12], [3.54, 53.1159], [3.52, 53.1092], [3.5, 53.1043], [3.4921, 53.1], [3.48, 53.0933], [3.46, 53.0858], [3.44, 53.0853], [3.42, 53.0822], [3.4158, 53.08], [3.4, 53.0717], [3.38, 53.0623], [3.36, 53.0611], [3.3579, 53.06], [3.34, 53.0411], [3.32, 53.0411], [3.3189, 53.04], [3.3, 53.0298], [3.281, 53.02], [3.28, 53.0195], [3.26, 53.0189], [3.24, 53.0093], [3.2217, 53.0], [3.22, 52.9991], [3.2, 52.9982], [3.18, 52.9982], [3.16, 52.9889], [3.1418, 52.98], [3.14, 52.9791], [3.12, 52.9782], [3.1, 52.9697], [3.08, 52.9608], [3.06, 52.9608], [3.04, 52.9617], [3.0361, 52.96], [3.02, 52.9533], [3.0, 52.9497], [2.98, 52.9452], [2.9669, 52.94], [2.96, 52.9372], [2.94, 52.9354], [2.92, 52.9369], [2.9, 52.9294], [2.88, 52.9201], [2.86, 52.92], [2.8599, 52.92], [2.84, 52.9008], [2.8391, 52.9], [2.82, 52.8914], [2.8, 52.8834], [2.7834, 52.9], [2.78, 52.9018], [2.7756, 52.9], [2.76, 52.8862], [2.7523, 52.88], [2.74, 52.8754], [2.72, 52.8714], [2.7, 52.8684], [2.6825, 52.86], [2.68, 52.8589], [2.6705, 52.86], [2.66, 52.862], [2.64, 52.8615], [2.6348, 52.86], [2.62, 52.8558], [2.6, 52.8523], [2.58, 52.8486], [2.56, 52.841], [2.54, 52.8429], [2.5329, 52.84], [2.52, 52.8344], [2.5, 52.8371]]}}]}