{"type": "FeatureCollection", "features": [{"type": "Feature", "properties": {"level": 1030.0}, "geometry": {"type": "LineString", "coordinates": [[4.3178, 52.56], [4.32, 52.5537], [4.3288, 52.56], [4.32, 52.5625], [4.3178, 52.56]]}}, {"type": "Feature", "properties": {"level": 1030.0}, "geometry": {"type": "LineString", "coordinates": [[5.922, 53.98], [5.92, 53.978], [5.9059, 53.96], [5.9, 53.9516], [5.88, 53.9437], [5.8728, 53.94], [5.88, 53.9231], [5.8805, 53.92], [5.88, 53.9192], [5.8652, 53.9], [5.86, 53.8929], [5.84, 53.8929], [5.8319, 53.88], [5.82, 53.8662], [5.8109, 53.86], [5.8, 53.8503], [5.7878, 53.84], [5.78, 53.8349], [5.76, 53.8243], [5.74, 53.8243], [5.72, 53.8205], [5.7191, 53.82], [5.7, 53.809], [5.6847, 53.8], [5.68, 53.7975], [5.66, 53.7907], [5.64, 53.7874], [5.6259, 53.78], [5.62, 53.7759], [5.6, 53.7659], [5.5939, 53.76], [5.6, 53.7441], [5.6015, 53.74], [5.6, 53.7383], [5.58, 53.7343], [5.5699, 53.72], [5.56, 53.7053], [5.556, 53.7], [5.54, 53.6811], [5.52, 53.6811], [5.5191, 53.68], [5.52, 53.6776], [5.5223, 53.66], [5.52, 53.657], [5.5, 53.6542], [5.4893, 53.64], [5.48, 53.6307], [5.4726, 53.62], [5.46, 53.6065], [5.4502, 53.6], [5.44, 53.5922], [5.4253, 53.58], [5.42, 53.5756], [5.4, 53.5615], [5.38, 53.5615], [5.3774, 53.56], [5.36, 53.5485], [5.3494, 53.54], [5.34, 53.5295], [5.32, 53.5226], [5.3177, 53.52], [5.32, 53.514], [5.3273, 53.5], [5.32, 53.4913], [5.3076, 53.48], [5.3, 53.4726], [5.2903, 53.46], [5.28, 53.4504], [5.2702, 53.44], [5.26, 53.4338], [5.2454, 53.42], [5.24, 53.4152], [5.22, 53.4135], [5.2049, 53.4], [5.2, 53.3951], [5.1908, 53.38], [5.18, 53.3646], [5.1756, 53.36], [5.1675, 53.34], [5.162, 53.32], [5.16, 53.317], [5.1477, 53.3], [5.14, 53.2948], [5.1278, 53.28], [5.12, 53.267], [5.1154, 53.26], [5.1, 53.2402], [5.0997, 53.24], [5.0901, 53.22], [5.081, 53.2], [5.08, 53.1992], [5.0646, 53.18], [5.06, 53.1718], [5.04, 53.1683], [5.0339, 53.16], [5.02, 53.1461], [5.016, 53.14], [5.02, 53.1254], [5.0229, 53.12], [5.02, 53.1148], [5.0, 53.1148], [4.9873, 53.1], [4.98, 53.093], [4.9612, 53.08], [4.96, 53.0792], [4.94, 53.0696], [4.92, 53.0609], [4.9, 53.062], [4.8922, 53.08], [4.9, 53.0918], [4.903, 53.1], [4.9, 53.1024], [4.8851, 53.12], [4.88, 53.1282], [4.8637, 53.14], [4.86, 53.1423], [4.84, 53.1415], [4.82, 53.1403], [4.8196, 53.14], [4.8, 53.1204], [4.7997, 53.12], [4.78, 53.1039], [4.7756, 53.1], [4.76, 53.0863], [4.7491, 53.08], [4.74, 53.0711], [4.7311, 53.06], [4.72, 53.0497], [4.7139, 53.04], [4.72, 53.0276], [4.7269, 53.02], [4.72, 53.0094], [4.7155, 53.0], [4.7063, 52.98], [4.7, 52.9726], [4.6914, 52.96], [4.68, 52.9429], [4.66, 52.941], [4.659, 52.94], [4.64, 52.9212], [4.6353, 52.92], [4.64, 52.9153], [4.6441, 52.9], [4.64, 52.8958], [4.628, 52.9], [4.62, 52.908], [4.6, 52.9028], [4.5973, 52.9], [4.6, 52.8922], [4.6122, 52.88], [4.6, 52.875], [4.5881, 52.86], [4.58, 52.8482], [4.5694, 52.84], [4.56, 52.8256], [4.5563, 52.82], [4.54, 52.8084], [4.5324, 52.8], [4.52, 52.7821], [4.5186, 52.78], [4.5, 52.7607], [4.499, 52.76], [4.48, 52.7425], [4.4784, 52.74], [4.4662, 52.72], [4.46, 52.7006], [4.44, 52.7001], [4.4399, 52.7], [4.44, 52.6995], [4.4435, 52.68], [4.44, 52.6735], [4.4313, 52.66], [4.42, 52.6454], [4.4125, 52.64], [4.4, 52.6231], [4.3975, 52.62], [4.38, 52.6077], [4.362, 52.6], [4.36, 52.597], [4.348, 52.58], [4.36, 52.568], [4.3629, 52.56], [4.36, 52.5566], [4.34, 52.5488], [4.3337, 52.54], [4.3201, 52.52], [4.32, 52.5199], [4.3, 52.5103], [4.2857, 52.5], [4.28, 52.4915], [4.2725, 52.48], [4.26, 52.4707], [4.2514, 52.46], [4.24, 52.4418], [4.2389, 52.44], [4.24, 52.4252], [4.2404, 52.42], [4.24, 52.4195], [4.22, 52.4186], [4.2014, 52.4], [4.2, 52.3987], [4.18, 52.3804], [4.1796, 52.38], [4.16, 52.3669], [4.1529, 52.36], [4.14, 52.3475], [4.1323, 52.34], [4.12, 52.3223], [4.1177, 52.32], [4.1, 52.3032], [4.08, 52.3023], [4.0775, 52.3], [4.06, 52.2835], [4.0545, 52.28], [4.04, 52.2678], [4.0296, 52.26], [4.02, 52.2533], [4.0, 52.2406], [3.98, 52.2403], [3.9796, 52.24], [3.96, 52.2254], [3.9528, 52.22], [3.94, 52.201], [3.939, 52.2], [3.92, 52.1826], [3.9168, 52.18], [3.9, 52.1658], [3.8941, 52.16], [3.88, 52.15], [3.86, 52.1439], [3.8569, 52.14], [3.84, 52.1216], [3.8386, 52.12], [3.82, 52.1076], [3.8122, 52.1], [3.8, 52.0805], [3.7996, 52.08], [3.78, 52.0627], [3.7753, 52.06], [3.76, 52.048], [3.7485, 52.04], [3.74, 52.0339], [3.7221, 52.02], [3.72, 52.0188], [3.7, 52.007], [3.68, 52.0007], [3.6793, 52.0], [3.68, 51.9976], [3.6856, 51.98], [3.68, 51.9744], [3.66, 51.9645], [3.6544, 51.96], [3.64, 51.9507], [3.6273, 51.94], [3.62, 51.9298], [3.6, 51.9298], [3.5944, 51.92], [3.6, 51.9061], [3.601, 51.9], [3.6, 51.8991], [3.5811, 51.88], [3.58, 51.8785], [3.5615, 51.86], [3.56, 51.8587], [3.5403, 51.84], [3.54, 51.8396], [3.52, 51.8329], [3.5, 51.822], [3.4969, 51.82], [3.48, 51.8102], [3.46, 51.801], [3.4585, 51.8], [3.44, 51.7886], [3.4263, 51.78], [3.42, 51.775], [3.4012, 51.76], [3.4, 51.7583], [3.3874, 51.74], [3.38, 51.7351], [3.36, 51.7225], [3.3577, 51.72], [3.34, 51.7048], [3.3344, 51.7], [3.32, 51.6837], [3.3, 51.6837], [3.2984, 51.68], [3.3, 51.6783], [3.3075, 51.66], [3.3, 51.6448], [3.2974, 51.64], [3.2889, 51.62], [3.2837, 51.6], [3.28, 51.5956], [3.2659, 51.58], [3.26, 51.5764], [3.2418, 51.56], [3.24, 51.5574], [3.2284, 51.54], [3.22, 51.5321], [3.2013, 51.52], [3.2, 51.5173], [3.18, 51.5013], [3.1783, 51.5], [3.18, 51.499], [3.2, 51.4827], [3.2022, 51.48], [3.2, 51.4765], [3.1913, 51.46], [3.18, 51.4522], [3.1692, 51.44], [3.16, 51.4247], [3.1572, 51.42], [3.1435, 51.4], [3.14, 51.3933], [3.1267, 51.38], [3.12, 51.3755], [3.1045, 51.36], [3.1, 51.3567], [3.08, 51.3473], [3.0727, 51.34], [3.06, 51.3219], [3.0587, 51.32], [3.04, 51.3071], [3.0294, 51.3], [3.02, 51.2951], [3.001, 51.28], [3.0, 51.2794], [2.98, 51.2709], [2.96, 51.2657], [2.954, 51.26], [2.94, 51.2493], [2.9286, 51.24], [2.92, 51.2332], [2.9, 51.2269], [2.88, 51.226], [2.86, 51.2236], [2.8548, 51.22], [2.84, 51.2033], [2.8371, 51.2], [2.82, 51.1886], [2.8032, 51.18], [2.8, 51.1772], [2.78, 51.1693], [2.76, 51.163], [2.7559, 51.16], [2.74, 51.1493], [2.72, 51.145], [2.7, 51.143], [2.68, 51.1429], [2.675, 51.14], [2.66, 51.1274], [2.64, 51.1207], [2.62, 51.1201], [2.6199, 51.12], [2.6, 51.1042], [2.5925, 51.1], [2.58, 51.0803], [2.5798, 51.08], [2.58, 51.0794], [2.5898, 51.06], [2.6, 51.0455], [2.6133, 51.04], [2.6132, 51.02], [2.6, 51.0064], [2.5888, 51.0], [2.58, 50.9875], [2.5661, 50.98], [2.5633, 50.96], [2.56, 50.9565], [2.54, 50.9484], [2.5296, 50.94], [2.52, 50.9214], [2.5183, 50.92], [2.52, 50.9192], [2.5274, 50.9], [2.54, 50.8876], [2.5432, 50.88], [2.5432, 50.86], [2.54, 50.8572], [2.52, 50.843], [2.5, 50.843]]}}]}