{"type": "FeatureCollection", "features": [{"type": "Feature", "properties": {"level": 1020.0}, "geometry": {"type": "LineString", "coordinates": [[5.02, 51.6586], [5.01, 51.66], [5.02, 51.6616], [5.0208, 51.66], [5.02, 51.6586]]}}, {"type": "Feature", "properties": {"level": 1020.0}, "geometry": {"type": "LineString", "coordinates": [[6.4203, 53.98], [6.42, 53.9797], [6.4, 53.9723], [6.3892, 53.96], [6.38, 53.9487], [6.3679, 53.94], [6.36, 53.9283], [6.3543, 53.92], [6.34, 53.9097], [6.3322, 53.9], [6.34, 53.8812], [6.3405, 53.88], [6.34, 53.8794], [6.3379, 53.88], [6.32, 53.8853], [6.3094, 53.88], [6.3094, 53.86], [6.3, 53.8453], [6.2961, 53.84], [6.28, 53.8334], [6.26, 53.8211], [6.2586, 53.82], [6.24, 53.8072], [6.225, 53.8], [6.22, 53.7977], [6.2, 53.7873], [6.18, 53.7842], [6.1747, 53.78], [6.16, 53.7707], [6.1492, 53.76], [6.14, 53.7468], [6.1358, 53.74], [6.12, 53.7227], [6.1162, 53.72], [6.1034, 53.7], [6.1, 53.6905], [6.0973, 53.68], [6.0873, 53.66], [6.08, 53.6481], [6.069, 53.64], [6.08, 53.629], [6.0842, 53.62], [6.08, 53.6144], [6.06, 53.6], [6.06, 53.6], [6.04, 53.592], [6.02, 53.5804], [6.0194, 53.58], [6.0, 53.568], [5.9816, 53.56], [5.98, 53.5591], [5.96, 53.547], [5.94, 53.5446], [5.9327, 53.54], [5.92, 53.5302], [5.9055, 53.52], [5.9, 53.5166], [5.8812, 53.5], [5.88, 53.4983], [5.8665, 53.48], [5.86, 53.4771], [5.84, 53.4738], [5.82, 53.4737], [5.8, 53.4681], [5.7885, 53.46], [5.78, 53.45], [5.76, 53.4405], [5.7593, 53.44], [5.7505, 53.42], [5.74, 53.4123], [5.7312, 53.4], [5.72, 53.3822], [5.7183, 53.38], [5.72, 53.3783], [5.7294, 53.36], [5.72, 53.3499], [5.709, 53.34], [5.7, 53.3298], [5.68, 53.3254], [5.672, 53.32], [5.66, 53.3098], [5.6464, 53.3], [5.64, 53.2934], [5.6264, 53.28], [5.62, 53.2757], [5.6082, 53.26], [5.6, 53.2459], [5.5966, 53.24], [5.5824, 53.22], [5.58, 53.2161], [5.5675, 53.2], [5.56, 53.1871], [5.54, 53.1871], [5.5372, 53.18], [5.54, 53.1764], [5.5468, 53.16], [5.54, 53.1478], [5.5311, 53.14], [5.5311, 53.12], [5.5273, 53.1], [5.52, 53.0906], [5.5, 53.0849], [5.4939, 53.08], [5.48, 53.0648], [5.4737, 53.06], [5.46, 53.0519], [5.44, 53.0458], [5.42, 53.0426], [5.4142, 53.04], [5.4, 53.033], [5.38, 53.0298], [5.3698, 53.02], [5.36, 53.0102], [5.3551, 53.0], [5.36, 52.9845], [5.3628, 52.98], [5.36, 52.9767], [5.3448, 52.96], [5.3522, 52.94], [5.36, 52.9331], [5.3678, 52.92], [5.36, 52.9044], [5.34, 52.9044], [5.3378, 52.9], [5.34, 52.8944], [5.348, 52.88], [5.3522, 52.86], [5.34, 52.8471], [5.3365, 52.84], [5.34, 52.8322], [5.3463, 52.82], [5.34, 52.8083], [5.3356, 52.8], [5.3275, 52.78], [5.3225, 52.76], [5.32, 52.7546], [5.3144, 52.74], [5.3, 52.7294], [5.2849, 52.72], [5.28, 52.7164], [5.26, 52.714], [5.2444, 52.7], [5.24, 52.6956], [5.2331, 52.68], [5.22, 52.6643], [5.217, 52.66], [5.21, 52.64], [5.2103, 52.62], [5.2065, 52.6], [5.2065, 52.58], [5.2, 52.5742], [5.1928, 52.56], [5.2, 52.5463], [5.2062, 52.54], [5.209, 52.52], [5.2, 52.5105], [5.1958, 52.5], [5.2, 52.4922], [5.2064, 52.48], [5.2, 52.4664], [5.194, 52.46], [5.1954, 52.44], [5.1915, 52.42], [5.18, 52.4098], [5.1742, 52.4], [5.18, 52.3847], [5.1822, 52.38], [5.18, 52.3763], [5.1711, 52.36], [5.16, 52.3421], [5.1577, 52.34], [5.16, 52.335], [5.1715, 52.32], [5.16, 52.3005], [5.1598, 52.3], [5.14, 52.2835], [5.1381, 52.28], [5.14, 52.2766], [5.1493, 52.26], [5.14, 52.2463], [5.1322, 52.24], [5.12, 52.2225], [5.1177, 52.22], [5.12, 52.2074], [5.1216, 52.2], [5.12, 52.1986], [5.1093, 52.18], [5.1, 52.1629], [5.0982, 52.16], [5.1, 52.1567], [5.108, 52.14], [5.1, 52.1279], [5.0886, 52.12], [5.08, 52.1107], [5.0695, 52.1], [5.06, 52.0815], [5.059, 52.08], [5.04, 52.0617], [5.0391, 52.06], [5.04, 52.058], [5.0469, 52.04], [5.04, 52.0311], [5.023, 52.02], [5.0305, 52.0], [5.0342, 51.98], [5.02, 51.9663], [5.0174, 51.96], [5.02, 51.9546], [5.0346, 51.94], [5.02, 51.9262], [5.0167, 51.92], [5.0124, 51.9], [5.02, 51.8928], [5.0279, 51.88], [5.02, 51.8666], [5.0163, 51.86], [5.011, 51.84], [5.0137, 51.82], [5.0172, 51.8], [5.0102, 51.78], [5.02, 51.7634], [5.0219, 51.76], [5.02, 51.7554], [5.0132, 51.74], [5.02, 51.7269], [5.0239, 51.72], [5.02, 51.7136], [5.005, 51.7], [5.0016, 51.68], [5.0, 51.67], [4.98, 51.6614], [4.9792, 51.66], [4.98, 51.6582], [4.9888, 51.64], [4.98, 51.6249], [4.9766, 51.62], [4.9675, 51.6], [4.98, 51.5805], [4.9801, 51.58], [4.98, 51.5798], [4.9636, 51.56], [4.96, 51.5536], [4.94, 51.5536], [4.9329, 51.54], [4.92, 51.5206], [4.9195, 51.52], [4.909, 51.5], [4.92, 51.4851], [4.9215, 51.48], [4.92, 51.4777], [4.9, 51.46], [4.92, 51.44], [4.92, 51.44], [4.92, 51.44], [4.9005, 51.42], [4.904, 51.4], [4.9041, 51.38], [4.9, 51.3762], [4.8904, 51.36], [4.9, 51.3406], [4.9003, 51.34], [4.9, 51.3397], [4.88, 51.3386], [4.8658, 51.32], [4.86, 51.3152], [4.847, 51.3], [4.8403, 51.28], [4.84, 51.2798], [4.8252, 51.26], [4.82, 51.2511], [4.8129, 51.24], [4.82, 51.2263], [4.8232, 51.22], [4.82, 51.2151], [4.8017, 51.2], [4.8, 51.1983], [4.7807, 51.18], [4.78, 51.1796], [4.76, 51.1646], [4.74, 51.1646], [4.7371, 51.16], [4.74, 51.1432], [4.7403, 51.14], [4.74, 51.1396], [4.7204, 51.12], [4.72, 51.1194], [4.7055, 51.1], [4.7, 51.0954], [4.68, 51.0896], [4.6719, 51.08], [4.66, 51.067], [4.6493, 51.06], [4.64, 51.0496], [4.6263, 51.04], [4.62, 51.0368], [4.6, 51.0221], [4.58, 51.021], [4.579, 51.02], [4.58, 51.0154], [4.5837, 51.0], [4.58, 50.9972], [4.5605, 50.98], [4.56, 50.9796], [4.54, 50.979], [4.5255, 50.96], [4.52, 50.9453], [4.5185, 50.94], [4.5041, 50.92], [4.5, 50.9132], [4.4891, 50.9], [4.48, 50.8901], [4.4699, 50.88], [4.46, 50.8681], [4.454, 50.86], [4.44, 50.8452], [4.4329, 50.84], [4.42, 50.8305], [4.411, 50.82], [4.4, 50.8056], [4.3853, 50.8], [4.38, 50.7881], [4.3719, 50.78], [4.36, 50.777], [4.351, 50.76], [4.34, 50.7454], [4.3216, 50.74], [4.32, 50.7393], [4.3, 50.7275], [4.2925, 50.72], [4.28, 50.7104], [4.26, 50.7037], [4.2528, 50.7], [4.2456, 50.68], [4.24, 50.6744], [4.2301, 50.66], [4.22, 50.6491], [4.2101, 50.64], [4.2, 50.631], [4.18, 50.6284], [4.16, 50.6241], [4.1521, 50.62], [4.14, 50.611], [4.1277, 50.6], [4.12, 50.5946], [4.1, 50.5898], [4.08, 50.5848], [4.0743, 50.58], [4.06, 50.5685], [4.0475, 50.56], [4.04, 50.552], [4.02, 50.552], [4.0108, 50.54], [4.0, 50.5316], [3.9849, 50.52], [3.98, 50.5178], [3.96, 50.5153], [3.94, 50.5051], [3.9321, 50.5]]}}]}