{"type": "FeatureCollection", "features": [{"type": "Feature", "properties": {"level": 1020.0}, "geometry": {"type": "LineString", "coordinates": [[2.5, 52.0398], [2.501, 52.04], [2.52, 52.0444], [2.5284, 52.04], [2.54, 52.0342], [2.56, 52.0323], [2.58, 52.0323], [2.6, 52.0238], [2.6085, 52.02], [2.6169, 52.0], [2.62, 51.9944], [2.6295, 51.98], [2.62, 51.965], [2.6176, 51.96], [2.62, 51.9563], [2.6366, 51.94], [2.6332, 51.92], [2.64, 51.9129], [2.6523, 51.9], [2.66, 51.8896], [2.6668, 51.88], [2.68, 51.8693], [2.6944, 51.86], [2.7, 51.8554], [2.7177, 51.84], [2.72, 51.8381], [2.7399, 51.82], [2.74, 51.8197], [2.76, 51.813], [2.78, 51.8066], [2.7875, 51.8], [2.8, 51.787], [2.816, 51.78], [2.82, 51.7768], [2.84, 51.7764], [2.86, 51.768], [2.8703, 51.76], [2.88, 51.7538], [2.9, 51.7436], [2.92, 51.7411], [2.9221, 51.74], [2.94, 51.7331], [2.96, 51.7313], [2.98, 51.7325], [3.0, 51.7348], [3.014, 51.74], [3.02, 51.7432], [3.04, 51.7449], [3.06, 51.7514], [3.08, 51.758], [3.1, 51.7541], [3.12, 51.756], [3.14, 51.7573], [3.16, 51.7575], [3.1682, 51.76], [3.18, 51.7628], [3.1899, 51.76], [3.2, 51.7568], [3.2084, 51.76], [3.22, 51.7642], [3.24, 51.7656], [3.26, 51.7661], [3.28, 51.7722], [3.2953, 51.78], [3.3, 51.782], [3.32, 51.7809], [3.34, 51.786], [3.36, 51.7823], [3.38, 51.7815], [3.3823, 51.78], [3.4, 51.7677], [3.4047, 51.76], [3.4, 51.747], [3.3966, 51.74], [3.3977, 51.72], [3.4, 51.7075], [3.4012, 51.7], [3.4051, 51.68], [3.4086, 51.66], [3.4105, 51.64], [3.4153, 51.62], [3.4121, 51.6], [3.4059, 51.58], [3.4154, 51.56], [3.42, 51.5507], [3.44, 51.5423], [3.443, 51.54], [3.46, 51.52], [3.46, 51.52], [3.48, 51.5079], [3.4977, 51.5], [3.5, 51.4993], [3.5038, 51.5], [3.52, 51.5053], [3.54, 51.5077], [3.56, 51.5149], [3.58, 51.5186], [3.582, 51.52], [3.5915, 51.54], [3.58, 51.5579], [3.5793, 51.56], [3.58, 51.561], [3.6, 51.561], [3.6129, 51.58], [3.62, 51.5884], [3.627, 51.6], [3.64, 51.6125], [3.6489, 51.62], [3.66, 51.6294], [3.6759, 51.64], [3.68, 51.645], [3.6944, 51.66], [3.7, 51.6641], [3.7139, 51.68], [3.72, 51.6925], [3.7247, 51.7], [3.74, 51.7157], [3.7441, 51.72], [3.76, 51.7387], [3.7616, 51.74], [3.78, 51.7531], [3.7889, 51.76], [3.8, 51.765], [3.82, 51.761], [3.8238, 51.76], [3.8387, 51.74], [3.84, 51.7364], [3.8421, 51.72], [3.84, 51.7165], [3.8235, 51.7], [3.8231, 51.68], [3.8274, 51.66], [3.82, 51.6427], [3.8184, 51.64], [3.8, 51.6289], [3.7894, 51.62], [3.78, 51.61], [3.7726, 51.6], [3.78, 51.5821], [3.7809, 51.58], [3.78, 51.5788], [3.76, 51.5754], [3.7525, 51.56], [3.74, 51.5419], [3.7388, 51.54], [3.7259, 51.52], [3.72, 51.5006], [3.7198, 51.5], [3.72, 51.4997], [3.7323, 51.48], [3.74, 51.4697], [3.749, 51.46], [3.7402, 51.44], [3.74, 51.4388], [3.7374, 51.42], [3.74, 51.4172], [3.7484, 51.4], [3.74, 51.3808], [3.7392, 51.38], [3.74, 51.3793], [3.76, 51.3674], [3.7706, 51.36], [3.78, 51.3543], [3.8, 51.3532], [3.82, 51.3532], [3.84, 51.3513], [3.8584, 51.36], [3.86, 51.3608], [3.88, 51.3627], [3.9, 51.3703], [3.92, 51.3766], [3.94, 51.3788], [3.942, 51.38], [3.96, 51.393], [3.9639, 51.4], [3.96, 51.4099], [3.9521, 51.42], [3.96, 51.433], [3.967, 51.44], [3.9708, 51.46], [3.98, 51.4693], [3.9866, 51.48], [4.0, 51.4997], [4.02, 51.4999], [4.0201, 51.5], [4.02, 51.5002], [4.013, 51.52], [4.02, 51.5296], [4.0265, 51.54], [4.04, 51.5538], [4.0489, 51.56], [4.06, 51.5675], [4.08, 51.5638], [4.1, 51.5613], [4.1011, 51.56], [4.1, 51.5494], [4.0976, 51.54], [4.0976, 51.52], [4.1, 51.5154], [4.1058, 51.5], [4.1098, 51.48], [4.1107, 51.46], [4.1059, 51.44], [4.1, 51.428], [4.0957, 51.42], [4.1, 51.4132], [4.1135, 51.4], [4.1078, 51.38], [4.1, 51.361], [4.0991, 51.36], [4.1, 51.3591], [4.1109, 51.34], [4.12, 51.3274], [4.1268, 51.32], [4.1238, 51.3], [4.1305, 51.28], [4.1372, 51.26], [4.1372, 51.24], [4.14, 51.235], [4.1489, 51.22], [4.159, 51.2], [4.16, 51.1966], [4.1673, 51.18], [4.16, 51.1671], [4.1587, 51.16], [4.16, 51.1571], [4.1751, 51.14], [4.18, 51.134], [4.2, 51.1267], [4.22, 51.1265], [4.24, 51.1219], [4.26, 51.1268], [4.28, 51.1262], [4.3, 51.1324], [4.3122, 51.14], [4.32, 51.1443], [4.34, 51.1479], [4.36, 51.1468], [4.38, 51.1529], [4.4, 51.1585], [4.42, 51.1588], [4.44, 51.1426], [4.46, 51.1426], [4.48, 51.1418], [4.4845, 51.14], [4.5, 51.1299], [4.52, 51.1353], [4.54, 51.1392], [4.541, 51.14], [4.56, 51.1581], [4.5616, 51.16], [4.58, 51.1713], [4.5892, 51.18], [4.6, 51.1897], [4.6186, 51.2], [4.62, 51.2014], [4.64, 51.2014], [4.6552, 51.22], [4.66, 51.2227], [4.68, 51.2289], [4.7, 51.2342], [4.7051, 51.24], [4.72, 51.2503], [4.7377, 51.26], [4.74, 51.2612], [4.76, 51.2605], [4.78, 51.2736], [4.7908, 51.28], [4.8, 51.2857], [4.82, 51.2912], [4.8326, 51.3], [4.84, 51.3083], [4.8492, 51.32], [4.86, 51.3275], [4.871, 51.34], [4.88, 51.3582], [4.8812, 51.36], [4.88, 51.3645], [4.8713, 51.38], [4.88, 51.3876], [4.8914, 51.4], [4.8934, 51.42], [4.9, 51.4291], [4.92, 51.4342], [4.9303, 51.44], [4.94, 51.4521], [4.9528, 51.46], [4.96, 51.4616], [4.98, 51.4622], [4.9863, 51.46], [5.0, 51.4466], [5.0066, 51.44], [5.02, 51.4331], [5.04, 51.4314], [5.06, 51.4241], [5.0688, 51.42], [5.08, 51.4147], [5.1, 51.4039], [5.12, 51.4018], [5.1294, 51.4], [5.14, 51.3926], [5.16, 51.3894], [5.18, 51.3906], [5.2, 51.396], [5.2034, 51.4], [5.22, 51.4089], [5.24, 51.4173], [5.2573, 51.4], [5.26, 51.3985], [5.2642, 51.4], [5.28, 51.4113], [5.3, 51.4135], [5.32, 51.4144], [5.3386, 51.42], [5.34, 51.4201], [5.36, 51.4202], [5.38, 51.4202], [5.381, 51.42], [5.4, 51.4146], [5.42, 51.4173], [5.4286, 51.42], [5.44, 51.4285], [5.46, 51.4383], [5.48, 51.4382], [5.4818, 51.44], [5.5, 51.4434], [5.5041, 51.44], [5.5112, 51.42], [5.52, 51.4167], [5.54, 51.4194], [5.56, 51.4095], [5.58, 51.406], [5.6, 51.4118], [5.62, 51.4077], [5.64, 51.4116], [5.66, 51.4147], [5.6706, 51.42], [5.68, 51.4276], [5.6956, 51.44], [5.7, 51.4423], [5.72, 51.4438], [5.74, 51.4496], [5.76, 51.4508], [5.78, 51.4584], [5.8, 51.4457], [5.8092, 51.44], [5.82, 51.4336], [5.84, 51.4275], [5.86, 51.4242], [5.8681, 51.42], [5.88, 51.4086], [5.8993, 51.4], [5.9, 51.3998], [5.92, 51.3999], [5.9203, 51.4], [5.92, 51.416], [5.9199, 51.42], [5.92, 51.42], [5.94, 51.4201], [5.96, 51.4252], [5.98, 51.4286], [5.9886, 51.42], [6.0, 51.4136], [6.02, 51.4187], [6.04, 51.4192], [6.0479, 51.42], [6.06, 51.4229], [6.08, 51.4237], [6.0837, 51.42], [6.1, 51.4155], [6.12, 51.4124], [6.14, 51.412], [6.16, 51.4114], [6.18, 51.4122], [6.2, 51.4038], [6.22, 51.4038], [6.2215, 51.4], [6.22, 51.3887], [6.2186, 51.38], [6.22, 51.3769], [6.2256, 51.36], [6.2309, 51.34], [6.24, 51.3328], [6.26, 51.3221], [6.2622, 51.32], [6.2761, 51.3], [6.28, 51.299], [6.3, 51.2995], [6.32, 51.2834], [6.3224, 51.28], [6.34, 51.2661], [6.3545, 51.26], [6.3506, 51.24], [6.36, 51.2319], [6.3744, 51.22], [6.38, 51.2155], [6.3933, 51.2], [6.4, 51.1897], [6.42, 51.1844], [6.44, 51.1834], [6.46, 51.1804], [6.4768, 51.2], [6.48, 51.2079], [6.5, 51.2079], [6.5139, 51.22], [6.52, 51.2235], [6.5336, 51.24], [6.54, 51.243], [6.56, 51.2449], [6.58, 51.2536], [6.5926, 51.26], [6.6, 51.265], [6.62, 51.2732], [6.64, 51.2767], [6.66, 51.2787], [6.6613, 51.28], [6.68, 51.298], [6.6837, 51.3], [6.7, 51.312], [6.7114, 51.32], [6.72, 51.3238], [6.74, 51.3216], [6.76, 51.3266], [6.78, 51.3248], [6.7969, 51.32], [6.7941, 51.3], [6.8, 51.296], [6.8165, 51.28], [6.82, 51.2755], [6.8249, 51.26], [6.8239, 51.24], [6.84, 51.2201], [6.8403, 51.22], [6.84, 51.2188], [6.8325, 51.2], [6.8325, 51.18], [6.84, 51.1715], [6.8548, 51.16], [6.86, 51.1475], [6.8629, 51.14], [6.8647, 51.12], [6.88, 51.1009], [6.8807, 51.1], [6.88, 51.0984], [6.8671, 51.08], [6.86, 51.0673], [6.84, 51.0621], [6.8314, 51.06], [6.82, 51.0588], [6.8, 51.0523], [6.7908, 51.06], [6.78, 51.0629], [6.76, 51.0612], [6.7593, 51.06], [6.76, 51.0592], [6.7789, 51.04], [6.78, 51.0354], [6.8, 51.0354], [6.8063, 51.02], [6.8, 51.0158], [6.78, 51.0168], [6.7636, 51.02], [6.76, 51.0208], [6.7413, 51.02], [6.76, 51.0139], [6.7618, 51.0], [6.76, 50.9983], [6.75, 50.98], [6.76, 50.9674], [6.7674, 50.96], [6.76, 50.9525], [6.74, 50.9548], [6.72, 50.9492], [6.7074, 50.94], [6.72, 50.9268], [6.7321, 50.92], [6.74, 50.9089], [6.76, 50.9044], [6.7634, 50.9], [6.76, 50.8931], [6.74, 50.8946], [6.72, 50.893], [6.7, 50.889], [6.6838, 50.88], [6.68, 50.8764], [6.6717, 50.86], [6.66, 50.8405], [6.6595, 50.84], [6.654, 50.82], [6.643, 50.8], [6.64, 50.7982], [6.62, 50.7956], [6.6, 50.7956], [6.5917, 50.78], [6.6, 50.7703], [6.6043, 50.76], [6.6, 50.7528], [6.58, 50.7528], [6.5746, 50.74], [6.56, 50.7246], [6.5548, 50.72], [6.54, 50.707], [6.521, 50.7], [6.52, 50.6996], [6.5171, 50.7], [6.5, 50.7017], [6.48, 50.7013], [6.4605, 50.72], [6.46, 50.7209], [6.4409, 50.74], [6.44, 50.7403], [6.4391, 50.74], [6.42, 50.7285], [6.4, 50.7204], [6.38, 50.7201], [6.3799, 50.72], [6.38, 50.7196], [6.3922, 50.7], [6.38, 50.6865], [6.36, 50.6827], [6.3475, 50.68], [6.34, 50.6776], [6.32, 50.6686], [6.3, 50.6618], [6.2842, 50.66], [6.28, 50.6594], [6.26, 50.6594], [6.24, 50.6435], [6.235, 50.64], [6.22, 50.6285], [6.2088, 50.62], [6.2, 50.6142], [6.182, 50.6], [6.18, 50.5983], [6.16, 50.5897], [6.14, 50.5842], [6.1219, 50.58], [6.1219, 50.56], [6.12, 50.5595], [6.1, 50.5585], [6.08, 50.5432], [6.078, 50.54], [6.06, 50.5271], [6.0482, 50.52], [6.04, 50.512], [6.02, 50.5009], [6.0186, 50.5]]}}]}