{"type": "FeatureCollection", "features": [{"type": "Feature", "properties": {"level": 1015.0}, "geometry": {"type": "LineString", "coordinates": [[6.5048, 50.5], [6.52, 50.5189], [6.5235, 50.52], [6.54, 50.5327], [6.5558, 50.54], [6.54, 50.5485], [6.5357, 50.56], [6.54, 50.5798], [6.54, 50.58], [6.54, 50.58], [6.52, 50.58], [6.5, 50.5878], [6.4857, 50.58], [6.48, 50.5758], [6.4698, 50.56], [6.46, 50.5513], [6.4504, 50.54], [6.44, 50.5273], [6.434, 50.52], [6.42, 50.5037], [6.415, 50.5]]}}, {"type": "Feature", "properties": {"level": 1015.0}, "geometry": {"type": "LineString", "coordinates": [[6.5575, 50.52], [6.56, 50.5189], [6.58, 50.5171], [6.6, 50.5162], [6.6008, 50.52], [6.6, 50.5203], [6.58, 50.5234], [6.56, 50.5295], [6.5575, 50.52]]}}, {"type": "Feature", "properties": {"level": 1015.0}, "geometry": {"type": "LineString", "coordinates": [[7.0168, 50.5], [7.0, 50.5135], [6.9838, 50.52], [7.0, 50.5369], [7.0026, 50.54], [7.0, 50.5418], [6.98, 50.5409], [6.9779, 50.54], [6.96, 50.5226], [6.9558, 50.52], [6.94, 50.5085], [6.92, 50.5004], [6.9185, 50.5]]}}, {"type": "Feature", "properties": {"level": 1015.0}, "geometry": {"type": "LineString", "coordinates": [[7.82, 50.5182], [7.8179, 50.52], [7.8, 50.5332], [7.791, 50.54], [7.7866, 50.56], [7.78, 50.563], [7.76, 50.5646], [7.74, 50.5644], [7.72, 50.5758], [7.7, 50.573], [7.6929, 50.58], [7.7, 50.5989], [7.7003, 50.6], [7.7, 50.6003], [7.68, 50.6004], [7.66, 50.6081], [7.6407, 50.62], [7.64, 50.6211], [7.62, 50.6245], [7.6035, 50.64], [7.62, 50.6469], [7.64, 50.6497], [7.66, 50.6527], [7.68, 50.6515], [7.7, 50.6574], [7.72, 50.6493], [7.7323, 50.64], [7.74, 50.6342], [7.7549, 50.64], [7.76, 50.6423], [7.78, 50.6537], [7.8, 50.6537], [7.82, 50.6549], [7.84, 50.6567], [7.8495, 50.64], [7.86, 50.6275], [7.8666, 50.62], [7.88, 50.6058], [7.8923, 50.6], [7.9, 50.5907], [7.92, 50.5907], [7.94, 50.5886], [7.96, 50.5927], [7.98, 50.581], [7.9828, 50.58], [7.98, 50.5781], [7.96, 50.57], [7.9462, 50.56], [7.94, 50.5536], [7.92, 50.5414], [7.9, 50.5417], [7.8994, 50.54], [7.8994, 50.52], [7.88, 50.5146], [7.86, 50.5048], [7.84, 50.503], [7.82, 50.5182]]}}, {"type": "Feature", "properties": {"level": 1015.0}, "geometry": {"type": "LineString", "coordinates": [[6.2168, 50.54], [6.22, 50.5241], [6.24, 50.5234], [6.26, 50.526], [6.28, 50.5302], [6.2904, 50.54], [6.3, 50.5462], [6.32, 50.5528], [6.34, 50.5599], [6.3403, 50.56], [6.34, 50.5603], [6.32, 50.575], [6.3, 50.5677], [6.28, 50.5698], [6.26, 50.5679], [6.24, 50.5657], [6.2342, 50.56], [6.22, 50.5426], [6.2168, 50.54]]}}, {"type": "Feature", "properties": {"level": 1015.0}, "geometry": {"type": "LineString", "coordinates": [[7.3984, 50.56], [7.4, 50.5583], [7.42, 50.5584], [7.422, 50.56], [7.42, 50.5674], [7.4, 50.5674], [7.3984, 50.56]]}}, {"type": "Feature", "properties": {"level": 1015.0}, "geometry": {"type": "LineString", "coordinates": [[7.92, 50.6745], [7.9059, 50.68], [7.9, 50.6841], [7.88, 50.6858], [7.86, 50.6988], [7.84, 50.6984], [7.82, 50.6951], [7.806, 50.7], [7.806, 50.72], [7.82, 50.74], [7.8201, 50.74], [7.84, 50.7423], [7.86, 50.7426], [7.88, 50.7463], [7.9, 50.7502], [7.92, 50.7423], [7.9257, 50.74], [7.9257, 50.72], [7.94, 50.7072], [7.96, 50.7104], [7.98, 50.7054], [8.0, 50.706], [8.0029, 50.7], [8.0, 50.6963], [7.9864, 50.68], [7.98, 50.6775], [7.96, 50.6773], [7.94, 50.6754], [7.92, 50.6745]]}}, {"type": "Feature", "properties": {"level": 1015.0}, "geometry": {"type": "LineString", "coordinates": [[7.4508, 50.86], [7.46, 50.8578], [7.48, 50.8582], [7.4974, 50.86], [7.48, 50.8657], [7.46, 50.8657], [7.4508, 50.86]]}}, {"type": "Feature", "properties": {"level": 1015.0}, "geometry": {"type": "LineString", "coordinates": [[7.62, 50.8594], [7.619, 50.86], [7.6142, 50.88], [7.62, 50.8842], [7.64, 50.8902], [7.6447, 50.9], [7.6458, 50.92], [7.66, 50.928], [7.68, 50.9279], [7.7, 50.9307], [7.72, 50.9256], [7.74, 50.9256], [7.745, 50.92], [7.74, 50.9143], [7.7279, 50.9], [7.72, 50.8882], [7.7, 50.8955], [7.68, 50.8856], [7.66, 50.8871], [7.6474, 50.88], [7.66, 50.8644], [7.6607, 50.86], [7.66, 50.8594], [7.64, 50.8588], [7.62, 50.8594]]}}, {"type": "Feature", "properties": {"level": 1015.0}, "geometry": {"type": "LineString", "coordinates": [[7.68, 50.9778], [7.6789, 50.98], [7.68, 50.9808], [7.7, 50.9818], [7.7005, 50.98], [7.7, 50.9783], [7.68, 50.9778]]}}, {"type": "Feature", "properties": {"level": 1015.0}, "geometry": {"type": "LineString", "coordinates": [[7.3494, 51.0], [7.36, 50.986], [7.3645, 51.0], [7.36, 51.0047], [7.3494, 51.0]]}}, {"type": "Feature", "properties": {"level": 1015.0}, "geometry": {"type": "LineString", "coordinates": [[7.9, 50.9987], [7.8987, 51.0], [7.9, 51.0007], [7.9161, 51.02], [7.92, 51.0276], [7.9298, 51.04], [7.9331, 51.06], [7.94, 51.0694], [7.96, 51.0669], [7.98, 51.0638], [8.0, 51.0638], [8.0091, 51.06], [8.0, 51.0428], [7.9972, 51.04], [8.0, 51.0303], [8.02, 51.0365], [8.0315, 51.04], [8.04, 51.0418], [8.06, 51.0421], [8.061, 51.04], [8.08, 51.0283], [8.0987, 51.02], [8.08, 51.0005], [8.06, 51.0005], [8.0591, 51.0], [8.04, 50.9929], [8.0269, 51.0], [8.02, 51.0076], [8.0, 51.019], [7.9921, 51.02], [7.98, 51.0241], [7.96, 51.0241], [7.9539, 51.02], [7.94, 51.0172], [7.9205, 51.0], [7.92, 50.9995], [7.9, 50.9987]]}}, {"type": "Feature", "properties": {"level": 1015.0}, "geometry": {"type": "LineString", "coordinates": [[7.72, 51.1193], [7.7155, 51.12], [7.7158, 51.14], [7.72, 51.141], [7.74, 51.1418], [7.76, 51.1439], [7.78, 51.1423], [7.8, 51.1465], [7.8065, 51.14], [7.8, 51.1373], [7.78, 51.1354], [7.76, 51.1365], [7.74, 51.1382], [7.7219, 51.12], [7.72, 51.1193]]}}, {"type": "Feature", "properties": {"level": 1015.0}, "geometry": {"type": "LineString", "coordinates": [[7.68, 51.1373], [7.6769, 51.14], [7.66, 51.144], [7.653, 51.16], [7.64, 51.1725], [7.6298, 51.18], [7.64, 51.1908], [7.66, 51.1846], [7.6669, 51.18], [7.68, 51.1663], [7.6862, 51.16], [7.6819, 51.14], [7.68, 51.1373]]}}, {"type": "Feature", "properties": {"level": 1015.0}, "geometry": {"type": "LineString", "coordinates": [[8.14, 51.1396], [8.1345, 51.14], [8.14, 51.1404], [8.1411, 51.14], [8.14, 51.1396]]}}, {"type": "Feature", "properties": {"level": 1015.0}, "geometry": {"type": "LineString", "coordinates": [[8.02, 51.2154], [8.0006, 51.22], [8.0003, 51.24], [8.0, 51.241], [7.98, 51.241], [7.9767, 51.26], [7.98, 51.2647], [8.0, 51.2627], [8.02, 51.2686], [8.04, 51.2731], [8.0507, 51.26], [8.06, 51.2489], [8.0649, 51.24], [8.06, 51.2323], [8.0448, 51.22], [8.04, 51.2177], [8.02, 51.2154]]}}, {"type": "Feature", "properties": {"level": 1015.0}, "geometry": {"type": "LineString", "coordinates": [[7.88, 51.438], [7.8642, 51.44], [7.88, 51.4421], [7.8829, 51.44], [7.88, 51.438]]}}, {"type": "Feature", "properties": {"level": 1015.0}, "geometry": {"type": "LineString", "coordinates": [[7.6384, 51.48], [7.64, 51.4605], [7.6506, 51.48], [7.64, 51.4808], [7.6384, 51.48]]}}, {"type": "Feature", "properties": {"level": 1015.0}, "geometry": {"type": "LineString", "coordinates": [[8.5, 51.5822], [8.4969, 51.58], [8.48, 51.5679], [8.468, 51.56], [8.46, 51.5445], [8.44, 51.5525], [8.42, 51.5503], [8.4, 51.5485], [8.38, 51.5502], [8.36, 51.55], [8.34, 51.5545], [8.32, 51.5569], [8.3, 51.5566], [8.2897, 51.56], [8.28, 51.5667], [8.26, 51.561], [8.2462, 51.56], [8.24, 51.5598], [8.22, 51.5595], [8.2, 51.5504], [8.1845, 51.54], [8.18, 51.5386], [8.16, 51.5319], [8.14, 51.5212], [8.12, 51.5208], [8.119, 51.52], [8.1101, 51.5], [8.1073, 51.48], [8.1, 51.4718], [8.08, 51.4773], [8.06, 51.4796], [8.04, 51.4797], [8.0385, 51.48], [8.027, 51.5], [8.02, 51.5021], [8.0, 51.5022], [7.9892, 51.5], [7.98, 51.4985], [7.96, 51.4985], [7.94, 51.4948], [7.926, 51.5], [7.92, 51.5109], [7.9, 51.5109], [7.8889, 51.5], [7.88, 51.4959], [7.86, 51.4851], [7.8497, 51.5], [7.84, 51.5026], [7.82, 51.5019], [7.8148, 51.5], [7.8148, 51.48], [7.82, 51.471], [7.84, 51.4746], [7.86, 51.4717], [7.8628, 51.46], [7.86, 51.4432], [7.84, 51.457], [7.82, 51.4531], [7.8078, 51.44], [7.8, 51.4272], [7.78, 51.4272], [7.7766, 51.42], [7.78, 51.418], [7.8, 51.4174], [7.82, 51.409], [7.8297, 51.4], [7.84, 51.3919], [7.8489, 51.38], [7.841, 51.36], [7.84, 51.3572], [7.8324, 51.34], [7.8205, 51.32], [7.82, 51.3191], [7.8, 51.304], [7.78, 51.3006], [7.76, 51.3021], [7.7572, 51.3], [7.74, 51.2957], [7.7346, 51.3], [7.72, 51.3136], [7.7101, 51.32], [7.7, 51.3288], [7.68, 51.3328], [7.66, 51.3361], [7.6528, 51.34], [7.64, 51.3528], [7.6293, 51.36], [7.6253, 51.38], [7.62, 51.3831], [7.6, 51.3819], [7.58, 51.3812], [7.5756, 51.38], [7.58, 51.3765], [7.5887, 51.36], [7.6, 51.3523], [7.6088, 51.34], [7.6114, 51.32], [7.62, 51.3087], [7.6266, 51.3], [7.6343, 51.28], [7.62, 51.2683], [7.6, 51.2725], [7.5904, 51.28], [7.58, 51.2876], [7.5686, 51.3], [7.56, 51.316], [7.54, 51.3187], [7.5315, 51.32], [7.54, 51.3393], [7.5407, 51.34], [7.54, 51.3402], [7.52, 51.3402], [7.5199, 51.34], [7.5, 51.3231], [7.4983, 51.32], [7.5, 51.315], [7.5043, 51.3], [7.5, 51.2964], [7.48, 51.2879], [7.4741, 51.28], [7.4659, 51.26], [7.46, 51.252], [7.4553, 51.26], [7.44, 51.2674], [7.42, 51.2794], [7.4, 51.2794], [7.38, 51.279], [7.3623, 51.26], [7.3772, 51.24], [7.38, 51.2373], [7.3987, 51.22], [7.3963, 51.2], [7.4, 51.1957], [7.42, 51.1918], [7.44, 51.1893], [7.46, 51.1943], [7.48, 51.1953], [7.4972, 51.18], [7.5, 51.1607], [7.5002, 51.16], [7.5, 51.1598], [7.48, 51.1503], [7.46, 51.1564], [7.44, 51.1506], [7.42, 51.1531], [7.4, 51.1531], [7.38, 51.1502], [7.36, 51.1472], [7.34, 51.145], [7.3265, 51.14], [7.32, 51.1333], [7.3141, 51.12], [7.32, 51.1141], [7.34, 51.1132], [7.36, 51.1109], [7.3685, 51.1], [7.38, 51.0907], [7.4, 51.0872], [7.42, 51.0875], [7.44, 51.0874], [7.46, 51.0891], [7.48, 51.0874], [7.5, 51.0879], [7.52, 51.0829], [7.54, 51.084], [7.56, 51.0846], [7.5783, 51.08], [7.5604, 51.06], [7.56, 51.0584], [7.549, 51.04], [7.56, 51.0265], [7.5605, 51.02], [7.56, 51.0194], [7.54, 51.0187], [7.52, 51.0178], [7.5, 51.0161], [7.48, 51.0161], [7.4763, 51.02], [7.48, 51.0271], [7.4929, 51.04], [7.4944, 51.06], [7.48, 51.0673], [7.46, 51.0619], [7.44, 51.0667], [7.4234, 51.06], [7.42, 51.0573], [7.4137, 51.06], [7.4, 51.0643], [7.38, 51.0624], [7.375, 51.06], [7.3686, 51.04], [7.38, 51.0374], [7.4, 51.0353], [7.42, 51.031], [7.4283, 51.02], [7.42, 51.0092], [7.4108, 51.0], [7.4, 50.989], [7.38, 50.9845], [7.366, 50.98], [7.38, 50.9765], [7.4, 50.9738], [7.42, 50.9742], [7.44, 50.9721], [7.46, 50.9642], [7.4683, 50.96], [7.48, 50.9482], [7.4878, 50.94], [7.4878, 50.92], [7.5, 50.9016], [7.5167, 50.9], [7.5, 50.8952], [7.4931, 50.88], [7.5, 50.8621], [7.52, 50.8612], [7.521, 50.86], [7.54, 50.8439], [7.5432, 50.84], [7.56, 50.8227], [7.5608, 50.82], [7.56, 50.8189], [7.54, 50.818], [7.52, 50.8102], [7.5, 50.8075], [7.4823, 50.8], [7.4957, 50.78], [7.5, 50.7775], [7.52, 50.7786], [7.5259, 50.78], [7.54, 50.7833], [7.5414, 50.78], [7.56, 50.7626], [7.5639, 50.76], [7.5639, 50.74], [7.58, 50.7243], [7.59, 50.72], [7.58, 50.7143], [7.56, 50.7143], [7.54, 50.7059], [7.5291, 50.7], [7.52, 50.6902], [7.5002, 50.68], [7.5, 50.6798], [7.4988, 50.68], [7.48, 50.6811], [7.477, 50.68], [7.46, 50.6699], [7.44, 50.6675], [7.42, 50.6675], [7.4, 50.6672], [7.3843, 50.66], [7.38, 50.657], [7.36, 50.6561], [7.3534, 50.64], [7.3529, 50.62], [7.36, 50.61], [7.3694, 50.6], [7.38, 50.5926], [7.4, 50.5831], [7.42, 50.5871], [7.4278, 50.6], [7.44, 50.6057], [7.46, 50.6083], [7.48, 50.612], [7.5, 50.609], [7.52, 50.6129], [7.54, 50.6114], [7.56, 50.6114], [7.58, 50.6076], [7.5867, 50.6], [7.5933, 50.58], [7.6, 50.5701], [7.6094, 50.56], [7.62, 50.5497], [7.6285, 50.54], [7.62, 50.5251], [7.6163, 50.52], [7.6, 50.5043], [7.5939, 50.5]]}}, {"type": "Feature", "properties": {"level": 1015.0}, "geometry": {"type": "LineString", "coordinates": [[8.5, 52.281], [8.48, 52.281], [8.4727, 52.28], [8.46, 52.2784], [8.44, 52.2767], [8.4355, 52.28], [8.42, 52.2875], [8.4, 52.2809], [8.3954, 52.28], [8.38, 52.2663], [8.3752, 52.26], [8.36, 52.256], [8.3531, 52.24], [8.34, 52.2323], [8.32, 52.2275], [8.3, 52.2294], [8.28, 52.2344], [8.2629, 52.24], [8.26, 52.2441], [8.24, 52.2411], [8.2392, 52.24], [8.2216, 52.22], [8.22, 52.2182], [8.2, 52.2071], [8.18, 52.2071], [8.16, 52.2012], [8.1566, 52.2], [8.16, 52.1958], [8.18, 52.1975], [8.193, 52.18], [8.193, 52.16], [8.2, 52.1563], [8.22, 52.157], [8.24, 52.1565], [8.26, 52.1471], [8.28, 52.1484], [8.3, 52.1452], [8.3072, 52.14], [8.3084, 52.12], [8.3192, 52.1], [8.32, 52.0988], [8.34, 52.0927], [8.3529, 52.08], [8.36, 52.0735], [8.38, 52.069], [8.3858, 52.06], [8.4, 52.0528], [8.42, 52.0418], [8.44, 52.0415], [8.4446, 52.04], [8.46, 52.0219], [8.4619, 52.02], [8.48, 52.0176], [8.5, 52.0162]]}}, {"type": "Feature", "properties": {"level": 1015.0}, "geometry": {"type": "LineString", "coordinates": [[8.4196, 52.32], [8.42, 52.3196], [8.44, 52.3197], [8.4403, 52.32], [8.44, 52.3211], [8.4227, 52.34], [8.42, 52.3427], [8.4, 52.3422], [8.3983, 52.34], [8.4, 52.3389], [8.4196, 52.32]]}}, {"type": "Feature", "properties": {"level": 1015.0}, "geometry": {"type": "LineString", "coordinates": [[8.429, 52.88], [8.44, 52.8782], [8.4439, 52.88], [8.44, 52.8821], [8.429, 52.88]]}}, {"type": "Feature", "properties": {"level": 1015.0}, "geometry": {"type": "LineString", "coordinates": [[8.489, 53.98], [8.4868, 53.96], [8.4882, 53.94], [8.4818, 53.92], [8.4868, 53.9], [8.4899, 53.88], [8.48, 53.8707], [8.475, 53.86], [8.48, 53.8486], [8.4845, 53.84], [8.48, 53.8322], [8.4678, 53.82], [8.4634, 53.8], [8.46, 53.7854], [8.44, 53.7854], [8.4386, 53.78], [8.4302, 53.76], [8.421, 53.74], [8.4204, 53.72], [8.42, 53.7194], [8.4168, 53.72], [8.4, 53.7235], [8.3976, 53.72], [8.4, 53.7145], [8.4063, 53.7], [8.4, 53.6919], [8.3845, 53.68], [8.38, 53.6738], [8.3695, 53.66], [8.36, 53.6533], [8.34, 53.6424], [8.3388, 53.64], [8.32, 53.6283], [8.314, 53.62], [8.3, 53.6024], [8.2986, 53.6], [8.3, 53.597], [8.3094, 53.58], [8.3, 53.5638], [8.2956, 53.56], [8.2937, 53.54], [8.2862, 53.52], [8.28, 53.5042], [8.2755, 53.5], [8.28, 53.4955], [8.287, 53.48], [8.2808, 53.46], [8.2825, 53.44], [8.28, 53.4379], [8.26, 53.427], [8.251, 53.42], [8.2426, 53.4], [8.2419, 53.38], [8.24, 53.3745], [8.2334, 53.36], [8.24, 53.3503], [8.2466, 53.34], [8.24, 53.3202], [8.2399, 53.32], [8.24, 53.3192], [8.26, 53.302], [8.2623, 53.3], [8.26, 53.2914], [8.2548, 53.28], [8.26, 53.2748], [8.28, 53.2711], [8.2854, 53.26], [8.3, 53.2463], [8.3179, 53.24], [8.32, 53.2391], [8.34, 53.2235], [8.36, 53.2208], [8.3605, 53.22], [8.36, 53.2186], [8.34, 53.2186], [8.3333, 53.2], [8.34, 53.192], [8.3558, 53.18], [8.36, 53.1742], [8.3674, 53.16], [8.3765, 53.14], [8.38, 53.1341], [8.3825, 53.12], [8.38, 53.1124], [8.3747, 53.1], [8.38, 53.0832], [8.3824, 53.08], [8.4, 53.062], [8.4058, 53.06], [8.4131, 53.04], [8.407, 53.02], [8.42, 53.0077], [8.4277, 53.0], [8.44, 52.9895], [8.4468, 52.98], [8.46, 52.963], [8.466, 52.96], [8.4633, 52.94], [8.46, 52.935], [8.4411, 52.92], [8.4503, 52.9], [8.46, 52.8869], [8.48, 52.8901], [8.5, 52.8934]]}}]}