{"type": "FeatureCollection", "features": [{"type": "Feature", "properties": {"level": 1030.0}, "geometry": {"type": "LineString", "coordinates": [[7.6864, 50.5], [7.7, 50.5062], [7.72, 50.5071], [7.7347, 50.5]]}}, {"type": "Feature", "properties": {"level": 1030.0}, "geometry": {"type": "LineString", "coordinates": [[7.7639, 50.5], [7.7639, 50.52], [7.78, 50.5373], [7.7832, 50.54], [7.78, 50.5442], [7.76, 50.5442], [7.74, 50.5487], [7.7221, 50.56], [7.72, 50.5621], [7.7, 50.5611], [7.68, 50.5694], [7.6654, 50.56], [7.66, 50.5544], [7.64, 50.5534], [7.6367, 50.54], [7.6354, 50.52], [7.64, 50.5013], [7.6414, 50.5]]}}, {"type": "Feature", "properties": {"level": 1030.0}, "geometry": {"type": "LineString", "coordinates": [[8.2503, 50.52], [8.26, 50.5103], [8.28, 50.5085], [8.3, 50.5102], [8.32, 50.5138], [8.326, 50.52], [8.34, 50.5364], [8.36, 50.5342], [8.38, 50.5281], [8.3917, 50.54], [8.3917, 50.56], [8.38, 50.5676], [8.3725, 50.56], [8.36, 50.5475], [8.3449, 50.56], [8.34, 50.5636], [8.3348, 50.56], [8.32, 50.5422], [8.3, 50.5476], [8.28, 50.5445], [8.2707, 50.54], [8.26, 50.5294], [8.2503, 50.52]]}}, {"type": "Feature", "properties": {"level": 1030.0}, "geometry": {"type": "LineString", "coordinates": [[8.4705, 50.5], [8.46, 50.5136], [8.44, 50.5158], [8.4223, 50.5]]}}, {"type": "Feature", "properties": {"level": 1030.0}, "geometry": {"type": "LineString", "coordinates": [[8.4073, 50.54], [8.42, 50.5254], [8.44, 50.5256], [8.4596, 50.54], [8.44, 50.5562], [8.42, 50.5527], [8.4073, 50.54]]}}, {"type": "Feature", "properties": {"level": 1030.0}, "geometry": {"type": "LineString", "coordinates": [[8.4552, 50.58], [8.46, 50.5702], [8.48, 50.5699], [8.4901, 50.58], [8.48, 50.5857], [8.46, 50.5828], [8.4552, 50.58]]}}, {"type": "Feature", "properties": {"level": 1030.0}, "geometry": {"type": "LineString", "coordinates": [[7.6131, 50.6], [7.62, 50.5976], [7.6216, 50.6], [7.62, 50.601], [7.6131, 50.6]]}}, {"type": "Feature", "properties": {"level": 1030.0}, "geometry": {"type": "LineString", "coordinates": [[7.4342, 50.62], [7.44, 50.6191], [7.448, 50.62], [7.46, 50.632], [7.48, 50.6281], [7.4848, 50.64], [7.48, 50.644], [7.46, 50.6421], [7.44, 50.6416], [7.4342, 50.64], [7.4342, 50.62]]}}, {"type": "Feature", "properties": {"level": 1030.0}, "geometry": {"type": "LineString", "coordinates": [[7.9117, 50.62], [7.92, 50.6188], [7.9317, 50.62], [7.9236, 50.64], [7.92, 50.6422], [7.9117, 50.64], [7.9117, 50.62]]}}, {"type": "Feature", "properties": {"level": 1030.0}, "geometry": {"type": "LineString", "coordinates": [[7.5094, 50.64], [7.52, 50.6249], [7.54, 50.628], [7.56, 50.6265], [7.58, 50.6283], [7.5825, 50.64], [7.59, 50.66], [7.58, 50.6749], [7.56, 50.6737], [7.54, 50.6722], [7.5284, 50.66], [7.52, 50.6516], [7.5094, 50.64]]}}, {"type": "Feature", "properties": {"level": 1030.0}, "geometry": {"type": "LineString", "coordinates": [[7.8582, 50.66], [7.86, 50.6529], [7.88, 50.6514], [7.8845, 50.66], [7.88, 50.6614], [7.86, 50.6626], [7.8582, 50.66]]}}, {"type": "Feature", "properties": {"level": 1030.0}, "geometry": {"type": "LineString", "coordinates": [[8.5, 50.7047], [8.48, 50.7019], [8.46, 50.7065], [8.4434, 50.7], [8.44, 50.6964], [8.4301, 50.68], [8.44, 50.6689], [8.4503, 50.66], [8.46, 50.65], [8.48, 50.6559], [8.4903, 50.66], [8.5, 50.6687]]}}, {"type": "Feature", "properties": {"level": 1030.0}, "geometry": {"type": "LineString", "coordinates": [[7.96, 50.7978], [7.9586, 50.8], [7.96, 50.8008], [7.9617, 50.8], [7.96, 50.7978]]}}, {"type": "Feature", "properties": {"level": 1030.0}, "geometry": {"type": "LineString", "coordinates": [[8.5, 50.8509], [8.4951, 50.86], [8.48, 50.8752], [8.4748, 50.88], [8.48, 50.8867], [8.4945, 50.9], [8.5, 50.9053]]}}, {"type": "Feature", "properties": {"level": 1030.0}, "geometry": {"type": "LineString", "coordinates": [[8.4, 50.8748], [8.3918, 50.88], [8.3867, 50.9], [8.4, 50.9055], [8.42, 50.9058], [8.4266, 50.9], [8.4265, 50.88], [8.42, 50.8725], [8.4, 50.8748]]}}, {"type": "Feature", "properties": {"level": 1030.0}, "geometry": {"type": "LineString", "coordinates": [[8.5, 50.9301], [8.4856, 50.94], [8.48, 50.9478], [8.46, 50.9485], [8.4515, 50.94], [8.44, 50.9367], [8.42, 50.9319], [8.4, 50.9322], [8.3923, 50.94], [8.38, 50.9598], [8.3796, 50.96], [8.3776, 50.98], [8.38, 50.9811], [8.4, 50.9875], [8.415, 50.98], [8.42, 50.9764], [8.44, 50.9724], [8.4582, 50.98], [8.46, 50.9802], [8.48, 50.9803], [8.5, 50.9839]]}}, {"type": "Feature", "properties": {"level": 1030.0}, "geometry": {"type": "LineString", "coordinates": [[7.6368, 50.98], [7.64, 50.9737], [7.66, 50.9709], [7.662, 50.98], [7.66, 50.9838], [7.64, 50.986], [7.6368, 50.98]]}}, {"type": "Feature", "properties": {"level": 1030.0}, "geometry": {"type": "LineString", "coordinates": [[8.5, 51.0303], [8.48, 51.0264], [8.46, 51.0344], [8.44, 51.0331], [8.42, 51.0364], [8.4148, 51.04], [8.42, 51.0521], [8.44, 51.0521], [8.4444, 51.06], [8.44, 51.0681], [8.4205, 51.08], [8.42, 51.0804], [8.4168, 51.08], [8.4, 51.0792], [8.38, 51.0798], [8.36, 51.0723], [8.34, 51.0716], [8.32, 51.0737], [8.3124, 51.08], [8.3, 51.0911], [8.28, 51.0938], [8.2681, 51.08], [8.26, 51.0731], [8.2408, 51.06], [8.24, 51.0597], [8.2257, 51.06], [8.22, 51.0603], [8.2196, 51.06], [8.2, 51.0475], [8.18, 51.0475], [8.16, 51.0442], [8.1422, 51.06], [8.14, 51.0618], [8.1267, 51.08], [8.12, 51.0955], [8.118, 51.1], [8.1166, 51.12], [8.1, 51.14], [8.1, 51.14], [8.1, 51.1401], [8.12, 51.1532], [8.1322, 51.16], [8.14, 51.1694], [8.16, 51.1749], [8.1686, 51.16], [8.1713, 51.14], [8.18, 51.1296], [8.2, 51.1205], [8.22, 51.1205], [8.24, 51.1259], [8.26, 51.1295], [8.28, 51.1303], [8.2902, 51.14], [8.3, 51.1472], [8.32, 51.1492], [8.34, 51.1553], [8.36, 51.1559], [8.3687, 51.16], [8.36, 51.1731], [8.34, 51.1678], [8.3284, 51.18], [8.32, 51.1839], [8.3, 51.1848], [8.28, 51.1906], [8.2698, 51.2], [8.26, 51.2114], [8.2541, 51.22], [8.2592, 51.24], [8.26, 51.2461], [8.2755, 51.26], [8.28, 51.2633], [8.3, 51.2746], [8.3033, 51.28], [8.3, 51.2841], [8.2919, 51.3], [8.3, 51.3121], [8.3079, 51.32], [8.32, 51.3337], [8.34, 51.335], [8.3554, 51.34], [8.36, 51.3418], [8.38, 51.3417], [8.4, 51.3437], [8.42, 51.3443], [8.425, 51.34], [8.44, 51.3276], [8.4524, 51.32], [8.4559, 51.3], [8.44, 51.2924], [8.421, 51.28], [8.44, 51.2701], [8.46, 51.2664], [8.4759, 51.28], [8.48, 51.2832], [8.5, 51.2848]]}}, {"type": "Feature", "properties": {"level": 1030.0}, "geometry": {"type": "LineString", "coordinates": [[8.08, 51.16], [8.08, 51.16], [8.08, 51.1601], [8.0801, 51.16], [8.08, 51.16]]}}, {"type": "Feature", "properties": {"level": 1030.0}, "geometry": {"type": "LineString", "coordinates": [[7.78, 51.2188], [7.7751, 51.22], [7.78, 51.224], [7.8, 51.2272], [7.8025, 51.22], [7.8, 51.2189], [7.78, 51.2188]]}}, {"type": "Feature", "properties": {"level": 1030.0}, "geometry": {"type": "LineString", "coordinates": [[8.02, 51.336], [8.0171, 51.34], [8.02, 51.3562], [8.0212, 51.36], [8.02, 51.3613], [8.0, 51.3637], [7.9872, 51.38], [8.0, 51.3935], [8.02, 51.3993], [8.04, 51.3987], [8.06, 51.3916], [8.08, 51.3823], [8.0837, 51.38], [8.08, 51.3776], [8.0727, 51.36], [8.08, 51.3472], [8.0833, 51.34], [8.08, 51.3333], [8.06, 51.3321], [8.04, 51.3359], [8.02, 51.336]]}}, {"type": "Feature", "properties": {"level": 1030.0}, "geometry": {"type": "LineString", "coordinates": [[8.5, 51.382], [8.48, 51.3966], [8.46, 51.3935], [8.446, 51.4], [8.44, 51.4066], [8.42, 51.4064], [8.4141, 51.4], [8.4, 51.3943], [8.38, 51.3823], [8.36, 51.383], [8.3526, 51.38], [8.34, 51.3754], [8.32, 51.3769], [8.3, 51.3765], [8.28, 51.373], [8.26, 51.3701], [8.24, 51.3697], [8.22, 51.3731], [8.2, 51.3731], [8.1926, 51.38], [8.18, 51.3942], [8.1739, 51.4], [8.169, 51.42], [8.16, 51.4333], [8.14, 51.4227], [8.12, 51.4299], [8.1, 51.4277], [8.0863, 51.42], [8.08, 51.4158], [8.0748, 51.42], [8.06, 51.4304], [8.04, 51.4278], [8.0238, 51.42], [8.02, 51.4065], [8.0, 51.4132], [7.98, 51.4047], [7.9703, 51.4], [7.96, 51.3943], [7.9483, 51.38], [7.9449, 51.36], [7.9414, 51.34], [7.94, 51.3341], [7.9296, 51.32], [7.9375, 51.3], [7.94, 51.299], [7.96, 51.2993], [7.98, 51.2995], [7.9821, 51.3], [8.0, 51.3064], [8.02, 51.3082], [8.0349, 51.3], [8.04, 51.2983], [8.0486, 51.3], [8.06, 51.3079], [8.08, 51.3087], [8.1, 51.3117], [8.1083, 51.3], [8.12, 51.2918], [8.1324, 51.28], [8.14, 51.2655], [8.1421, 51.26], [8.14, 51.2576], [8.12, 51.256], [8.1, 51.2553], [8.08, 51.2559], [8.0721, 51.24], [8.08, 51.2208], [8.0808, 51.22], [8.0877, 51.2], [8.08, 51.1954], [8.0756, 51.2], [8.06, 51.2184], [8.04, 51.2096], [8.02, 51.2067], [8.0, 51.2133], [7.9925, 51.22], [7.98, 51.2325], [7.9723, 51.24], [7.96, 51.256], [7.94, 51.2529], [7.92, 51.2564], [7.9, 51.2508], [7.88, 51.2521], [7.8612, 51.26], [7.8613, 51.28], [7.86, 51.2913], [7.8558, 51.3], [7.86, 51.3022], [7.8778, 51.32], [7.88, 51.3225], [7.9, 51.3246], [7.9176, 51.34], [7.9, 51.3566], [7.8955, 51.36], [7.88, 51.3691], [7.8692, 51.36], [7.86, 51.3506], [7.8539, 51.34], [7.84, 51.3286], [7.8323, 51.32], [7.82, 51.3069], [7.8106, 51.3], [7.8, 51.2886], [7.7914, 51.28], [7.78, 51.2733], [7.76, 51.2754], [7.7548, 51.28], [7.74, 51.2916], [7.731, 51.3], [7.72, 51.3069], [7.7, 51.3142], [7.68, 51.3128], [7.664, 51.32], [7.66, 51.3219], [7.64, 51.3241], [7.6337, 51.32], [7.6395, 51.3], [7.64, 51.2982], [7.6499, 51.28], [7.64, 51.264], [7.62, 51.2614], [7.6, 51.2626], [7.58, 51.2632], [7.56, 51.2647], [7.54, 51.2718], [7.5241, 51.28], [7.52, 51.2864], [7.5, 51.2836], [7.4942, 51.28], [7.4941, 51.26], [7.4931, 51.24], [7.5, 51.2291], [7.507, 51.22], [7.52, 51.205], [7.526, 51.2], [7.5272, 51.18], [7.54, 51.1692], [7.56, 51.1648], [7.58, 51.1667], [7.5888, 51.18], [7.6, 51.1941], [7.6044, 51.2], [7.6, 51.211], [7.5899, 51.22], [7.6, 51.2268], [7.62, 51.2328], [7.64, 51.2372], [7.66, 51.2335], [7.6699, 51.22], [7.68, 51.2137], [7.7, 51.206], [7.7082, 51.2], [7.72, 51.1915], [7.74, 51.1903], [7.7467, 51.18], [7.76, 51.168], [7.78, 51.1619], [7.8, 51.1663], [7.8122, 51.16], [7.82, 51.1478], [7.8266, 51.14], [7.82, 51.1342], [7.8, 51.1272], [7.7899, 51.12], [7.78, 51.1122], [7.76, 51.1059], [7.74, 51.1061], [7.72, 51.1011], [7.7177, 51.1], [7.7, 51.0877], [7.6882, 51.08], [7.68, 51.0639], [7.6774, 51.06], [7.679, 51.04], [7.68, 51.0394], [7.6965, 51.02], [7.7, 51.0179], [7.7188, 51.0], [7.7071, 50.98], [7.7, 50.9689], [7.6828, 50.96], [7.68, 50.9555], [7.66, 50.9511], [7.655, 50.94], [7.66, 50.9391], [7.68, 50.9375], [7.7, 50.9382], [7.72, 50.9285], [7.74, 50.9285], [7.7523, 50.92], [7.76, 50.9116], [7.7669, 50.9], [7.76, 50.8909], [7.7538, 50.88], [7.74, 50.8628], [7.7347, 50.86], [7.723, 50.84], [7.74, 50.8326], [7.7467, 50.84], [7.76, 50.8472], [7.78, 50.8448], [7.8, 50.8405], [7.8018, 50.84], [7.8, 50.8375], [7.78, 50.8314], [7.7717, 50.82], [7.76, 50.8123], [7.74, 50.8046], [7.72, 50.809], [7.7, 50.8097], [7.68, 50.8069], [7.6683, 50.8], [7.672, 50.78], [7.68, 50.7752], [7.6952, 50.76], [7.7, 50.7582], [7.72, 50.7487], [7.7313, 50.76], [7.74, 50.7645], [7.76, 50.7757], [7.776, 50.78], [7.78, 50.7833], [7.8, 50.7834], [7.8055, 50.78], [7.82, 50.7785], [7.8273, 50.78], [7.84, 50.7899], [7.8542, 50.8], [7.86, 50.8058], [7.8683, 50.82], [7.88, 50.835], [7.8945, 50.84], [7.895, 50.86], [7.9, 50.8626], [7.92, 50.8633], [7.9236, 50.86], [7.9221, 50.84], [7.92, 50.8379], [7.9097, 50.82], [7.9, 50.8042], [7.8903, 50.8], [7.899, 50.78], [7.9, 50.7797], [7.9142, 50.78], [7.92, 50.7816], [7.921, 50.78], [7.94, 50.7768], [7.96, 50.778], [7.98, 50.7778], [8.0, 50.7755], [8.0096, 50.78], [8.02, 50.7871], [8.0319, 50.78], [8.04, 50.7705], [8.06, 50.7705], [8.0663, 50.78], [8.06, 50.791], [8.054, 50.8], [8.0497, 50.82], [8.06, 50.8237], [8.08, 50.8262], [8.1, 50.828], [8.12, 50.8325], [8.1306, 50.84], [8.14, 50.847], [8.1583, 50.86], [8.16, 50.8631], [8.1771, 50.88], [8.1771, 50.9], [8.16, 50.9095], [8.14, 50.9152], [8.12, 50.915], [8.1088, 50.92], [8.1152, 50.94], [8.12, 50.9442], [8.1334, 50.96], [8.12, 50.9798], [8.1198, 50.98], [8.1, 50.9962], [8.08, 50.9854], [8.06, 50.9867], [8.047, 50.98], [8.04, 50.9748], [8.0216, 50.98], [8.02, 50.9805], [8.0187, 50.98], [8.0, 50.9729], [7.98, 50.9712], [7.9617, 50.98], [7.96, 50.9814], [7.94, 50.9824], [7.9297, 50.98], [7.94, 50.9651], [7.9408, 50.96], [7.96, 50.9429], [7.9617, 50.94], [7.96, 50.9369], [7.94, 50.9369], [7.92, 50.9232], [7.9172, 50.94], [7.92, 50.9585], [7.9247, 50.96], [7.92, 50.962], [7.9, 50.9774], [7.8982, 50.98], [7.8894, 51.0], [7.9, 51.0164], [7.9014, 51.02], [7.9, 51.0215], [7.8886, 51.04], [7.8926, 51.06], [7.9, 51.0777], [7.9103, 51.08], [7.92, 51.0811], [7.94, 51.0877], [7.96, 51.0838], [7.98, 51.0838], [7.9949, 51.08], [8.0, 51.0782], [8.02, 51.0771], [8.04, 51.0766], [8.06, 51.072], [8.0779, 51.06], [8.08, 51.0568], [8.1, 51.0483], [8.1107, 51.04], [8.12, 51.0312], [8.14, 51.0322], [8.16, 51.0363], [8.18, 51.0289], [8.2, 51.0289], [8.204, 51.02], [8.2, 51.0105], [8.1881, 51.0], [8.1881, 50.98], [8.2, 50.9647], [8.2054, 50.96], [8.22, 50.955], [8.2347, 50.96], [8.24, 50.9611], [8.2424, 50.96], [8.26, 50.946], [8.2702, 50.94], [8.28, 50.9305], [8.3, 50.9305], [8.3116, 50.92], [8.32, 50.9117], [8.3312, 50.9], [8.34, 50.8917], [8.3525, 50.88], [8.3558, 50.86], [8.34, 50.8479], [8.3294, 50.84], [8.32, 50.831], [8.3105, 50.82], [8.3033, 50.8], [8.3047, 50.78], [8.3, 50.7765], [8.28, 50.7797], [8.26, 50.7793], [8.24, 50.7677], [8.2265, 50.76], [8.2312, 50.74], [8.24, 50.732], [8.26, 50.7303], [8.28, 50.7271], [8.2869, 50.72], [8.2832, 50.7], [8.2885, 50.68], [8.3, 50.6602], [8.3005, 50.66], [8.32, 50.6515], [8.3357, 50.64], [8.34, 50.6299], [8.3462, 50.62], [8.34, 50.6131], [8.32, 50.6032], [8.3197, 50.6], [8.32, 50.5995], [8.34, 50.594], [8.36, 50.5972], [8.38, 50.5921], [8.4, 50.5921], [8.42, 50.5964], [8.44, 50.5914], [8.4456, 50.6], [8.44, 50.6052], [8.4252, 50.62], [8.42, 50.6248], [8.4, 50.6259], [8.38, 50.6274], [8.3623, 50.64], [8.3619, 50.66], [8.3652, 50.68], [8.3648, 50.7], [8.36, 50.7042], [8.34, 50.7053], [8.3331, 50.72], [8.34, 50.7361], [8.3417, 50.74], [8.34, 50.7494], [8.3373, 50.76], [8.34, 50.7632], [8.348, 50.78], [8.3594, 50.8], [8.36, 50.8015], [8.38, 50.8147], [8.3855, 50.82], [8.4, 50.8277], [8.42, 50.8304], [8.44, 50.8304], [8.46, 50.8327], [8.48, 50.8324], [8.5, 50.8345]]}}, {"type": "Feature", "properties": {"level": 1030.0}, "geometry": {"type": "LineString", "coordinates": [[8.4316, 51.44], [8.44, 51.4349], [8.46, 51.4349], [8.4682, 51.44], [8.48, 51.4521], [8.4845, 51.46], [8.48, 51.4641], [8.4707, 51.48], [8.4715, 51.5], [8.46, 51.5075], [8.44, 51.5116], [8.42, 51.5126], [8.4, 51.5121], [8.38, 51.5077], [8.3649, 51.52], [8.36, 51.5234], [8.34, 51.524], [8.32, 51.523], [8.3114, 51.52], [8.3, 51.5125], [8.2898, 51.5], [8.3, 51.4884], [8.3058, 51.48], [8.32, 51.4619], [8.34, 51.4656], [8.3467, 51.46], [8.36, 51.4545], [8.38, 51.4524], [8.4, 51.4571], [8.42, 51.447], [8.4316, 51.44]]}}, {"type": "Feature", "properties": {"level": 1030.0}, "geometry": {"type": "LineString", "coordinates": [[8.5, 51.5412], [8.4994, 51.54], [8.5, 51.5375]]}}]}