{"type": "FeatureCollection", "features": [{"type": "Feature", "properties": {"level": 1030.0}, "geometry": {"type": "LineString", "coordinates": [[2.9413, 53.98], [2.94, 53.9789], [2.92, 53.9644], [2.9, 53.9616], [2.8982, 53.96], [2.88, 53.9435], [2.8681, 53.94], [2.88, 53.9281], [2.8825, 53.92], [2.88, 53.9178], [2.86, 53.9142], [2.8542, 53.92], [2.84, 53.9255], [2.8335, 53.92], [2.82, 53.9017], [2.8188, 53.9], [2.8, 53.8852], [2.7913, 53.88], [2.78, 53.8725], [2.7619, 53.86], [2.76, 53.8588], [2.74, 53.8517], [2.72, 53.8452], [2.7, 53.8431], [2.6952, 53.84], [2.68, 53.83], [2.665, 53.82], [2.66, 53.815], [2.6485, 53.8], [2.64, 53.7936], [2.6243, 53.8], [2.62, 53.8018], [2.6178, 53.8], [2.62, 53.7915], [2.623, 53.78], [2.62, 53.7776], [2.6, 53.7738], [2.58, 53.761], [2.5787, 53.76], [2.56, 53.7445], [2.5545, 53.74], [2.54, 53.7309], [2.5277, 53.72], [2.52, 53.7131], [2.5, 53.7105]]}}]}