{"type": "FeatureCollection", "features": [{"type": "Feature", "properties": {"level": 1020.0}, "geometry": {"type": "LineString", "coordinates": [[3.0587, 53.98], [3.04, 53.9723], [3.02, 53.9616], [3.0, 53.9609], [2.9972, 53.96], [2.98, 53.9542], [2.96, 53.955], [2.94, 53.9578], [2.92, 53.9513], [2.9, 53.9507], [2.88, 53.9475], [2.86, 53.9488], [2.8413, 53.94], [2.84, 53.9393], [2.82, 53.9379], [2.8, 53.9286], [2.7809, 53.92], [2.78, 53.9191], [2.7609, 53.9], [2.76, 53.8996], [2.7554, 53.9], [2.7554, 53.92], [2.74, 53.9214], [2.7365, 53.92], [2.72, 53.9035], [2.7152, 53.9], [2.7, 53.8954], [2.68, 53.8918], [2.66, 53.8884], [2.6404, 53.88], [2.64, 53.8799], [2.6393, 53.88], [2.62, 53.8855], [2.6, 53.8942], [2.58, 53.8927], [2.56, 53.8895], [2.5505, 53.88], [2.54, 53.8766], [2.5213, 53.88], [2.52, 53.8813], [2.5, 53.8806]]}}, {"type": "Feature", "properties": {"level": 1020.0}, "geometry": {"type": "LineString", "coordinates": [[3.1492, 53.98], [3.14, 53.9756], [3.12, 53.9763], [3.1, 53.973], [3.08, 53.9727], [3.0615, 53.98]]}}]}