{"type": "FeatureCollection", "features": [{"type": "Feature", "properties": {"level": 1030.0}, "geometry": {"type": "LineString", "coordinates": [[8.5, 53.9053], [8.48, 53.9038], [8.46, 53.9014], [8.44, 53.9076], [8.42, 53.9049], [8.4129, 53.9], [8.4, 53.8913], [8.38, 53.8844], [8.36, 53.8881], [8.34, 53.887], [8.32, 53.883], [8.3, 53.888], [8.28, 53.888], [8.26, 53.8894], [8.24, 53.8883], [8.22, 53.8934], [8.2, 53.8948], [8.18, 53.8926], [8.16, 53.8914], [8.14, 53.8854], [8.1279, 53.88], [8.12, 53.8764], [8.1, 53.8771], [8.0854, 53.88], [8.08, 53.8811], [8.0762, 53.88], [8.06, 53.874], [8.04, 53.8762], [8.02, 53.8762], [8.0, 53.8672], [7.98, 53.8638], [7.96, 53.8676], [7.94, 53.8689], [7.92, 53.8604], [7.9, 53.8618], [7.8951, 53.86], [7.88, 53.8557], [7.86, 53.8585], [7.84, 53.8585], [7.82, 53.8547], [7.8, 53.8508], [7.78, 53.8485], [7.76, 53.8488], [7.74, 53.8444], [7.72, 53.8445], [7.712, 53.84], [7.7, 53.8358], [7.68, 53.8372], [7.66, 53.8358], [7.64, 53.8305], [7.6243, 53.84], [7.62, 53.843], [7.6, 53.8471], [7.58, 53.8402], [7.56, 53.8401], [7.54, 53.8415], [7.52, 53.8422], [7.5, 53.8493], [7.48, 53.8533], [7.46, 53.8539], [7.44, 53.8553], [7.42, 53.8553], [7.4, 53.853], [7.38, 53.8439], [7.36, 53.844], [7.34, 53.8447], [7.32, 53.8452], [7.3, 53.846], [7.2821, 53.84], [7.28, 53.8395], [7.2743, 53.84], [7.26, 53.8423], [7.24, 53.8473], [7.22, 53.8498], [7.2, 53.8485], [7.1915, 53.84], [7.18, 53.837], [7.1621, 53.84], [7.1621, 53.86], [7.16, 53.8605], [7.1586, 53.86], [7.14, 53.854], [7.12, 53.8544], [7.1, 53.849], [7.08, 53.8498], [7.0643, 53.84], [7.06, 53.8357], [7.04, 53.8374], [7.02, 53.8339], [7.0, 53.8349], [6.9907, 53.84], [6.98, 53.8566], [6.9671, 53.86], [6.96, 53.8652], [6.94, 53.8608], [6.92, 53.8734], [6.9041, 53.88], [6.9, 53.8841], [6.8841, 53.9], [6.88, 53.9038], [6.86, 53.9053], [6.84, 53.9143], [6.8304, 53.92], [6.82, 53.9324], [6.8, 53.9318], [6.78, 53.9335], [6.7625, 53.94], [6.76, 53.9408], [6.74, 53.9433], [6.726, 53.94], [6.72, 53.9394], [6.7, 53.9391], [6.6982, 53.94], [6.68, 53.9487], [6.6687, 53.96], [6.66, 53.963], [6.64, 53.9607], [6.62, 53.9607], [6.6, 53.9722], [6.58, 53.9722], [6.56, 53.9733], [6.54, 53.9744], [6.52, 53.9709], [6.5, 53.9629], [6.48, 53.9629], [6.46, 53.9617], [6.458, 53.96], [6.44, 53.9535], [6.42, 53.954], [6.4, 53.954], [6.3903, 53.96], [6.38, 53.9701], [6.3729, 53.98]]}}, {"type": "Feature", "properties": {"level": 1030.0}, "geometry": {"type": "LineString", "coordinates": [[5.0336, 53.98], [5.02, 53.9621], [5.0186, 53.96], [5.0, 53.9414], [4.9979, 53.94], [4.98, 53.9228], [4.9768, 53.92], [4.96, 53.9101], [4.94, 53.906], [4.9301, 53.9], [4.92, 53.892], [4.9041, 53.88], [4.9, 53.8776], [4.88, 53.8668], [4.86, 53.863], [4.8551, 53.86], [4.84, 53.8417], [4.82, 53.8504], [4.8007, 53.84], [4.8, 53.8393], [4.7807, 53.82], [4.78, 53.8196], [4.76, 53.8193], [4.74, 53.8086], [4.7237, 53.8], [4.72, 53.798], [4.7, 53.7972], [4.68, 53.794], [4.66, 53.7853], [4.6496, 53.78], [4.64, 53.7749], [4.62, 53.7671], [4.6, 53.765], [4.58, 53.7618], [4.5764, 53.76], [4.56, 53.7509], [4.54, 53.7414], [4.52, 53.7402], [4.5, 53.7402], [4.4996, 53.74], [4.48, 53.729], [4.4646, 53.72], [4.46, 53.7176], [4.44, 53.7114], [4.42, 53.7053], [4.4105, 53.7], [4.4, 53.694], [4.38, 53.6937], [4.36, 53.6863], [4.34, 53.683], [4.3352, 53.68], [4.32, 53.6622], [4.3183, 53.66], [4.3, 53.6469], [4.2883, 53.64], [4.28, 53.6343], [4.26, 53.6204], [4.2585, 53.62], [4.24, 53.6176], [4.22, 53.6149], [4.2, 53.6047], [4.194, 53.6], [4.18, 53.589], [4.1707, 53.58], [4.16, 53.5735], [4.1406, 53.56], [4.14, 53.5592], [4.1208, 53.54], [4.12, 53.5395], [4.1187, 53.54], [4.1, 53.5568], [4.08, 53.5479], [4.0703, 53.54], [4.06, 53.5254], [4.0563, 53.52], [4.04, 53.505], [4.0319, 53.5], [4.02, 53.4904], [4.0055, 53.48], [4.0, 53.477], [3.98, 53.4666], [3.96, 53.4666], [3.9435, 53.46], [3.94, 53.4585], [3.92, 53.4474], [3.9109, 53.44], [3.9, 53.4312], [3.8861, 53.42], [3.88, 53.4115], [3.8685, 53.4], [3.86, 53.3939], [3.8405, 53.38], [3.84, 53.3796], [3.82, 53.3769], [3.8, 53.3729], [3.78, 53.3642], [3.7722, 53.36], [3.76, 53.3533], [3.74, 53.3437], [3.72, 53.3417], [3.7, 53.3407], [3.6986, 53.34], [3.68, 53.3295], [3.6631, 53.32], [3.66, 53.3184], [3.64, 53.3157], [3.62, 53.308], [3.6, 53.3003], [3.58, 53.3004], [3.56, 53.302], [3.5551, 53.3], [3.54, 53.2931], [3.52, 53.2899], [3.5, 53.2868], [3.4803, 53.28], [3.48, 53.2798], [3.4603, 53.26], [3.46, 53.2599], [3.4588, 53.26], [3.4588, 53.28], [3.44, 53.2815], [3.4366, 53.28], [3.42, 53.2634], [3.4, 53.2677], [3.38, 53.2646], [3.3664, 53.26], [3.36, 53.2547], [3.34, 53.2547], [3.32, 53.2498], [3.3, 53.2443], [3.2948, 53.24], [3.28, 53.2342], [3.26, 53.2299], [3.24, 53.2276], [3.22, 53.2287], [3.2007, 53.24], [3.2, 53.2404], [3.1979, 53.24], [3.18, 53.2312], [3.1613, 53.22], [3.16, 53.2197], [3.14, 53.2195], [3.12, 53.2127], [3.1, 53.2148], [3.08, 53.2129], [3.06, 53.2098], [3.04, 53.2022], [3.02, 53.2046], [3.0091, 53.2], [3.0, 53.1966], [2.98, 53.1993], [2.96, 53.1991], [2.94, 53.1932], [2.92, 53.188], [2.9, 53.1858], [2.8855, 53.18], [2.88, 53.1777], [2.86, 53.1797], [2.84, 53.1794], [2.82, 53.1713], [2.8, 53.1676], [2.78, 53.1667], [2.7627, 53.16], [2.76, 53.1588], [2.7478, 53.16], [2.74, 53.1611], [2.72, 53.1607], [2.7184, 53.16], [2.7, 53.1524], [2.68, 53.1508], [2.66, 53.1477], [2.6417, 53.14], [2.64, 53.1392], [2.62, 53.1393], [2.604, 53.14], [2.6, 53.1402], [2.5996, 53.14], [2.58, 53.1307], [2.56, 53.1219], [2.54, 53.1207], [2.5387, 53.12], [2.52, 53.1104], [2.5, 53.1004]]}}]}