{"type": "FeatureCollection", "features": [{"type": "Feature", "properties": {"level": 1015.0}, "geometry": {"type": "LineString", "coordinates": [[6.2674, 50.5], [6.28, 50.508], [6.2869, 50.52], [6.3, 50.5321], [6.3096, 50.54], [6.32, 50.5452], [6.34, 50.5484], [6.36, 50.554], [6.3675, 50.56], [6.38, 50.57], [6.4, 50.5739], [6.409, 50.58], [6.42, 50.5987], [6.4212, 50.6], [6.4224, 50.62], [6.42, 50.6218], [6.4, 50.6304], [6.3839, 50.62], [6.38, 50.6161], [6.3687, 50.6], [6.36, 50.5934], [6.34, 50.5916], [6.32, 50.5874], [6.3107, 50.58], [6.3, 50.5747], [6.28, 50.5767], [6.26, 50.5758], [6.24, 50.5716], [6.2278, 50.56], [6.22, 50.5492], [6.2101, 50.54], [6.208, 50.52], [6.2182, 50.5]]}}, {"type": "Feature", "properties": {"level": 1015.0}, "geometry": {"type": "LineString", "coordinates": [[6.5106, 50.5], [6.52, 50.5153], [6.5314, 50.52], [6.54, 50.5252], [6.5522, 50.52], [6.56, 50.5176], [6.5691, 50.52], [6.58, 50.5299], [6.5831, 50.54], [6.58, 50.5475], [6.56, 50.5556], [6.54, 50.5586], [6.5396, 50.56], [6.54, 50.5611], [6.5487, 50.58], [6.54, 50.59], [6.52, 50.59], [6.5, 50.5956], [6.48, 50.5917], [6.4697, 50.58], [6.4628, 50.56], [6.46, 50.5572], [6.447, 50.54], [6.44, 50.5305], [6.4318, 50.52], [6.42, 50.5053], [6.4129, 50.5]]}}, {"type": "Feature", "properties": {"level": 1015.0}, "geometry": {"type": "LineString", "coordinates": [[7.0302, 50.5], [7.0323, 50.52], [7.02, 50.5272], [7.0146, 50.54], [7.0, 50.5512], [6.98, 50.5459], [6.9677, 50.54], [6.96, 50.532], [6.9468, 50.52], [6.94, 50.5126], [6.92, 50.5032], [6.9119, 50.5]]}}, {"type": "Feature", "properties": {"level": 1015.0}, "geometry": {"type": "LineString", "coordinates": [[7.78, 50.5745], [7.7609, 50.58], [7.76, 50.5855], [7.74, 50.5965], [7.72, 50.5998], [7.7199, 50.6], [7.72, 50.6004], [7.74, 50.6003], [7.76, 50.6019], [7.7781, 50.62], [7.78, 50.6223], [7.8, 50.6277], [7.82, 50.6388], [7.84, 50.6331], [7.8418, 50.62], [7.8503, 50.6], [7.84, 50.5863], [7.8343, 50.58], [7.82, 50.5725], [7.8, 50.5716], [7.78, 50.5745]]}}, {"type": "Feature", "properties": {"level": 1015.0}, "geometry": {"type": "LineString", "coordinates": [[7.46, 51.0793], [7.4555, 51.08], [7.46, 51.0804], [7.4723, 51.08], [7.46, 51.0793]]}}, {"type": "Feature", "properties": {"level": 1015.0}, "geometry": {"type": "LineString", "coordinates": [[7.5, 51.0796], [7.4937, 51.08], [7.5, 51.0802], [7.5013, 51.08], [7.5, 51.0796]]}}, {"type": "Feature", "properties": {"level": 1015.0}, "geometry": {"type": "LineString", "coordinates": [[7.36, 51.1961], [7.3582, 51.2], [7.36, 51.2088], [7.38, 51.206], [7.3807, 51.2], [7.38, 51.1966], [7.36, 51.1961]]}}, {"type": "Feature", "properties": {"level": 1015.0}, "geometry": {"type": "LineString", "coordinates": [[7.62, 51.2778], [7.6136, 51.28], [7.6, 51.2855], [7.5819, 51.3], [7.58, 51.3023], [7.5666, 51.32], [7.5761, 51.34], [7.58, 51.3453], [7.6, 51.3423], [7.6016, 51.34], [7.6066, 51.32], [7.6189, 51.3], [7.62, 51.2952], [7.6226, 51.28], [7.62, 51.2778]]}}, {"type": "Feature", "properties": {"level": 1015.0}, "geometry": {"type": "LineString", "coordinates": [[7.42, 51.2927], [7.4099, 51.3], [7.4, 51.311], [7.3907, 51.32], [7.4, 51.3379], [7.4022, 51.34], [7.42, 51.3587], [7.4214, 51.36], [7.44, 51.3758], [7.4593, 51.36], [7.46, 51.3596], [7.4774, 51.34], [7.48, 51.337], [7.4887, 51.32], [7.48, 51.3072], [7.4728, 51.3], [7.46, 51.2849], [7.44, 51.2811], [7.42, 51.2927]]}}, {"type": "Feature", "properties": {"level": 1015.0}, "geometry": {"type": "LineString", "coordinates": [[7.76, 51.3182], [7.7533, 51.32], [7.76, 51.3342], [7.78, 51.3322], [7.7817, 51.32], [7.78, 51.3182], [7.76, 51.3182]]}}, {"type": "Feature", "properties": {"level": 1015.0}, "geometry": {"type": "LineString", "coordinates": [[7.7, 51.3375], [7.6895, 51.34], [7.68, 51.348], [7.6652, 51.36], [7.66, 51.3685], [7.6533, 51.38], [7.66, 51.3919], [7.6703, 51.4], [7.68, 51.4092], [7.6903, 51.4], [7.7, 51.3955], [7.72, 51.3915], [7.74, 51.3966], [7.7511, 51.4], [7.76, 51.4013], [7.78, 51.4054], [7.8, 51.4012], [7.82, 51.4007], [7.8207, 51.4], [7.84, 51.3853], [7.8436, 51.38], [7.84, 51.3721], [7.8297, 51.36], [7.82, 51.3418], [7.8166, 51.34], [7.8, 51.3344], [7.7827, 51.34], [7.78, 51.3424], [7.76, 51.3535], [7.74, 51.3578], [7.7231, 51.34], [7.72, 51.3384], [7.7, 51.3375]]}}, {"type": "Feature", "properties": {"level": 1015.0}, "geometry": {"type": "LineString", "coordinates": [[7.38, 51.3788], [7.3767, 51.38], [7.38, 51.3833], [7.4, 51.393], [7.403, 51.38], [7.4, 51.379], [7.38, 51.3788]]}}, {"type": "Feature", "properties": {"level": 1015.0}, "geometry": {"type": "LineString", "coordinates": [[8.5, 51.5907], [8.4891, 51.58], [8.48, 51.5717], [8.4638, 51.56], [8.46, 51.5528], [8.44, 51.556], [8.4205, 51.56], [8.42, 51.5601], [8.4196, 51.56], [8.4, 51.5542], [8.3826, 51.56], [8.38, 51.5615], [8.3763, 51.56], [8.36, 51.5556], [8.34, 51.5567], [8.3204, 51.56], [8.32, 51.5606], [8.3191, 51.56], [8.3, 51.5584], [8.2944, 51.56], [8.2817, 51.58], [8.2838, 51.6], [8.28, 51.6021], [8.26, 51.605], [8.24, 51.6065], [8.22, 51.6083], [8.2026, 51.6], [8.2, 51.5989], [8.18, 51.5972], [8.16, 51.5941], [8.1497, 51.58], [8.16, 51.5643], [8.162, 51.56], [8.16, 51.5584], [8.1415, 51.54], [8.14, 51.5393], [8.12, 51.5341], [8.1013, 51.52], [8.1, 51.519], [8.08, 51.5161], [8.06, 51.5116], [8.04, 51.5171], [8.02, 51.5177], [8.0, 51.518], [7.98, 51.5175], [7.96, 51.5114], [7.9465, 51.52], [7.94, 51.5241], [7.92, 51.5269], [7.9, 51.5294], [7.88, 51.5265], [7.865, 51.52], [7.86, 51.5155], [7.84, 51.517], [7.82, 51.5118], [7.8, 51.5099], [7.78, 51.5016], [7.7714, 51.5], [7.76, 51.4967], [7.74, 51.4867], [7.72, 51.4857], [7.7, 51.4888], [7.68, 51.4906], [7.6647, 51.5], [7.66, 51.5021], [7.6557, 51.5], [7.64, 51.4902], [7.62, 51.4856], [7.6, 51.4838], [7.58, 51.4834], [7.575, 51.48], [7.56, 51.4695], [7.5425, 51.46], [7.54, 51.4581], [7.5227, 51.44], [7.52, 51.4346], [7.5006, 51.42], [7.5, 51.4197], [7.4993, 51.42], [7.48, 51.4266], [7.46, 51.4238], [7.44, 51.4205], [7.42, 51.4202], [7.4196, 51.42], [7.42, 51.4183], [7.4285, 51.4], [7.42, 51.392], [7.4025, 51.4], [7.4, 51.4007], [7.38, 51.4049], [7.36, 51.4025], [7.34, 51.4014], [7.3312, 51.4], [7.32, 51.3888], [7.3151, 51.38], [7.32, 51.3633], [7.3203, 51.36], [7.32, 51.3597], [7.3, 51.3586], [7.2971, 51.34], [7.3, 51.3318], [7.3052, 51.32], [7.32, 51.3042], [7.323, 51.3], [7.323, 51.28], [7.32, 51.2667], [7.3, 51.2755], [7.2951, 51.28], [7.2817, 51.3], [7.28, 51.3005], [7.2768, 51.3], [7.26, 51.2958], [7.24, 51.2944], [7.22, 51.2861], [7.2086, 51.28], [7.22, 51.2686], [7.2255, 51.26], [7.2331, 51.24], [7.24, 51.2347], [7.26, 51.2219], [7.264, 51.22], [7.2763, 51.2], [7.2684, 51.18], [7.28, 51.1609], [7.2807, 51.16], [7.28, 51.1589], [7.2656, 51.14], [7.26, 51.131], [7.2498, 51.12], [7.24, 51.1137], [7.222, 51.1], [7.22, 51.0975], [7.2125, 51.08], [7.22, 51.071], [7.2271, 51.06], [7.24, 51.0477], [7.251, 51.04], [7.24, 51.0212], [7.2391, 51.02], [7.2392, 51.0], [7.24, 50.9949], [7.26, 50.9841], [7.2641, 50.98], [7.2722, 50.96], [7.28, 50.958], [7.3, 50.9519], [7.32, 50.9563], [7.34, 50.9581], [7.3475, 50.96], [7.36, 50.9631], [7.38, 50.9625], [7.391, 50.96], [7.4, 50.9553], [7.4111, 50.96], [7.42, 50.9616], [7.424, 50.96], [7.44, 50.947], [7.4529, 50.94], [7.44, 50.9262], [7.42, 50.9239], [7.4166, 50.92], [7.42, 50.9098], [7.4228, 50.9], [7.42, 50.8976], [7.4, 50.8954], [7.38, 50.8843], [7.371, 50.88], [7.3618, 50.86], [7.36, 50.8563], [7.34, 50.8563], [7.3339, 50.84], [7.34, 50.8347], [7.36, 50.8346], [7.38, 50.8304], [7.4, 50.8266], [7.42, 50.828], [7.4295, 50.82], [7.42, 50.8036], [7.4184, 50.8], [7.4, 50.7829], [7.3934, 50.78], [7.3909, 50.76], [7.4, 50.7554], [7.42, 50.751], [7.44, 50.7533], [7.46, 50.7502], [7.48, 50.7504], [7.5, 50.7468], [7.52, 50.7436], [7.5226, 50.74], [7.52, 50.7255], [7.5182, 50.72], [7.5, 50.7112], [7.4839, 50.7], [7.48, 50.6978], [7.46, 50.6919], [7.44, 50.6872], [7.42, 50.6889], [7.4, 50.6803], [7.38, 50.6858], [7.3694, 50.68], [7.36, 50.6745], [7.3454, 50.66], [7.3491, 50.64], [7.3507, 50.62], [7.36, 50.6062], [7.3649, 50.6], [7.38, 50.5871], [7.3954, 50.58], [7.3932, 50.56], [7.4, 50.5526], [7.42, 50.5529], [7.4257, 50.56], [7.4234, 50.58], [7.44, 50.5972], [7.46, 50.594], [7.4736, 50.6], [7.48, 50.6028], [7.4899, 50.6], [7.5, 50.5969], [7.5072, 50.6], [7.52, 50.6046], [7.5289, 50.6], [7.54, 50.5945], [7.56, 50.5832], [7.58, 50.5829], [7.5814, 50.58], [7.58, 50.5765], [7.5743, 50.56], [7.58, 50.5431], [7.5834, 50.54], [7.5919, 50.52], [7.58, 50.5131], [7.56, 50.5059], [7.5502, 50.5]]}}, {"type": "Feature", "properties": {"level": 1015.0}, "geometry": {"type": "LineString", "coordinates": [[8.5, 51.7478], [8.4949, 51.74], [8.4997, 51.72], [8.5, 51.7187]]}}, {"type": "Feature", "properties": {"level": 1015.0}, "geometry": {"type": "LineString", "coordinates": [[8.2703, 51.78], [8.28, 51.7784], [8.2828, 51.78], [8.3, 51.7972], [8.3019, 51.8], [8.3, 51.8038], [8.2873, 51.82], [8.28, 51.823], [8.26, 51.823], [8.2533, 51.82], [8.26, 51.806], [8.2703, 51.8], [8.2703, 51.78]]}}, {"type": "Feature", "properties": {"level": 1015.0}, "geometry": {"type": "LineString", "coordinates": [[8.2, 52.0968], [8.1943, 52.1], [8.2, 52.1038], [8.22, 52.1086], [8.2241, 52.1], [8.22, 52.0973], [8.2, 52.0968]]}}, {"type": "Feature", "properties": {"level": 1015.0}, "geometry": {"type": "LineString", "coordinates": [[7.98, 52.1769], [7.9787, 52.18], [7.98, 52.1805], [8.0, 52.1803], [8.0006, 52.18], [8.0, 52.1769], [7.98, 52.1769]]}}, {"type": "Feature", "properties": {"level": 1015.0}, "geometry": {"type": "LineString", "coordinates": [[7.7747, 52.3], [7.78, 52.2931], [7.7962, 52.3], [7.78, 52.3059], [7.7747, 52.3]]}}, {"type": "Feature", "properties": {"level": 1015.0}, "geometry": {"type": "LineString", "coordinates": [[8.08, 52.5389], [8.0795, 52.54], [8.08, 52.541], [8.0945, 52.56], [8.1, 52.5633], [8.1078, 52.56], [8.1019, 52.54], [8.1, 52.5379], [8.08, 52.5389]]}}, {"type": "Feature", "properties": {"level": 1015.0}, "geometry": {"type": "LineString", "coordinates": [[6.7, 53.4709], [6.6839, 53.48], [6.7, 53.4848], [6.7161, 53.48], [6.7, 53.4709]]}}, {"type": "Feature", "properties": {"level": 1015.0}, "geometry": {"type": "LineString", "coordinates": [[6.3149, 53.98], [6.32, 53.9727], [6.3353, 53.96], [6.34, 53.9552], [6.3523, 53.94], [6.36, 53.9322], [6.371, 53.92], [6.38, 53.9097], [6.3884, 53.9], [6.3884, 53.88], [6.4, 53.8688], [6.4118, 53.86], [6.42, 53.8516], [6.4374, 53.84], [6.44, 53.8364], [6.46, 53.8239], [6.48, 53.8213], [6.4818, 53.82], [6.48, 53.8119], [6.46, 53.8119], [6.4546, 53.8], [6.46, 53.7932], [6.479, 53.78], [6.48, 53.7792], [6.4886, 53.76], [6.5, 53.7486], [6.5055, 53.74], [6.5127, 53.72], [6.52, 53.7104], [6.5304, 53.7], [6.54, 53.6931], [6.56, 53.6824], [6.58, 53.6833], [6.5841, 53.68], [6.6, 53.6728], [6.62, 53.6644], [6.64, 53.6652], [6.6433, 53.66], [6.66, 53.6455], [6.6641, 53.64], [6.66, 53.6293], [6.6565, 53.62], [6.6489, 53.6], [6.6516, 53.58], [6.6469, 53.56], [6.6416, 53.54], [6.64, 53.5373], [6.6296, 53.52], [6.62, 53.5055], [6.611, 53.5], [6.6, 53.4832], [6.5981, 53.48], [6.58, 53.4613], [6.5792, 53.46], [6.58, 53.459], [6.588, 53.44], [6.58, 53.4286], [6.5746, 53.42], [6.5689, 53.4], [6.58, 53.3843], [6.5838, 53.38], [6.5924, 53.36], [6.6, 53.3568], [6.62, 53.3543], [6.64, 53.3482], [6.6532, 53.36], [6.66, 53.3656], [6.6749, 53.38], [6.68, 53.3891], [6.6875, 53.4], [6.7, 53.409], [6.72, 53.402], [6.74, 53.402], [6.742, 53.4], [6.74, 53.385], [6.7396, 53.38], [6.74, 53.3797], [6.753, 53.36], [6.76, 53.3511], [6.7659, 53.34], [6.7732, 53.32], [6.78, 53.3106], [6.7874, 53.3], [6.8, 53.2833], [6.8019, 53.28], [6.82, 53.2619], [6.8212, 53.26], [6.82, 53.2574], [6.8, 53.2574], [6.7867, 53.26], [6.78, 53.2616], [6.7791, 53.26], [6.78, 53.2583], [6.7891, 53.24], [6.8, 53.2249], [6.8066, 53.22], [6.8127, 53.2], [6.82, 53.1942], [6.8322, 53.18], [6.84, 53.1683], [6.8476, 53.16], [6.86, 53.1461], [6.8686, 53.14], [6.8705, 53.12], [6.88, 53.1128], [6.8937, 53.1], [6.9, 53.0912], [6.9075, 53.08], [6.92, 53.0692], [6.9303, 53.06], [6.9357, 53.04], [6.94, 53.0348], [6.9533, 53.02], [6.96, 53.0157], [6.9747, 53.0], [6.98, 52.9917], [6.9877, 52.98], [6.9874, 52.96], [6.9995, 52.94], [7.0, 52.9387], [7.0091, 52.92], [7.0, 52.9109], [6.9962, 52.9], [7.0, 52.8933], [7.0166, 52.88], [7.02, 52.8746], [7.037, 52.86], [7.04, 52.8564], [7.06, 52.8529], [7.08, 52.8527], [7.0998, 52.86], [7.1, 52.8601], [7.1001, 52.86], [7.12, 52.8517], [7.14, 52.8492], [7.16, 52.8535], [7.1708, 52.84], [7.18, 52.8293], [7.1893, 52.82], [7.2, 52.8139], [7.22, 52.8043], [7.2237, 52.8], [7.22, 52.7904], [7.2188, 52.78], [7.22, 52.7787], [7.2373, 52.76], [7.24, 52.756], [7.2469, 52.74], [7.26, 52.7236], [7.2641, 52.72], [7.26, 52.7], [7.28, 52.6844], [7.2841, 52.68], [7.28, 52.6693], [7.2747, 52.66], [7.2747, 52.64], [7.28, 52.633], [7.3, 52.6289], [7.32, 52.6334], [7.34, 52.6397], [7.36, 52.6397], [7.38, 52.6339], [7.4, 52.6283], [7.42, 52.6379], [7.4257, 52.64], [7.44, 52.6474], [7.46, 52.6514], [7.48, 52.6514], [7.4904, 52.66], [7.5, 52.6637], [7.52, 52.6656], [7.54, 52.6611], [7.56, 52.6611], [7.561, 52.66], [7.58, 52.6494], [7.6, 52.6495], [7.62, 52.6526], [7.64, 52.6568], [7.66, 52.6543], [7.68, 52.6531], [7.684, 52.64], [7.6839, 52.62], [7.6908, 52.6], [7.6993, 52.58], [7.7, 52.566], [7.72, 52.5606], [7.7206, 52.56], [7.72, 52.5598], [7.7102, 52.54], [7.72, 52.5279], [7.74, 52.5216], [7.7434, 52.52], [7.74, 52.516], [7.7272, 52.5], [7.74, 52.4881], [7.7468, 52.48], [7.74, 52.4662], [7.7269, 52.46], [7.726, 52.44], [7.72, 52.4361], [7.7076, 52.42], [7.7172, 52.4], [7.72, 52.3985], [7.74, 52.3965], [7.76, 52.3943], [7.78, 52.3801], [7.8, 52.3801], [7.82, 52.3801], [7.82, 52.38], [7.84, 52.3621], [7.86, 52.3703], [7.88, 52.372], [7.9, 52.372], [7.92, 52.3702], [7.94, 52.3639], [7.96, 52.3655], [7.972, 52.36], [7.98, 52.3509], [7.9861, 52.34], [7.9815, 52.32], [7.98, 52.311], [7.9754, 52.3], [7.96, 52.2848], [7.9527, 52.28], [7.94, 52.2739], [7.9219, 52.28], [7.92, 52.2808], [7.9, 52.2914], [7.88, 52.2986], [7.8631, 52.3], [7.86, 52.3001], [7.84, 52.3001], [7.8386, 52.3], [7.82, 52.2903], [7.818, 52.28], [7.8162, 52.26], [7.82, 52.2584], [7.8276, 52.26], [7.84, 52.2755], [7.8559, 52.26], [7.86, 52.2552], [7.8655, 52.24], [7.86, 52.2216], [7.8597, 52.22], [7.86, 52.2186], [7.88, 52.2066], [7.9, 52.2063], [7.9075, 52.2], [7.9, 52.1814], [7.88, 52.1814], [7.8798, 52.18], [7.88, 52.1798], [7.9, 52.1798], [7.92, 52.1769], [7.9388, 52.16], [7.94, 52.1578], [7.9557, 52.16], [7.96, 52.1611], [7.9626, 52.16], [7.98, 52.1544], [8.0, 52.1524], [8.02, 52.1511], [8.0313, 52.14], [8.02, 52.125], [8.0164, 52.12], [8.0192, 52.1], [8.02, 52.0996], [8.0208, 52.1], [8.04, 52.1107], [8.06, 52.1139], [8.08, 52.115], [8.0914, 52.12], [8.1, 52.1222], [8.102, 52.12], [8.1064, 52.1], [8.108, 52.08], [8.1, 52.0622], [8.0976, 52.06], [8.1, 52.0576], [8.1088, 52.04], [8.105, 52.02], [8.12, 52.0105], [8.1367, 52.0], [8.14, 51.9979], [8.16, 51.9936], [8.18, 51.9866], [8.1967, 51.98], [8.2, 51.9762], [8.2135, 51.96], [8.22, 51.9521], [8.24, 51.9549], [8.2526, 51.94], [8.26, 51.9362], [8.28, 51.9305], [8.3, 51.9296], [8.318, 51.92], [8.32, 51.9138], [8.34, 51.9132], [8.3468, 51.92], [8.36, 51.921], [8.3625, 51.92], [8.3625, 51.9], [8.36, 51.8975], [8.34, 51.8972], [8.32, 51.8968], [8.3001, 51.88], [8.3123, 51.86], [8.32, 51.849], [8.34, 51.8486], [8.36, 51.8523], [8.38, 51.8502], [8.4, 51.8518], [8.42, 51.8412], [8.44, 51.8415], [8.4413, 51.84], [8.44, 51.825], [8.4393, 51.82], [8.44, 51.8197], [8.46, 51.8194], [8.48, 51.808], [8.4937, 51.8], [8.5, 51.7974]]}}]}