{"type": "FeatureCollection", "features": [{"type": "Feature", "properties": {"level": 1030.0}, "geometry": {"type": "LineString", "coordinates": [[4.4273, 53.98], [4.42, 53.9751], [4.4, 53.973], [4.3814, 53.96], [4.38, 53.959], [4.36, 53.9578], [4.34, 53.9461], [4.3309, 53.94], [4.32, 53.932], [4.303, 53.92], [4.3, 53.9182], [4.28, 53.9178], [4.26, 53.9044], [4.2531, 53.9], [4.24, 53.8924], [4.22, 53.8851], [4.2132, 53.88], [4.2, 53.8698], [4.186, 53.86], [4.18, 53.8522], [4.16, 53.8522], [4.1501, 53.84], [4.14, 53.8332], [4.12, 53.8208], [4.1, 53.8203], [4.0995, 53.82], [4.08, 53.8084], [4.0665, 53.8], [4.06, 53.7959], [4.04, 53.7936], [4.02, 53.7855], [4.0048, 53.78], [4.0, 53.7783], [3.98, 53.7646], [3.9739, 53.76], [3.96, 53.7518], [3.9456, 53.74], [3.94, 53.7324], [3.9312, 53.72], [3.92, 53.7109], [3.9, 53.7184], [3.8866, 53.7], [3.88, 53.6946], [3.86, 53.6868], [3.8464, 53.68], [3.84, 53.677], [3.82, 53.6644], [3.8136, 53.66], [3.8, 53.6521], [3.7835, 53.64], [3.78, 53.6375], [3.76, 53.6371], [3.74, 53.6275], [3.7204, 53.62], [3.72, 53.6199], [3.7, 53.6085], [3.6889, 53.6], [3.68, 53.5884], [3.6716, 53.58], [3.66, 53.5719], [3.6434, 53.56], [3.64, 53.5576], [3.62, 53.5541], [3.6, 53.5459], [3.5882, 53.54], [3.58, 53.5359], [3.56, 53.5224], [3.5571, 53.52], [3.54, 53.5092], [3.5299, 53.5], [3.52, 53.491], [3.5085, 53.48], [3.5, 53.4677], [3.4923, 53.46], [3.48, 53.4484], [3.46, 53.4456], [3.4542, 53.44], [3.44, 53.4265], [3.4299, 53.42], [3.42, 53.4112], [3.4077, 53.4], [3.4, 53.3933], [3.3852, 53.38], [3.38, 53.3767], [3.3623, 53.36], [3.36, 53.3567], [3.3488, 53.34], [3.34, 53.3317], [3.3218, 53.32], [3.32, 53.3183], [3.3001, 53.3], [3.3, 53.3], [3.28, 53.2819], [3.26, 53.2819], [3.258, 53.28], [3.24, 53.2641], [3.2353, 53.26], [3.2353, 53.24], [3.22, 53.2351], [3.2066, 53.24], [3.2, 53.2424], [3.1975, 53.24], [3.2, 53.2322], [3.204, 53.22], [3.2, 53.2162], [3.18, 53.2099], [3.1684, 53.2], [3.16, 53.1924], [3.1472, 53.18], [3.14, 53.1728], [3.12, 53.1644], [3.1157, 53.16], [3.1, 53.1442], [3.0959, 53.14], [3.1, 53.1285], [3.103, 53.12], [3.1, 53.1169], [3.08, 53.1109], [3.0694, 53.1], [3.06, 53.0899], [3.0501, 53.08], [3.04, 53.0699], [3.02, 53.0699], [3.0101, 53.06], [3.0, 53.0496], [2.9908, 53.04], [2.98, 53.0276], [2.96, 53.0225], [2.9576, 53.02], [2.96, 53.0134], [2.9734, 53.0], [2.96, 52.9839], [2.9566, 52.98], [2.94, 52.9734], [2.9201, 52.96], [2.92, 52.9599], [2.9023, 52.94], [2.9, 52.9372], [2.8852, 52.92], [2.88, 52.9148], [2.8708, 52.9], [2.86, 52.8884], [2.852, 52.88], [2.84, 52.8677], [2.8282, 52.86], [2.82, 52.852], [2.808, 52.84], [2.8, 52.8322], [2.7875, 52.82], [2.78, 52.8152], [2.7641, 52.8], [2.76, 52.7939], [2.7505, 52.78], [2.74, 52.7705], [2.7232, 52.76], [2.72, 52.7576], [2.7, 52.7426], [2.6959, 52.74], [2.68, 52.7306], [2.66, 52.7306], [2.6431, 52.72], [2.64, 52.718], [2.62, 52.702], [2.6177, 52.7], [2.6, 52.6823], [2.5984, 52.68], [2.58, 52.6632], [2.5766, 52.66], [2.56, 52.6445], [2.553, 52.64], [2.54, 52.6279], [2.5311, 52.62], [2.52, 52.61], [2.5085, 52.6], [2.5, 52.5946]]}}]}