{"type": "FeatureCollection", "features": [{"type": "Feature", "properties": {"level": 1010.0}, "geometry": {"type": "LineString", "coordinates": [[8.5, 51.6236], [8.48, 51.6201], [8.46, 51.6286], [8.4471, 51.64], [8.44, 51.6533], [8.42, 51.6545], [8.415, 51.66], [8.4, 51.666], [8.38, 51.6709], [8.36, 51.6692], [8.34, 51.6795], [8.32, 51.6793], [8.3, 51.6792], [8.28, 51.6789], [8.26, 51.6758], [8.2445, 51.68], [8.2445, 51.7], [8.24, 51.7016], [8.2326, 51.7], [8.22, 51.6874], [8.2, 51.6974], [8.1918, 51.7], [8.18, 51.71], [8.1606, 51.72], [8.16, 51.7205], [8.14, 51.7322], [8.1328, 51.74], [8.12, 51.7586], [8.1189, 51.76], [8.12, 51.764], [8.1305, 51.78], [8.12, 51.7974], [8.1164, 51.8], [8.1, 51.8091], [8.08, 51.8177], [8.0758, 51.82], [8.06, 51.8273], [8.0471, 51.84], [8.04, 51.854], [8.02, 51.8541], [8.0119, 51.86], [8.0, 51.8658], [7.98, 51.8726], [7.96, 51.8726], [7.9541, 51.88], [7.94, 51.8894], [7.927, 51.9], [7.92, 51.9086], [7.9113, 51.92], [7.9, 51.9391], [7.8979, 51.94], [7.88, 51.9473], [7.86, 51.9473], [7.854, 51.96], [7.84, 51.9709], [7.8303, 51.98], [7.82, 51.9959], [7.8175, 52.0], [7.82, 52.0091], [7.8267, 52.02], [7.8234, 52.04], [7.82, 52.045], [7.8111, 52.06], [7.8099, 52.08], [7.8, 52.0921], [7.7871, 52.1], [7.78, 52.1074], [7.7647, 52.12], [7.7623, 52.14], [7.76, 52.1425], [7.7426, 52.16], [7.74, 52.1637], [7.7279, 52.18], [7.72, 52.1952], [7.7, 52.1966], [7.68, 52.1986], [7.6778, 52.2], [7.6699, 52.22], [7.66, 52.2289], [7.6521, 52.24], [7.66, 52.2587], [7.6613, 52.26], [7.66, 52.2639], [7.6544, 52.28], [7.6413, 52.3], [7.64, 52.3027], [7.62, 52.3068], [7.6, 52.316], [7.5953, 52.32], [7.58, 52.3396], [7.5797, 52.34], [7.5746, 52.36], [7.56, 52.3718], [7.5485, 52.38], [7.54, 52.3843], [7.52, 52.3958], [7.5, 52.3983], [7.4975, 52.4], [7.5, 52.4096], [7.5104, 52.42], [7.5, 52.425], [7.4835, 52.44], [7.48, 52.4449], [7.4649, 52.46], [7.46, 52.4626], [7.44, 52.4758], [7.4352, 52.48], [7.4352, 52.5], [7.42, 52.5197], [7.4197, 52.52], [7.4031, 52.54], [7.4, 52.543], [7.38, 52.5576], [7.3774, 52.56], [7.3729, 52.58], [7.36, 52.5945], [7.3521, 52.6], [7.34, 52.6186], [7.3392, 52.62], [7.3359, 52.64], [7.32, 52.6598], [7.3198, 52.66], [7.32, 52.6607], [7.3261, 52.68], [7.3251, 52.7], [7.32, 52.7047], [7.305, 52.72], [7.3, 52.724], [7.2828, 52.74], [7.28, 52.7428], [7.2701, 52.76], [7.2751, 52.78], [7.2619, 52.8], [7.26, 52.802], [7.2415, 52.82], [7.24, 52.8221], [7.2342, 52.84], [7.24, 52.8561], [7.2412, 52.86], [7.24, 52.8612], [7.22, 52.8642], [7.2, 52.8745], [7.1912, 52.88], [7.18, 52.8879], [7.16, 52.8985], [7.1553, 52.9], [7.14, 52.9067], [7.12, 52.9187], [7.1186, 52.92], [7.1186, 52.94], [7.1, 52.9524], [7.0901, 52.96], [7.08, 52.9679], [7.0668, 52.98], [7.06, 52.9854], [7.0442, 53.0], [7.0442, 53.02], [7.04, 53.0231], [7.02, 53.0347], [7.0036, 53.04], [7.0, 53.0413], [6.98, 53.0522], [6.9636, 53.06], [6.96, 53.062], [6.94, 53.0634], [6.92, 53.0755], [6.9157, 53.08], [6.9, 53.0971], [6.8983, 53.1], [6.88, 53.119], [6.8784, 53.12], [6.88, 53.1255], [6.8888, 53.14], [6.8834, 53.16], [6.8829, 53.18], [6.88, 53.1869], [6.8741, 53.2], [6.86, 53.2159], [6.8565, 53.22], [6.84, 53.2385], [6.8388, 53.24], [6.8344, 53.26], [6.84, 53.271], [6.8444, 53.28], [6.84, 53.288], [6.8317, 53.3], [6.8309, 53.32], [6.82, 53.3276], [6.8029, 53.34], [6.8, 53.3421], [6.7855, 53.36], [6.78, 53.3665], [6.7652, 53.38], [6.76, 53.3889], [6.74, 53.3904], [6.72, 53.3974], [6.7144, 53.4], [6.7, 53.417], [6.68, 53.4162], [6.66, 53.4141], [6.64, 53.4165], [6.62, 53.4167], [6.6176, 53.42], [6.6, 53.4376], [6.5987, 53.44], [6.6, 53.4462], [6.6084, 53.46], [6.6, 53.4706], [6.5853, 53.48], [6.58, 53.4825], [6.56, 53.4922], [6.5464, 53.5], [6.54, 53.5081], [6.5299, 53.52], [6.52, 53.5287], [6.5067, 53.54], [6.5039, 53.56], [6.5, 53.5629], [6.4843, 53.58], [6.48, 53.5857], [6.4706, 53.6], [6.46, 53.6164], [6.458, 53.62], [6.46, 53.625], [6.4731, 53.64], [6.466, 53.66], [6.46, 53.6681], [6.4563, 53.68], [6.4561, 53.7], [6.46, 53.7165], [6.4617, 53.72], [6.46, 53.7222], [6.44, 53.7272], [6.42, 53.7361], [6.4, 53.7344], [6.3914, 53.74], [6.3882, 53.76], [6.38, 53.7688], [6.371, 53.78], [6.371, 53.8], [6.36, 53.8114], [6.3511, 53.82], [6.34, 53.8329], [6.3331, 53.84], [6.32, 53.855], [6.3158, 53.86], [6.3158, 53.88], [6.32, 53.8914], [6.322, 53.9], [6.32, 53.903], [6.3, 53.9148], [6.2983, 53.92], [6.3, 53.9221], [6.3118, 53.94], [6.3, 53.9501], [6.2944, 53.96], [6.3, 53.9739], [6.3023, 53.98]]}}, {"type": "Feature", "properties": {"level": 1015.0}, "geometry": {"type": "LineString", "coordinates": [[6.0752, 50.5], [6.08, 50.5053], [6.0863, 50.52], [6.08, 50.5286], [6.0697, 50.54], [6.06, 50.5555], [6.0558, 50.56], [6.04, 50.5795], [6.0395, 50.58], [6.04, 50.585], [6.0443, 50.6], [6.04, 50.6025], [6.02, 50.6102], [6.0, 50.6193], [5.98, 50.6196], [5.9792, 50.62], [5.98, 50.6227], [5.9831, 50.64], [5.98, 50.6498], [5.9705, 50.66], [5.96, 50.6686], [5.9422, 50.68], [5.94, 50.6813], [5.92, 50.6938], [5.9066, 50.7], [5.9, 50.7034], [5.8873, 50.72], [5.88, 50.7284], [5.8628, 50.74], [5.86, 50.7463], [5.8438, 50.76], [5.84, 50.7634], [5.82, 50.7726], [5.8136, 50.78], [5.82, 50.7959], [5.822, 50.8], [5.822, 50.82], [5.82, 50.823], [5.8041, 50.84], [5.8, 50.8424], [5.78, 50.8528], [5.76, 50.8586], [5.7567, 50.86], [5.74, 50.8678], [5.72, 50.8751], [5.7, 50.8779], [5.6979, 50.88], [5.68, 50.8966], [5.6745, 50.9], [5.6613, 50.92], [5.66, 50.9226], [5.6531, 50.94], [5.64, 50.9549], [5.6379, 50.96], [5.64, 50.9647], [5.6553, 50.98], [5.6498, 51.0], [5.64, 51.0133], [5.6329, 51.02], [5.62, 51.0356], [5.6166, 51.04], [5.6037, 51.06], [5.6, 51.0658], [5.5858, 51.08], [5.58, 51.0832], [5.56, 51.0833], [5.54, 51.0927], [5.52, 51.0948], [5.5, 51.0903], [5.48, 51.0852], [5.46, 51.0852], [5.4537, 51.1], [5.46, 51.1173], [5.462, 51.12], [5.46, 51.122], [5.4516, 51.14], [5.46, 51.158], [5.4622, 51.16], [5.46, 51.1676], [5.4495, 51.18], [5.44, 51.1864], [5.42, 51.1936], [5.4, 51.1937], [5.38, 51.1957], [5.36, 51.1961], [5.34, 51.1941], [5.3333, 51.2], [5.32, 51.2122], [5.3146, 51.22], [5.3, 51.2343], [5.2926, 51.24], [5.28, 51.2583], [5.2782, 51.26], [5.267, 51.28], [5.26, 51.2868], [5.247, 51.3], [5.24, 51.3159], [5.2353, 51.32], [5.24, 51.3245], [5.26, 51.3282], [5.2661, 51.34], [5.2682, 51.36], [5.26, 51.3645], [5.24, 51.3638], [5.22, 51.3657], [5.2, 51.3744], [5.193, 51.38], [5.2, 51.3994], [5.2003, 51.4], [5.2, 51.4024], [5.18, 51.4005], [5.16, 51.4124], [5.14, 51.4088], [5.12, 51.4069], [5.1, 51.4143], [5.08, 51.4157], [5.0752, 51.42], [5.06, 51.437], [5.0579, 51.44], [5.0563, 51.46], [5.06, 51.4637], [5.0676, 51.48], [5.06, 51.4924], [5.051, 51.5], [5.04, 51.5198], [5.0399, 51.52], [5.0337, 51.54], [5.02, 51.5549], [5.0151, 51.56], [5.0, 51.5758], [4.9936, 51.58], [4.98, 51.5954], [4.9743, 51.6], [4.9783, 51.62], [4.96, 51.6388], [4.94, 51.6342], [4.92, 51.6326], [4.9, 51.6295], [4.8821, 51.64], [4.88, 51.6421], [4.86, 51.6414], [4.8567, 51.64], [4.84, 51.6275], [4.8275, 51.62], [4.82, 51.618], [4.8, 51.6169], [4.7934, 51.62], [4.78, 51.6282], [4.7699, 51.64], [4.76, 51.646], [4.74, 51.6517], [4.72, 51.6567], [4.713, 51.66], [4.7, 51.6658], [4.68, 51.6658], [4.66, 51.6707], [4.64, 51.6734], [4.62, 51.6694], [4.6, 51.6791], [4.58, 51.6783], [4.56, 51.6722], [4.54, 51.6751], [4.52, 51.6777], [4.516, 51.68], [4.5, 51.6917], [4.493, 51.7], [4.4822, 51.72], [4.48, 51.7219], [4.4626, 51.74], [4.46, 51.7421], [4.44, 51.7536], [4.42, 51.758], [4.4155, 51.76], [4.4, 51.7729], [4.38, 51.7748], [4.3652, 51.76], [4.36, 51.7586], [4.3577, 51.76], [4.3577, 51.78], [4.34, 51.7891], [4.3254, 51.8], [4.32, 51.8074], [4.3129, 51.82], [4.3192, 51.84], [4.32, 51.8408], [4.3309, 51.86], [4.34, 51.8738], [4.3432, 51.88], [4.34, 51.8852], [4.3288, 51.9], [4.32, 51.9191], [4.3, 51.9191], [4.2873, 51.92], [4.28, 51.9207], [4.2743, 51.94], [4.26, 51.9581], [4.2586, 51.96], [4.26, 51.9791], [4.2601, 51.98], [4.26, 51.9803], [4.24, 51.9803], [4.2319, 52.0], [4.24, 52.009], [4.2459, 52.02], [4.24, 52.0272], [4.2298, 52.04], [4.22, 52.0571], [4.2185, 52.06], [4.22, 52.0624], [4.2355, 52.08], [4.24, 52.0847], [4.2475, 52.1], [4.2526, 52.12], [4.2585, 52.14], [4.26, 52.1425], [4.2673, 52.16], [4.26, 52.1709], [4.2491, 52.18], [4.26, 52.1976], [4.2624, 52.2], [4.26, 52.2119], [4.24, 52.2119], [4.2372, 52.22], [4.24, 52.2272], [4.2419, 52.24], [4.24, 52.2439], [4.2261, 52.26], [4.22, 52.2648], [4.2, 52.274], [4.18, 52.2773], [4.1757, 52.28], [4.16, 52.291], [4.1477, 52.3], [4.1544, 52.32], [4.16, 52.3286], [4.18, 52.333], [4.2, 52.3377], [4.22, 52.3385], [4.2228, 52.34], [4.24, 52.3572], [4.2414, 52.36], [4.24, 52.3636], [4.2276, 52.38], [4.22, 52.3903], [4.2135, 52.4], [4.203, 52.42], [4.2, 52.4265], [4.1972, 52.44], [4.2, 52.4464], [4.205, 52.46], [4.2, 52.4654], [4.1804, 52.48], [4.1851, 52.5], [4.18, 52.5041], [4.1683, 52.52], [4.16, 52.5327], [4.1546, 52.54], [4.14, 52.5557], [4.1344, 52.56], [4.12, 52.5725], [4.1102, 52.58], [4.1, 52.5929], [4.0828, 52.6], [4.08, 52.6012], [4.0767, 52.6], [4.06, 52.5953], [4.0483, 52.6], [4.04, 52.6038], [4.02, 52.6076], [4.0076, 52.62], [4.0, 52.6356], [3.98, 52.6392], [3.9791, 52.64], [3.96, 52.6568], [3.9546, 52.66], [3.9474, 52.68], [3.94, 52.6867], [3.92, 52.6915], [3.9, 52.6917], [3.88, 52.695], [3.8716, 52.7], [3.8716, 52.72], [3.86, 52.7359], [3.8561, 52.74], [3.86, 52.7559], [3.8614, 52.76], [3.8648, 52.78], [3.86, 52.7909], [3.8569, 52.8], [3.86, 52.8111], [3.8623, 52.82], [3.86, 52.8218], [3.84, 52.825], [3.82, 52.8372], [3.8169, 52.84], [3.8, 52.8584], [3.7986, 52.86], [3.792, 52.88], [3.8, 52.888], [3.8043, 52.9], [3.8, 52.9077], [3.7877, 52.92], [3.78, 52.9344], [3.7764, 52.94], [3.76, 52.9557], [3.7551, 52.96], [3.7501, 52.98], [3.74, 52.9919], [3.7319, 53.0], [3.72, 53.0093], [3.7041, 53.02], [3.7, 53.0242], [3.68, 53.0374], [3.6771, 53.04], [3.675, 53.06], [3.68, 53.0721], [3.7, 53.0779], [3.7013, 53.08], [3.7, 53.0826], [3.6919, 53.1], [3.7, 53.1186], [3.7008, 53.12], [3.7, 53.1239], [3.68, 53.1239], [3.6708, 53.14], [3.68, 53.1528], [3.6822, 53.16], [3.68, 53.1633], [3.6697, 53.18], [3.66, 53.1963], [3.6575, 53.2], [3.64, 53.2157], [3.6336, 53.22], [3.62, 53.2307], [3.6088, 53.24], [3.6, 53.2517], [3.5929, 53.26], [3.5956, 53.28], [3.58, 53.2987], [3.5782, 53.3], [3.5685, 53.32], [3.58, 53.3246], [3.5925, 53.34], [3.6, 53.3448], [3.612, 53.36], [3.6, 53.3757], [3.5962, 53.38], [3.58, 53.3956], [3.5663, 53.4], [3.56, 53.4029], [3.54, 53.4075], [3.5248, 53.42], [3.52, 53.4304], [3.5158, 53.44], [3.52, 53.4472], [3.5235, 53.46], [3.52, 53.4671], [3.511, 53.48], [3.5, 53.4915], [3.488, 53.5], [3.48, 53.5054], [3.4623, 53.52], [3.46, 53.5211], [3.44, 53.5255], [3.4206, 53.54], [3.42, 53.5429], [3.4, 53.5579], [3.3987, 53.56], [3.4, 53.5626], [3.4174, 53.58], [3.42, 53.5833], [3.4323, 53.6], [3.4391, 53.62], [3.4234, 53.64], [3.42, 53.6437], [3.4156, 53.66], [3.42, 53.6712], [3.423, 53.68], [3.42, 53.6828], [3.4, 53.6936], [3.3972, 53.7], [3.3848, 53.72], [3.38, 53.7257], [3.3661, 53.74], [3.3615, 53.76], [3.36, 53.7624], [3.3424, 53.78], [3.34, 53.7825], [3.3207, 53.8], [3.32, 53.8009], [3.3052, 53.82], [3.3, 53.8318], [3.2954, 53.84], [3.28, 53.8554], [3.2774, 53.86], [3.28, 53.8652], [3.2935, 53.88], [3.2837, 53.9], [3.28, 53.9041], [3.2648, 53.92], [3.26, 53.9258], [3.2452, 53.94], [3.24, 53.9452], [3.2307, 53.96], [3.22, 53.9757], [3.2177, 53.98]]}}, {"type": "Feature", "properties": {"level": 1020.0}, "geometry": {"type": "LineString", "coordinates": [[2.5007, 50.5], [2.5, 50.5015]]}}]}