{"type": "FeatureCollection", "features": [{"type": "Feature", "properties": {"level": 1010.0}, "geometry": {"type": "LineString", "coordinates": [[8.5, 53.1721], [8.48, 53.178], [8.46, 53.1748], [8.4501, 53.18], [8.44, 53.1833], [8.42, 53.1849], [8.4, 53.1806], [8.38, 53.1925], [8.36, 53.1908], [8.34, 53.1945], [8.3326, 53.2], [8.32, 53.2152], [8.3, 53.2115], [8.28, 53.2129], [8.2624, 53.22], [8.26, 53.222], [8.24, 53.222], [8.22, 53.2304], [8.2, 53.238], [8.18, 53.2374], [8.1732, 53.24], [8.16, 53.2532], [8.1502, 53.26], [8.14, 53.2646], [8.12, 53.2635], [8.1, 53.2691], [8.08, 53.2773], [8.06, 53.2783], [8.0566, 53.28], [8.04, 53.2884], [8.02, 53.295], [8.0, 53.2977], [7.996, 53.3], [7.98, 53.316], [7.9755, 53.32], [7.96, 53.3314], [7.94, 53.3297], [7.92, 53.3334], [7.9057, 53.34], [7.9, 53.344], [7.88, 53.3404], [7.86, 53.3482], [7.84, 53.3518], [7.82, 53.354], [7.804, 53.36], [7.8, 53.364], [7.78, 53.3718], [7.76, 53.3775], [7.7569, 53.38], [7.74, 53.3875], [7.72, 53.3954], [7.7046, 53.4], [7.7, 53.4025], [7.68, 53.4187], [7.6785, 53.42], [7.6742, 53.44], [7.66, 53.4586], [7.6586, 53.46], [7.66, 53.4612], [7.6704, 53.48], [7.6669, 53.5], [7.66, 53.5057], [7.6456, 53.52], [7.64, 53.5237], [7.6266, 53.54], [7.6206, 53.56], [7.62, 53.5606], [7.6, 53.5692], [7.58, 53.5731], [7.56, 53.5778], [7.5557, 53.58], [7.5422, 53.6], [7.54, 53.6034], [7.5209, 53.62], [7.52, 53.6215], [7.514, 53.64], [7.52, 53.6452], [7.54, 53.6495], [7.56, 53.659], [7.5607, 53.66], [7.577, 53.68], [7.58, 53.6977], [7.6, 53.6977], [7.6015, 53.7], [7.62, 53.7037], [7.64, 53.7094], [7.6493, 53.72], [7.64, 53.7338], [7.6371, 53.74], [7.64, 53.7446], [7.6554, 53.76], [7.66, 53.7621], [7.6739, 53.78], [7.68, 53.7841], [7.7, 53.7863], [7.72, 53.7954], [7.7309, 53.8], [7.74, 53.8047], [7.76, 53.8186], [7.78, 53.8188], [7.7825, 53.82], [7.7844, 53.84], [7.7976, 53.86], [7.8, 53.8624], [7.8164, 53.88], [7.82, 53.8841], [7.8296, 53.9], [7.84, 53.9141], [7.8479, 53.92], [7.8578, 53.94], [7.86, 53.9442], [7.88, 53.9442], [7.8882, 53.96], [7.9, 53.9749], [7.92, 53.9782], [7.9216, 53.98]]}}, {"type": "Feature", "properties": {"level": 1015.0}, "geometry": {"type": "LineString", "coordinates": [[8.5, 50.6188], [8.48, 50.6183], [8.4765, 50.62], [8.476, 50.64], [8.46, 50.6509], [8.4437, 50.66], [8.44, 50.668], [8.4339, 50.68], [8.4282, 50.7], [8.44, 50.7114], [8.459, 50.72], [8.46, 50.7208], [8.48, 50.734], [8.4859, 50.74], [8.48, 50.7433], [8.4635, 50.76], [8.46, 50.7677], [8.4531, 50.78], [8.46, 50.7974], [8.48, 50.796], [8.4828, 50.8], [8.48, 50.8015], [8.46, 50.8022], [8.44, 50.8145], [8.4304, 50.82], [8.42, 50.8294], [8.4, 50.8362], [8.38, 50.8378], [8.3779, 50.84], [8.3677, 50.86], [8.36, 50.8634], [8.34, 50.8623], [8.32, 50.862], [8.3, 50.8697], [8.28, 50.8697], [8.2759, 50.88], [8.26, 50.892], [8.2461, 50.9], [8.24, 50.9093], [8.2237, 50.92], [8.2276, 50.94], [8.22, 50.9536], [8.2147, 50.96], [8.2, 50.9695], [8.1922, 50.98], [8.1922, 51.0], [8.18, 51.0178], [8.1759, 51.02], [8.16, 51.0263], [8.14, 51.0277], [8.1254, 51.02], [8.1246, 51.0], [8.12, 50.9924], [8.1074, 50.98], [8.1, 50.9681], [8.0919, 50.96], [8.0998, 50.94], [8.1, 50.9398], [8.1002, 50.94], [8.12, 50.9543], [8.1308, 50.94], [8.1381, 50.92], [8.14, 50.9159], [8.1447, 50.9], [8.14, 50.8953], [8.12, 50.8971], [8.1023, 50.9], [8.1, 50.9007], [8.08, 50.9004], [8.06, 50.9057], [8.05, 50.9], [8.04, 50.8849], [8.0375, 50.88], [8.02, 50.8748], [8.0056, 50.88], [8.0, 50.8879], [7.9909, 50.9], [7.98, 50.9079], [7.96, 50.9124], [7.94, 50.9148], [7.9367, 50.92], [7.92, 50.9396], [7.9197, 50.94], [7.92, 50.941], [7.929, 50.96], [7.9307, 50.98], [7.9273, 51.0], [7.94, 51.0124], [7.9496, 51.02], [7.94, 51.0314], [7.92, 51.0334], [7.9122, 51.02], [7.9, 51.0075], [7.8876, 51.0], [7.88, 50.994], [7.8602, 50.98], [7.86, 50.9796], [7.84, 50.9714], [7.82, 50.9685], [7.8157, 50.98], [7.8, 50.9976], [7.7945, 51.0], [7.78, 51.0053], [7.76, 51.0153], [7.74, 51.0188], [7.7375, 51.02], [7.72, 51.0393], [7.7, 51.0391], [7.68, 51.0318], [7.6657, 51.04], [7.66, 51.0447], [7.6486, 51.04], [7.64, 51.0281], [7.62, 51.0256], [7.6, 51.03], [7.5867, 51.04], [7.6, 51.0496], [7.6104, 51.06], [7.6032, 51.08], [7.6, 51.0836], [7.5816, 51.1], [7.58, 51.1005], [7.5789, 51.1], [7.56, 51.0845], [7.5532, 51.08], [7.54, 51.0606], [7.52, 51.0691], [7.5, 51.0715], [7.4838, 51.08], [7.48, 51.0809], [7.46, 51.0822], [7.4552, 51.08], [7.44, 51.0615], [7.438, 51.06], [7.44, 51.0575], [7.4444, 51.04], [7.44, 51.0305], [7.4265, 51.02], [7.44, 51.0112], [7.449, 51.0], [7.44, 50.9883], [7.4313, 50.98], [7.42, 50.9753], [7.4, 50.9754], [7.3913, 50.98], [7.3949, 51.0], [7.3949, 51.02], [7.4, 51.0264], [7.4106, 51.04], [7.4, 51.0453], [7.38, 51.0453], [7.3739, 51.04], [7.3707, 51.02], [7.36, 51.0089], [7.3465, 51.0], [7.34, 50.9909], [7.3258, 50.98], [7.3303, 50.96], [7.32, 50.9503], [7.3045, 50.94], [7.3, 50.9359], [7.28, 50.9317], [7.2688, 50.94], [7.26, 50.9492], [7.24, 50.9463], [7.2246, 50.94], [7.22, 50.9372], [7.2, 50.9369], [7.1844, 50.92], [7.2, 50.9005], [7.2116, 50.9], [7.22, 50.897], [7.2207, 50.9], [7.2366, 50.92], [7.24, 50.9254], [7.26, 50.9254], [7.2634, 50.92], [7.26, 50.9139], [7.2501, 50.9], [7.26, 50.8901], [7.2667, 50.88], [7.26, 50.8728], [7.2479, 50.88], [7.24, 50.8879], [7.2247, 50.88], [7.2247, 50.86], [7.22, 50.858], [7.2014, 50.84], [7.2, 50.8359], [7.18, 50.8228], [7.179, 50.82], [7.16, 50.8131], [7.14, 50.8178], [7.1316, 50.82], [7.12, 50.8258], [7.1, 50.8255], [7.08, 50.8253], [7.06, 50.8298], [7.0495, 50.82], [7.04, 50.8172], [7.02, 50.816], [7.0, 50.8144], [6.98, 50.8102], [6.9702, 50.82], [6.96, 50.8282], [6.94, 50.8216], [6.92, 50.821], [6.9184, 50.82], [6.92, 50.8115], [6.9215, 50.8], [6.92, 50.7983], [6.9, 50.7988], [6.8982, 50.8], [6.88, 50.8109], [6.8671, 50.82], [6.86, 50.8268], [6.8415, 50.84], [6.84, 50.8419], [6.829, 50.84], [6.82, 50.8374], [6.8, 50.8238], [6.78, 50.8284], [6.7609, 50.84], [6.76, 50.8405], [6.7588, 50.84], [6.74, 50.828], [6.72, 50.832], [6.7, 50.8269], [6.68, 50.8302], [6.66, 50.823], [6.64, 50.8274], [6.62, 50.8279], [6.6, 50.833], [6.58, 50.8329], [6.5686, 50.84], [6.56, 50.8449], [6.5423, 50.84], [6.54, 50.8387], [6.5231, 50.82], [6.52, 50.8189], [6.5, 50.8177], [6.48, 50.819], [6.4729, 50.82], [6.4657, 50.84], [6.46, 50.8421], [6.44, 50.8418], [6.42, 50.8412], [6.4, 50.8442], [6.38, 50.842], [6.36, 50.8427], [6.3543, 50.84], [6.34, 50.8335], [6.32, 50.8369], [6.3113, 50.84], [6.3, 50.8447], [6.28, 50.8504], [6.26, 50.8494], [6.24, 50.8547], [6.2243, 50.86], [6.22, 50.8651], [6.2, 50.8687], [6.18, 50.8774], [6.1772, 50.88], [6.16, 50.8926], [6.1444, 50.9], [6.14, 50.9028], [6.12, 50.9028], [6.1, 50.9009], [6.0974, 50.9], [6.08, 50.8926], [6.06, 50.8896], [6.0416, 50.9], [6.0403, 50.92], [6.04, 50.9204], [6.0396, 50.92], [6.02, 50.9097], [6.0, 50.9089], [5.981, 50.9], [5.98, 50.8996], [5.96, 50.8992], [5.94, 50.8992], [5.9385, 50.9], [5.9248, 50.92], [5.92, 50.9251], [5.9, 50.9247], [5.88, 50.9305], [5.86, 50.9365], [5.84, 50.9302], [5.82, 50.9357], [5.8, 50.9311], [5.78, 50.9263], [5.76, 50.9292], [5.74, 50.9261], [5.7253, 50.92], [5.72, 50.9156], [5.7, 50.9194], [5.6855, 50.92], [5.68, 50.9201], [5.66, 50.9272], [5.6478, 50.94], [5.64, 50.9449], [5.62, 50.9574], [5.6, 50.9589], [5.5959, 50.96], [5.58, 50.9708], [5.56, 50.9732], [5.54, 50.9628], [5.52, 50.9624], [5.5175, 50.96], [5.5175, 50.94], [5.5, 50.923], [5.48, 50.9266], [5.46, 50.9264], [5.44, 50.9309], [5.42, 50.9243], [5.4157, 50.92], [5.4, 50.9156], [5.38, 50.9161], [5.36, 50.9169], [5.34, 50.9163], [5.335, 50.92], [5.32, 50.9365], [5.3, 50.936], [5.2872, 50.94], [5.28, 50.943], [5.26, 50.943], [5.24, 50.9442], [5.2254, 50.94], [5.22, 50.9382], [5.2119, 50.94], [5.2, 50.9421], [5.1925, 50.94], [5.18, 50.9351], [5.164, 50.94], [5.16, 50.9408], [5.1562, 50.94], [5.14, 50.9347], [5.12, 50.9347], [5.1059, 50.94], [5.1, 50.9418], [5.0923, 50.94], [5.08, 50.9376], [5.0738, 50.94], [5.06, 50.947], [5.04, 50.9488], [5.02, 50.9509], [5.0, 50.9516], [4.98, 50.9537], [4.9677, 50.96], [4.96, 50.9648], [4.94, 50.9668], [4.92, 50.9648], [4.9, 50.9626], [4.88, 50.9692], [4.86, 50.9724], [4.84, 50.9721], [4.8202, 50.98], [4.82, 50.9801], [4.8196, 50.98], [4.8, 50.974], [4.78, 50.9799], [4.77, 50.98], [4.76, 50.9802], [4.74, 50.9802], [4.72, 50.9962], [4.7, 50.9951], [4.68, 50.9927], [4.6666, 51.0], [4.66, 51.0104], [4.6496, 51.0], [4.64, 50.9965], [4.6319, 51.0], [4.62, 51.0119], [4.605, 51.02], [4.6, 51.0214], [4.58, 51.0209], [4.5746, 51.02], [4.56, 51.0123], [4.5437, 51.0], [4.54, 50.9991], [4.52, 50.9989], [4.5189, 51.0], [4.5, 51.0109], [4.48, 51.0183], [4.46, 51.0192], [4.4588, 51.02], [4.44, 51.0289], [4.42, 51.0347], [4.4, 51.0298], [4.38, 51.0381], [4.36, 51.0381], [4.34, 51.0348], [4.3271, 51.04], [4.32, 51.0431], [4.3028, 51.04], [4.3, 51.0396], [4.2986, 51.04], [4.28, 51.0445], [4.26, 51.0407], [4.24, 51.0457], [4.22, 51.0453], [4.2, 51.0493], [4.18, 51.0456], [4.1714, 51.04], [4.16, 51.0378], [4.14, 51.0358], [4.12, 51.0379], [4.1, 51.0391], [4.08, 51.0394], [4.0769, 51.04], [4.06, 51.0509], [4.04, 51.0591], [4.02, 51.0592], [4.0177, 51.06], [4.0, 51.068], [3.98, 51.0689], [3.96, 51.0742], [3.942, 51.08], [3.94, 51.0809], [3.9343, 51.08], [3.92, 51.0786], [3.9161, 51.08], [3.9, 51.0871], [3.88, 51.09], [3.86, 51.0932], [3.84, 51.0987], [3.82, 51.0984], [3.8136, 51.1], [3.8, 51.1075], [3.78, 51.1115], [3.76, 51.1115], [3.7576, 51.12], [3.74, 51.131], [3.7204, 51.14], [3.72, 51.1401], [3.7183, 51.14], [3.7, 51.1376], [3.6974, 51.14], [3.68, 51.1483], [3.66, 51.1518], [3.64, 51.1518], [3.6213, 51.16], [3.62, 51.1603], [3.6, 51.1603], [3.5989, 51.16], [3.58, 51.1562], [3.5712, 51.16], [3.56, 51.1653], [3.5405, 51.18], [3.54, 51.1805], [3.52, 51.1804], [3.5, 51.1858], [3.48, 51.184], [3.46, 51.1845], [3.44, 51.185], [3.42, 51.1842], [3.4, 51.1867], [3.38, 51.1878], [3.36, 51.1847], [3.34, 51.1833], [3.32, 51.1837], [3.3, 51.1826], [3.28, 51.1821], [3.26, 51.1823], [3.24, 51.1843], [3.22, 51.1805], [3.2, 51.1858], [3.18, 51.1863], [3.16, 51.184], [3.142, 51.18], [3.14, 51.1794], [3.12, 51.1795], [3.1129, 51.18], [3.1, 51.1807], [3.0979, 51.18], [3.08, 51.1731], [3.06, 51.1715], [3.04, 51.1669], [3.0226, 51.16], [3.02, 51.1587], [3.0, 51.1578], [2.98, 51.1592], [2.96, 51.1502], [2.94, 51.1402], [2.9371, 51.14], [2.9211, 51.12], [2.92, 51.1194], [2.9189, 51.12], [2.9, 51.1299], [2.8811, 51.12], [2.88, 51.1187], [2.8613, 51.1], [2.86, 51.0992], [2.84, 51.0985], [2.82, 51.0874], [2.8071, 51.08], [2.8, 51.0753], [2.78, 51.0671], [2.76, 51.0616], [2.74, 51.0606], [2.739, 51.06], [2.72, 51.0475], [2.707, 51.04], [2.7, 51.0363], [2.68, 51.0298], [2.66, 51.0241], [2.6532, 51.02], [2.64, 51.0124], [2.62, 51.0021], [2.6, 51.0008], [2.5984, 51.0], [2.6, 50.9922], [2.6021, 50.98], [2.6, 50.9786], [2.58, 50.9772], [2.56, 50.9663], [2.548, 50.96], [2.54, 50.9558], [2.52, 50.951], [2.5, 50.9454]]}}, {"type": "Feature", "properties": {"level": 1015.0}, "geometry": {"type": "LineString", "coordinates": [[8.3, 50.6356], [8.2984, 50.64], [8.28, 50.6572], [8.2732, 50.66], [8.2781, 50.68], [8.26, 50.6911], [8.2461, 50.7], [8.24, 50.71], [8.2356, 50.72], [8.24, 50.7312], [8.2506, 50.74], [8.26, 50.751], [8.28, 50.7555], [8.3, 50.7517], [8.3127, 50.74], [8.32, 50.7282], [8.3253, 50.72], [8.34, 50.7016], [8.3526, 50.7], [8.34, 50.6951], [8.32, 50.6868], [8.3149, 50.68], [8.3058, 50.66], [8.32, 50.6437], [8.3226, 50.64], [8.32, 50.6367], [8.3, 50.6356]]}}, {"type": "Feature", "properties": {"level": 1015.0}, "geometry": {"type": "LineString", "coordinates": [[8.3, 50.8332], [8.2932, 50.84], [8.3, 50.8475], [8.32, 50.8513], [8.3231, 50.84], [8.32, 50.8359], [8.3, 50.8332]]}}, {"type": "Feature", "properties": {"level": 1015.0}, "geometry": {"type": "LineString", "coordinates": [[8.06, 50.879], [8.0525, 50.88], [8.06, 50.8833], [8.08, 50.8935], [8.0809, 50.88], [8.08, 50.879], [8.06, 50.879]]}}, {"type": "Feature", "properties": {"level": 1015.0}, "geometry": {"type": "LineString", "coordinates": [[7.1572, 50.94], [7.16, 50.9286], [7.1704, 50.94], [7.16, 50.9428], [7.1572, 50.94]]}}, {"type": "Feature", "properties": {"level": 1015.0}, "geometry": {"type": "LineString", "coordinates": [[7.2753, 50.96], [7.28, 50.9556], [7.2841, 50.96], [7.28, 50.9623], [7.2753, 50.96]]}}, {"type": "Feature", "properties": {"level": 1015.0}, "geometry": {"type": "LineString", "coordinates": [[7.48, 50.9588], [7.475, 50.96], [7.48, 50.9649], [7.5, 50.9649], [7.5037, 50.96], [7.5, 50.9586], [7.48, 50.9588]]}}, {"type": "Feature", "properties": {"level": 1015.0}, "geometry": {"type": "LineString", "coordinates": [[7.46, 50.9708], [7.4536, 50.98], [7.46, 50.9843], [7.4691, 50.98], [7.46, 50.9708]]}}, {"type": "Feature", "properties": {"level": 1015.0}, "geometry": {"type": "LineString", "coordinates": [[7.9685, 50.98], [7.98, 50.9742], [8.0, 50.974], [8.0089, 50.98], [8.02, 50.9999], [8.0209, 51.0], [8.0358, 51.02], [8.02, 51.0274], [8.0, 51.0306], [7.9871, 51.02], [7.9804, 51.0], [7.98, 50.999], [7.9685, 50.98]]}}, {"type": "Feature", "properties": {"level": 1015.0}, "geometry": {"type": "LineString", "coordinates": [[8.0445, 51.0], [8.06, 50.995], [8.08, 50.9933], [8.0865, 51.0], [8.1, 51.0135], [8.1128, 51.02], [8.1, 51.0364], [8.08, 51.0387], [8.06, 51.0288], [8.0436, 51.02], [8.0445, 51.0]]}}, {"type": "Feature", "properties": {"level": 1015.0}, "geometry": {"type": "LineString", "coordinates": [[7.66, 51.0194], [7.655, 51.02], [7.66, 51.0229], [7.6609, 51.02], [7.66, 51.0194]]}}, {"type": "Feature", "properties": {"level": 1015.0}, "geometry": {"type": "LineString", "coordinates": [[7.6582, 51.12], [7.66, 51.1118], [7.6685, 51.12], [7.66, 51.1219], [7.6582, 51.12]]}}]}