{"type": "FeatureCollection", "features": [{"type": "Feature", "properties": {"level": 1010.0}, "geometry": {"type": "LineString", "coordinates": [[8.5, 52.4674], [8.48, 52.4646], [8.4725, 52.46], [8.46, 52.4558], [8.4555, 52.46], [8.44, 52.4728], [8.42, 52.4743], [8.4, 52.4743], [8.38, 52.4765], [8.36, 52.4744], [8.34, 52.4689], [8.3239, 52.46], [8.32, 52.4585], [8.3, 52.4583], [8.28, 52.4569], [8.26, 52.4572], [8.24, 52.4559], [8.22, 52.4548], [8.2014, 52.46], [8.2014, 52.48], [8.2, 52.4808], [8.1976, 52.48], [8.18, 52.4624], [8.16, 52.477], [8.1486, 52.48], [8.1433, 52.5], [8.16, 52.5075], [8.1673, 52.52], [8.18, 52.532], [8.2, 52.5347], [8.2036, 52.54], [8.2, 52.543], [8.18, 52.5443], [8.1633, 52.56], [8.16, 52.5623], [8.14, 52.5621], [8.12, 52.563], [8.1, 52.5628], [8.08, 52.5613], [8.06, 52.5609], [8.0498, 52.56], [8.04, 52.5589], [8.02, 52.5589], [8.0, 52.5571], [7.98, 52.5468], [7.97, 52.54], [7.96, 52.5354], [7.94, 52.5357], [7.9284, 52.54], [7.92, 52.5438], [7.907, 52.54], [7.9, 52.539], [7.8954, 52.54], [7.88, 52.5446], [7.8608, 52.54], [7.86, 52.5398], [7.8596, 52.54], [7.84, 52.5479], [7.82, 52.55], [7.8, 52.5459], [7.78, 52.5542], [7.76, 52.5532], [7.74, 52.5564], [7.7354, 52.56], [7.72, 52.5754], [7.7, 52.571], [7.68, 52.5689], [7.66, 52.5659], [7.64, 52.5682], [7.62, 52.5621], [7.6, 52.5624], [7.5943, 52.56], [7.58, 52.5542], [7.56, 52.5528], [7.54, 52.5569], [7.52, 52.554], [7.5011, 52.56], [7.5, 52.5604], [7.4983, 52.56], [7.48, 52.5568], [7.4673, 52.56], [7.46, 52.563], [7.44, 52.5639], [7.42, 52.562], [7.4, 52.5627], [7.3948, 52.56], [7.38, 52.5572], [7.3683, 52.56], [7.36, 52.5797], [7.34, 52.5797], [7.32, 52.5799], [7.3198, 52.58], [7.3, 52.5919], [7.28, 52.5945], [7.26, 52.597], [7.2524, 52.6], [7.24, 52.6048], [7.2233, 52.6], [7.22, 52.5993], [7.217, 52.6], [7.2, 52.6035], [7.1862, 52.6], [7.18, 52.5982], [7.1754, 52.6], [7.16, 52.6062], [7.14, 52.6093], [7.12, 52.6117], [7.1, 52.6194], [7.0991, 52.62], [7.08, 52.6361], [7.06, 52.6372], [7.04, 52.6373], [7.02, 52.6308], [7.0, 52.6343], [6.9826, 52.64], [6.98, 52.6408], [6.96, 52.6408], [6.9494, 52.66], [6.94, 52.6644], [6.92, 52.6672], [6.9, 52.6661], [6.8852, 52.68], [6.88, 52.6838], [6.86, 52.6855], [6.84, 52.6832], [6.8332, 52.68], [6.82, 52.6674], [6.8116, 52.66], [6.8, 52.6548], [6.7897, 52.66], [6.78, 52.666], [6.76, 52.666], [6.74, 52.669], [6.72, 52.6664], [6.7, 52.6721], [6.68, 52.6781], [6.66, 52.679], [6.6582, 52.68], [6.64, 52.6876], [6.62, 52.6901], [6.6, 52.6919], [6.58, 52.6965], [6.56, 52.6965], [6.54, 52.6949], [6.52, 52.6921], [6.5, 52.6927], [6.4863, 52.7], [6.48, 52.7063], [6.46, 52.7049], [6.4435, 52.72], [6.44, 52.7213], [6.42, 52.7229], [6.4, 52.7229], [6.3869, 52.74], [6.38, 52.7437], [6.36, 52.7476], [6.34, 52.747], [6.32, 52.7532], [6.3063, 52.76], [6.3063, 52.78], [6.3, 52.7833], [6.28, 52.7849], [6.26, 52.784], [6.24, 52.7877], [6.22, 52.7847], [6.2, 52.7855], [6.18, 52.7816], [6.16, 52.7852], [6.1475, 52.78], [6.14, 52.7776], [6.1237, 52.78], [6.12, 52.7808], [6.1, 52.7808], [6.0985, 52.78], [6.08, 52.7737], [6.06, 52.7798], [6.0531, 52.78], [6.04, 52.7809], [6.02, 52.7951], [6.0109, 52.8], [6.0, 52.8109], [5.98, 52.8168], [5.96, 52.8122], [5.94, 52.8078], [5.9293, 52.8], [5.92, 52.7944], [5.9, 52.7944], [5.88, 52.7904], [5.86, 52.7928], [5.84, 52.7964], [5.837, 52.8], [5.82, 52.8067], [5.8, 52.8113], [5.78, 52.8165], [5.771, 52.82], [5.76, 52.8293], [5.7449, 52.84], [5.74, 52.8417], [5.72, 52.8432], [5.7, 52.8527], [5.6927, 52.86], [5.68, 52.8713], [5.6607, 52.88], [5.66, 52.8808], [5.64, 52.8808], [5.62, 52.8871], [5.6, 52.8813], [5.58, 52.8874], [5.56, 52.8884], [5.54, 52.8884], [5.5323, 52.9], [5.52, 52.9129], [5.5071, 52.92], [5.52, 52.9348], [5.5221, 52.94], [5.52, 52.9509], [5.5, 52.9432], [5.48, 52.9435], [5.46, 52.9458], [5.44, 52.9483], [5.42, 52.949], [5.4, 52.9466], [5.38, 52.9573], [5.36, 52.9573], [5.34, 52.9555], [5.3229, 52.96], [5.32, 52.9614], [5.316, 52.96], [5.3, 52.9574], [5.2887, 52.96], [5.28, 52.9632], [5.26, 52.9647], [5.24, 52.9724], [5.23, 52.98], [5.22, 52.9926], [5.2133, 53.0], [5.2, 53.0134], [5.1913, 53.02], [5.1887, 53.04], [5.18, 53.0441], [5.1668, 53.06], [5.16, 53.0682], [5.1495, 53.08], [5.14, 53.0875], [5.1226, 53.1], [5.12, 53.1022], [5.1, 53.1078], [5.0886, 53.12], [5.08, 53.1255], [5.06, 53.1354], [5.0448, 53.14], [5.0416, 53.16], [5.04, 53.1615], [5.0335, 53.16], [5.02, 53.1465], [5.0, 53.1534], [4.995, 53.16], [4.98, 53.172], [4.9699, 53.18], [4.9621, 53.2], [4.96, 53.201], [4.94, 53.2012], [4.9304, 53.2], [4.92, 53.1989], [4.9184, 53.2], [4.9, 53.2088], [4.88, 53.2196], [4.86, 53.2198], [4.8597, 53.22], [4.86, 53.2212], [4.88, 53.2212], [4.883, 53.24], [4.88, 53.2432], [4.86, 53.2469], [4.84, 53.2496], [4.82, 53.2566], [4.8151, 53.26], [4.8, 53.2798], [4.78, 53.2798], [4.7794, 53.28], [4.76, 53.2908], [4.7572, 53.3], [4.7503, 53.32], [4.7406, 53.34], [4.74, 53.3405], [4.72, 53.3412], [4.7, 53.3532], [4.6866, 53.36], [4.68, 53.3626], [4.6681, 53.36], [4.66, 53.3584], [4.6539, 53.36], [4.64, 53.3638], [4.62, 53.3659], [4.6, 53.3619], [4.5841, 53.38], [4.58, 53.384], [4.571, 53.4], [4.56, 53.4123], [4.5505, 53.42], [4.54, 53.429], [4.5244, 53.44], [4.52, 53.4434], [4.5, 53.4457], [4.48, 53.4528], [4.4601, 53.46], [4.46, 53.46], [4.44, 53.4601], [4.42, 53.477], [4.4167, 53.48], [4.4, 53.487], [4.38, 53.4911], [4.36, 53.4918], [4.3549, 53.5], [4.34, 53.5131], [4.3325, 53.52], [4.32, 53.5317], [4.3096, 53.54], [4.3, 53.5463], [4.28, 53.5562], [4.2762, 53.56], [4.2689, 53.58], [4.26, 53.5958], [4.2556, 53.6], [4.2519, 53.62], [4.24, 53.6281], [4.2268, 53.64], [4.22, 53.6521], [4.2137, 53.66], [4.2, 53.6781], [4.1955, 53.68], [4.18, 53.6916], [4.16, 53.6995], [4.1588, 53.7], [4.14, 53.7175], [4.1389, 53.72], [4.14, 53.7211], [4.1481, 53.74], [4.14, 53.7589], [4.1389, 53.76], [4.14, 53.7607], [4.1503, 53.78], [4.14, 53.792], [4.1301, 53.8], [4.122, 53.82], [4.12, 53.8215], [4.1, 53.8239], [4.08, 53.8256], [4.0656, 53.84], [4.06, 53.8466], [4.0515, 53.86], [4.04, 53.8689], [4.0286, 53.88], [4.02, 53.8907], [4.0124, 53.9], [4.0, 53.9096], [3.99, 53.92], [3.98, 53.9349], [3.9758, 53.94], [3.96, 53.9483], [3.94, 53.9504], [3.92, 53.9538], [3.9074, 53.96], [3.9, 53.9655], [3.8809, 53.98]]}}, {"type": "Feature", "properties": {"level": 1015.0}, "geometry": {"type": "LineString", "coordinates": [[4.5321, 50.5], [4.52, 50.5102], [4.5121, 50.52], [4.5, 50.5274], [4.48, 50.5324], [4.46, 50.5353], [4.4492, 50.54], [4.44, 50.544], [4.4244, 50.54], [4.42, 50.539], [4.4123, 50.54], [4.4, 50.5435], [4.3916, 50.54], [4.38, 50.537], [4.3636, 50.54], [4.36, 50.541], [4.34, 50.541], [4.32, 50.551], [4.3, 50.5522], [4.28, 50.5484], [4.26, 50.5516], [4.24, 50.5443], [4.22, 50.5516], [4.2, 50.5482], [4.18, 50.5528], [4.16, 50.5579], [4.14, 50.5585], [4.1385, 50.56], [4.12, 50.5774], [4.1133, 50.58], [4.1, 50.5867], [4.08, 50.5864], [4.06, 50.5906], [4.04, 50.5964], [4.02, 50.5939], [4.0038, 50.6], [4.0, 50.6016], [3.9857, 50.6], [3.98, 50.5992], [3.9773, 50.6], [3.96, 50.6042], [3.94, 50.6003], [3.92, 50.6087], [3.9, 50.6096], [3.88, 50.6088], [3.86, 50.6102], [3.84, 50.6062], [3.82, 50.6181], [3.8, 50.6164], [3.7964, 50.62], [3.78, 50.6258], [3.76, 50.6325], [3.74, 50.627], [3.72, 50.6258], [3.7, 50.6255], [3.68, 50.6245], [3.66, 50.6267], [3.64, 50.6288], [3.62, 50.6356], [3.6, 50.6333], [3.58, 50.6379], [3.56, 50.6344], [3.54, 50.635], [3.52, 50.6314], [3.5, 50.6318], [3.48, 50.6378], [3.46, 50.6394], [3.4561, 50.64], [3.44, 50.6413], [3.4313, 50.64], [3.42, 50.6379], [3.4098, 50.64], [3.4, 50.6415], [3.3965, 50.64], [3.38, 50.6325], [3.3601, 50.64], [3.36, 50.64], [3.34, 50.64], [3.3399, 50.64], [3.32, 50.6322], [3.3002, 50.62], [3.3, 50.6199], [3.2993, 50.62], [3.28, 50.6238], [3.2696, 50.62], [3.26, 50.6187], [3.2567, 50.62], [3.24, 50.633], [3.22, 50.6361], [3.2, 50.6375], [3.1891, 50.64], [3.18, 50.6522], [3.16, 50.6588], [3.14, 50.6597], [3.1399, 50.66], [3.14, 50.6604], [3.1542, 50.68], [3.1509, 50.7], [3.14, 50.7054], [3.12, 50.7059], [3.1, 50.7051], [3.08, 50.7086], [3.06, 50.704], [3.04, 50.707], [3.02, 50.7058], [3.0, 50.709], [2.98, 50.7097], [2.96, 50.7141], [2.94, 50.7143], [2.92, 50.7135], [2.9, 50.7144], [2.88, 50.7109], [2.86, 50.7122], [2.84, 50.7088], [2.82, 50.711], [2.8063, 50.72], [2.8, 50.7271], [2.78, 50.7244], [2.76, 50.7273], [2.74, 50.7305], [2.72, 50.7329], [2.7046, 50.74], [2.7, 50.7415], [2.6915, 50.74], [2.68, 50.737], [2.6616, 50.74], [2.66, 50.7402], [2.6583, 50.74], [2.64, 50.7365], [2.6337, 50.74], [2.62, 50.7458], [2.6, 50.7518], [2.58, 50.7518], [2.56, 50.7515], [2.54, 50.7439], [2.52, 50.7506], [2.5001, 50.76], [2.5, 50.7601]]}}]}