{"type": "FeatureCollection", "features": [{"type": "Feature", "properties": {"level": 1010.0}, "geometry": {"type": "LineString", "coordinates": [[7.951, 50.52], [7.96, 50.5151], [7.98, 50.5173], [7.9939, 50.52], [7.98, 50.5244], [7.96, 50.5324], [7.951, 50.52]]}}, {"type": "Feature", "properties": {"level": 1010.0}, "geometry": {"type": "LineString", "coordinates": [[8.2452, 50.5], [8.24, 50.5052], [8.2279, 50.52], [8.2304, 50.54], [8.24, 50.5404], [8.26, 50.5403], [8.28, 50.5477], [8.3, 50.5506], [8.32, 50.5486], [8.3325, 50.56], [8.34, 50.5652], [8.36, 50.5638], [8.38, 50.5775], [8.4, 50.5774], [8.4041, 50.58], [8.4, 50.585], [8.38, 50.585], [8.3651, 50.6], [8.38, 50.609], [8.3998, 50.62], [8.4, 50.6202], [8.4001, 50.62], [8.4139, 50.6], [8.42, 50.595], [8.4242, 50.6], [8.44, 50.6082], [8.46, 50.6092], [8.48, 50.6106], [8.5, 50.6089]]}}, {"type": "Feature", "properties": {"level": 1010.0}, "geometry": {"type": "LineString", "coordinates": [[8.3498, 50.5], [8.36, 50.5177], [8.362, 50.52], [8.36, 50.5209], [8.34, 50.5219], [8.3391, 50.52], [8.3217, 50.5]]}}, {"type": "Feature", "properties": {"level": 1010.0}, "geometry": {"type": "LineString", "coordinates": [[8.1169, 50.78], [8.12, 50.7717], [8.14, 50.7749], [8.1435, 50.78], [8.1576, 50.8], [8.14, 50.8012], [8.1371, 50.8], [8.12, 50.7829], [8.1169, 50.78]]}}, {"type": "Feature", "properties": {"level": 1010.0}, "geometry": {"type": "LineString", "coordinates": [[8.32, 50.8097], [8.3182, 50.82], [8.32, 50.8225], [8.34, 50.8262], [8.3427, 50.82], [8.34, 50.8055], [8.32, 50.8097]]}}, {"type": "Feature", "properties": {"level": 1010.0}, "geometry": {"type": "LineString", "coordinates": [[8.2982, 50.98], [8.3, 50.9765], [8.32, 50.9765], [8.3235, 50.98], [8.32, 50.9812], [8.3, 50.9813], [8.2982, 50.98]]}}, {"type": "Feature", "properties": {"level": 1010.0}, "geometry": {"type": "LineString", "coordinates": [[8.5, 51.2221], [8.4965, 51.22], [8.48, 51.2079], [8.4667, 51.2], [8.46, 51.1964], [8.4494, 51.2], [8.44, 51.2051], [8.4242, 51.22], [8.42, 51.2217], [8.4, 51.2236], [8.3958, 51.22], [8.38, 51.2055], [8.3656, 51.2], [8.38, 51.1926], [8.4, 51.1884], [8.416, 51.18], [8.42, 51.1616], [8.4204, 51.16], [8.4204, 51.14], [8.42, 51.1398], [8.4198, 51.14], [8.4, 51.152], [8.3867, 51.14], [8.38, 51.1343], [8.3693, 51.12], [8.36, 51.1014], [8.3588, 51.1], [8.3567, 51.08], [8.36, 51.0785], [8.3631, 51.08], [8.38, 51.0881], [8.4, 51.0844], [8.4139, 51.08], [8.415, 51.06], [8.4076, 51.04], [8.42, 51.0264], [8.4292, 51.02], [8.44, 51.0022], [8.4453, 51.0], [8.44, 50.9969], [8.42, 50.9895], [8.4, 50.9935], [8.38, 50.9904], [8.36, 50.9873], [8.348, 50.98], [8.36, 50.9614], [8.38, 50.9701], [8.3934, 50.96], [8.3949, 50.94], [8.4, 50.9369], [8.42, 50.9342], [8.44, 50.9287], [8.4551, 50.92], [8.4558, 50.9], [8.46, 50.8883], [8.4609, 50.88], [8.46, 50.8782], [8.44, 50.8776], [8.4367, 50.88], [8.4244, 50.9], [8.42, 50.9054], [8.4, 50.9029], [8.38, 50.9018], [8.36, 50.9123], [8.3469, 50.9], [8.34, 50.8948], [8.3297, 50.9], [8.32, 50.9089], [8.3141, 50.92], [8.3, 50.9321], [8.28, 50.9321], [8.2652, 50.94], [8.26, 50.9481], [8.252, 50.96], [8.24, 50.9651], [8.2214, 50.96], [8.22, 50.9594], [8.2, 50.954], [8.18, 50.954], [8.1754, 50.94], [8.18, 50.9356], [8.1938, 50.92], [8.2, 50.9156], [8.2159, 50.9], [8.2128, 50.88], [8.22, 50.8684], [8.2237, 50.86], [8.22, 50.8495], [8.2128, 50.84], [8.2167, 50.82], [8.22, 50.8159], [8.2355, 50.8], [8.24, 50.7972], [8.2537, 50.78], [8.26, 50.7717], [8.28, 50.7716], [8.3, 50.7635], [8.32, 50.7689], [8.3255, 50.76], [8.34, 50.744], [8.3412, 50.74], [8.34, 50.7379], [8.3303, 50.72], [8.334, 50.7], [8.3317, 50.68], [8.32, 50.6686], [8.3133, 50.66], [8.32, 50.6484], [8.3253, 50.64], [8.34, 50.6204], [8.3408, 50.62], [8.34, 50.6193], [8.32, 50.6187], [8.3198, 50.62], [8.3, 50.6366], [8.2967, 50.64], [8.28, 50.6531], [8.26, 50.6572], [8.24, 50.6591], [8.238, 50.66], [8.2309, 50.68], [8.22, 50.6956], [8.2138, 50.7], [8.2, 50.7174], [8.18, 50.719], [8.16, 50.7192], [8.158, 50.72], [8.14, 50.7279], [8.12, 50.7357], [8.1073, 50.74], [8.1, 50.7446], [8.0954, 50.74], [8.08, 50.7368], [8.06, 50.7316], [8.04, 50.7381], [8.0252, 50.72], [8.02, 50.7161], [8.0, 50.7097], [7.98, 50.7068], [7.9684, 50.7], [7.96, 50.6879], [7.9519, 50.68], [7.94, 50.6716], [7.9339, 50.66], [7.94, 50.6475], [7.9459, 50.64], [7.9446, 50.62], [7.94, 50.6146], [7.9243, 50.6], [7.92, 50.5861], [7.9, 50.5861], [7.8915, 50.58], [7.9, 50.5762], [7.9097, 50.56], [7.92, 50.5528], [7.94, 50.5481], [7.9503, 50.56], [7.96, 50.5673], [7.98, 50.5661], [8.0, 50.5708], [8.0115, 50.56], [8.02, 50.5515], [8.04, 50.5531], [8.0552, 50.54], [8.06, 50.537], [8.08, 50.5353], [8.1, 50.5341], [8.12, 50.5214], [8.14, 50.521], [8.16, 50.521], [8.18, 50.5216], [8.1818, 50.52], [8.2, 50.5049], [8.2075, 50.5]]}}]}