{"type": "FeatureCollection", "features": [{"type": "Feature", "properties": {"level": 1005.0}, "geometry": {"type": "LineString", "coordinates": [[6.3476, 52.82], [6.36, 52.8066], [6.38, 52.8186], [6.3822, 52.82], [6.38, 52.8263], [6.36, 52.825], [6.3476, 52.82]]}}, {"type": "Feature", "properties": {"level": 1005.0}, "geometry": {"type": "LineString", "coordinates": [[6.4699, 52.86], [6.48, 52.858], [6.5, 52.8588], [6.52, 52.8593], [6.54, 52.8592], [6.5417, 52.86], [6.54, 52.8674], [6.52, 52.8661], [6.5, 52.8648], [6.48, 52.8683], [6.4699, 52.86]]}}, {"type": "Feature", "properties": {"level": 1005.0}, "geometry": {"type": "LineString", "coordinates": [[8.5, 52.895], [8.48, 52.8897], [8.46, 52.8831], [8.4558, 52.88], [8.44, 52.8724], [8.42, 52.8682], [8.4, 52.8682], [8.38, 52.8666], [8.3605, 52.86], [8.36, 52.8598], [8.3595, 52.86], [8.34, 52.8673], [8.32, 52.87], [8.3, 52.8712], [8.28, 52.8726], [8.26, 52.8689], [8.2464, 52.88], [8.24, 52.8839], [8.22, 52.8852], [8.2, 52.883], [8.1954, 52.88], [8.18, 52.8638], [8.16, 52.864], [8.14, 52.8639], [8.12, 52.8616], [8.1164, 52.86], [8.1, 52.8436], [8.0812, 52.84], [8.08, 52.8398], [8.0602, 52.82], [8.06, 52.8199], [8.0476, 52.82], [8.0476, 52.84], [8.04, 52.8401], [8.0398, 52.84], [8.02, 52.8202], [8.0, 52.8262], [7.98, 52.8244], [7.96, 52.8243], [7.94, 52.8272], [7.92, 52.8315], [7.9, 52.8388], [7.88, 52.8309], [7.86, 52.8286], [7.8428, 52.82], [7.84, 52.8185], [7.82, 52.8192], [7.8, 52.8096], [7.7898, 52.8], [7.78, 52.7879], [7.7617, 52.78], [7.78, 52.7617], [7.7806, 52.76], [7.78, 52.7594], [7.76, 52.7587], [7.7587, 52.76], [7.74, 52.7685], [7.7254, 52.76], [7.72, 52.7547], [7.7, 52.7429], [7.68, 52.7416], [7.66, 52.7416], [7.64, 52.7574], [7.62, 52.7489], [7.6, 52.7411], [7.58, 52.7406], [7.56, 52.741], [7.5577, 52.74], [7.54, 52.7325], [7.52, 52.7309], [7.5, 52.7255], [7.4873, 52.72], [7.48, 52.7146], [7.46, 52.7171], [7.44, 52.7029], [7.42, 52.7013], [7.4181, 52.7], [7.42, 52.6948], [7.4247, 52.68], [7.42, 52.6763], [7.4, 52.6712], [7.38, 52.667], [7.3612, 52.68], [7.36, 52.6812], [7.34, 52.6807], [7.32, 52.6871], [7.3, 52.6848], [7.28, 52.6844], [7.26, 52.6856], [7.24, 52.6825], [7.2365, 52.68], [7.22, 52.6709], [7.2076, 52.66], [7.2, 52.6505], [7.1884, 52.64], [7.18, 52.6312], [7.16, 52.6312], [7.148, 52.62], [7.14, 52.6132], [7.12, 52.6135], [7.1, 52.6129], [7.088, 52.62], [7.08, 52.6246], [7.06, 52.6248], [7.0527, 52.62], [7.04, 52.6073], [7.0341, 52.6], [7.02, 52.5921], [7.003, 52.58], [7.0, 52.5779], [6.98, 52.5751], [6.96, 52.5642], [6.94, 52.5639], [6.9259, 52.56], [6.92, 52.5585], [6.9, 52.5575], [6.88, 52.5561], [6.8669, 52.56], [6.8632, 52.58], [6.86, 52.5812], [6.84, 52.5821], [6.82, 52.5817], [6.8, 52.59], [6.78, 52.5868], [6.76, 52.5818], [6.74, 52.5822], [6.72, 52.5802], [6.7195, 52.58], [6.7, 52.57], [6.6824, 52.56], [6.68, 52.5586], [6.66, 52.5573], [6.64, 52.5574], [6.62, 52.5531], [6.6, 52.5543], [6.58, 52.5509], [6.56, 52.5519], [6.5434, 52.56], [6.54, 52.5623], [6.5308, 52.56], [6.52, 52.5578], [6.5, 52.5555], [6.4827, 52.54], [6.48, 52.5377], [6.46, 52.5266], [6.4537, 52.52], [6.44, 52.5062], [6.4269, 52.5], [6.4269, 52.48], [6.42, 52.4774], [6.4, 52.4616], [6.38, 52.4602], [6.36, 52.4602], [6.3494, 52.48], [6.34, 52.4877], [6.32, 52.4989], [6.3186, 52.5], [6.3, 52.5135], [6.28, 52.5137], [6.2609, 52.52], [6.26, 52.5203], [6.2578, 52.52], [6.24, 52.5171], [6.2356, 52.52], [6.22, 52.527], [6.2, 52.5373], [6.18, 52.5377], [6.1776, 52.54], [6.16, 52.5596], [6.1596, 52.56], [6.14, 52.5646], [6.1268, 52.56], [6.12, 52.5558], [6.1, 52.5569], [6.08, 52.5486], [6.06, 52.5456], [6.04, 52.5477], [6.02, 52.5478], [6.0, 52.5451], [5.98, 52.5494], [5.96, 52.5473], [5.9578, 52.56], [5.96, 52.5613], [5.9791, 52.58], [5.98, 52.5805], [6.0, 52.5849], [6.02, 52.59], [6.0303, 52.6], [6.04, 52.6114], [6.06, 52.6098], [6.0711, 52.62], [6.08, 52.6289], [6.0892, 52.64], [6.1, 52.6498], [6.1177, 52.66], [6.12, 52.6616], [6.14, 52.669], [6.1549, 52.68], [6.16, 52.6852], [6.18, 52.6852], [6.197, 52.7], [6.2, 52.7029], [6.22, 52.7173], [6.2245, 52.72], [6.24, 52.7325], [6.2476, 52.74], [6.26, 52.757], [6.2644, 52.76], [6.28, 52.7688], [6.2912, 52.78], [6.3, 52.7896], [6.32, 52.7924], [6.3357, 52.8], [6.32, 52.814], [6.3, 52.814], [6.28, 52.8083], [6.2623, 52.8], [6.26, 52.7979], [6.24, 52.7992], [6.22, 52.7938], [6.2, 52.7938], [6.18, 52.799], [6.16, 52.7996], [6.158, 52.8], [6.14, 52.8025], [6.1334, 52.8], [6.12, 52.7946], [6.1, 52.7961], [6.08, 52.795], [6.06, 52.7952], [6.04, 52.7921], [6.02, 52.79], [6.0, 52.7925], [5.98, 52.7907], [5.96, 52.7889], [5.94, 52.7809], [5.92, 52.7911], [5.9, 52.7911], [5.88, 52.7875], [5.86, 52.7873], [5.84, 52.783], [5.82, 52.7816], [5.8, 52.7935], [5.78, 52.7949], [5.76, 52.7883], [5.74, 52.7833], [5.72, 52.7823], [5.7, 52.7847], [5.6871, 52.78], [5.68, 52.7772], [5.6659, 52.78], [5.66, 52.7817], [5.6533, 52.78], [5.64, 52.7761], [5.62, 52.7748], [5.602, 52.78], [5.6, 52.7807], [5.598, 52.78], [5.58, 52.7764], [5.5627, 52.78], [5.56, 52.7806], [5.5578, 52.78], [5.54, 52.7744], [5.5264, 52.78], [5.52, 52.7822], [5.5075, 52.78], [5.5, 52.7776], [5.48, 52.7775], [5.46, 52.7795], [5.4527, 52.76], [5.44, 52.7416], [5.42, 52.7408], [5.4, 52.7421], [5.38, 52.7421], [5.36, 52.7597], [5.3596, 52.76], [5.36, 52.7642], [5.38, 52.7774], [5.3837, 52.78], [5.38, 52.7823], [5.3669, 52.8], [5.36, 52.808], [5.3497, 52.82], [5.34, 52.825], [5.32, 52.8287], [5.3, 52.8334], [5.2863, 52.84], [5.28, 52.8428], [5.26, 52.8427], [5.24, 52.8512], [5.2207, 52.86], [5.22, 52.8604], [5.2, 52.8609], [5.18, 52.8791], [5.1787, 52.88], [5.16, 52.886], [5.14, 52.8887], [5.12, 52.8916], [5.1, 52.8957], [5.08, 52.8899], [5.06, 52.8845], [5.04, 52.8825], [5.02, 52.884], [5.0005, 52.9], [5.0, 52.9004], [4.98, 52.9161], [4.9734, 52.92], [4.96, 52.925], [4.94, 52.9335], [4.9233, 52.94], [4.9226, 52.96], [4.92, 52.9611], [4.9083, 52.96], [4.9, 52.9587], [4.88, 52.9592], [4.8782, 52.96], [4.86, 52.9679], [4.84, 52.9745], [4.82, 52.9763], [4.812, 52.98], [4.8, 52.9843], [4.78, 52.9829], [4.76, 52.9876], [4.74, 52.9887], [4.72, 52.9816], [4.7, 52.9902], [4.68, 52.9802], [4.66, 52.9818], [4.64, 52.9812], [4.62, 52.9813], [4.6, 52.9822], [4.5978, 52.98], [4.58, 52.9774], [4.5739, 52.98], [4.5739, 53.0], [4.56, 53.0067], [4.54, 53.0124], [4.52, 53.0117], [4.5133, 53.02], [4.5, 53.0328], [4.4921, 53.04], [4.48, 53.0476], [4.4627, 53.06], [4.46, 53.0633], [4.4466, 53.08], [4.44, 53.0854], [4.4249, 53.1], [4.42, 53.1059], [4.4, 53.1153], [4.3872, 53.12], [4.38, 53.1221], [4.36, 53.1316], [4.341, 53.14], [4.34, 53.1405], [4.32, 53.1408], [4.3, 53.1582], [4.298, 53.16], [4.28, 53.1682], [4.26, 53.1771], [4.24, 53.1786], [4.2373, 53.18], [4.22, 53.1888], [4.2, 53.1976], [4.18, 53.1974], [4.1741, 53.2], [4.16, 53.2056], [4.14, 53.2086], [4.12, 53.2058], [4.1, 53.2159], [4.08, 53.2147], [4.06, 53.2156], [4.0492, 53.22], [4.04, 53.2292], [4.0282, 53.24], [4.02, 53.2481], [4.0, 53.2479], [3.98, 53.2536], [3.9667, 53.26], [3.96, 53.2633], [3.94, 53.2643], [3.92, 53.2703], [3.9, 53.2755], [3.88, 53.2772], [3.8664, 53.28], [3.86, 53.2812], [3.84, 53.2813], [3.8352, 53.28], [3.82, 53.2764], [3.8095, 53.28], [3.8, 53.2833], [3.78, 53.2915], [3.76, 53.2941], [3.74, 53.2965], [3.72, 53.2976], [3.7138, 53.3], [3.7, 53.3025], [3.68, 53.3034], [3.66, 53.303], [3.64, 53.3079], [3.62, 53.3075], [3.6, 53.3113], [3.58, 53.3142], [3.56, 53.3177], [3.5536, 53.32], [3.5557, 53.34], [3.56, 53.3439], [3.5708, 53.36], [3.56, 53.3699], [3.5482, 53.38], [3.54, 53.3821], [3.52, 53.3836], [3.5, 53.3826], [3.48, 53.3876], [3.46, 53.3847], [3.44, 53.3846], [3.42, 53.3868], [3.4, 53.3872], [3.38, 53.3895], [3.36, 53.3868], [3.34, 53.391], [3.32, 53.3996], [3.3, 53.3989], [3.2979, 53.4], [3.28, 53.4132], [3.2688, 53.42], [3.26, 53.4271], [3.24, 53.4345], [3.22, 53.4377], [3.2144, 53.44], [3.2, 53.4561], [3.1958, 53.46], [3.18, 53.468], [3.16, 53.4754], [3.14, 53.4738], [3.12, 53.4799], [3.1, 53.4713], [3.08, 53.4754], [3.06, 53.4754], [3.04, 53.4705], [3.0236, 53.48], [3.02, 53.4813], [3.0, 53.4834], [2.98, 53.4907], [2.96, 53.4966], [2.94, 53.4961], [2.92, 53.4934], [2.9, 53.4971], [2.88, 53.498], [2.8657, 53.5], [2.86, 53.5014], [2.8427, 53.52], [2.84, 53.5211], [2.82, 53.5218], [2.8, 53.5318], [2.7841, 53.54], [2.78, 53.5426], [2.76, 53.5416], [2.74, 53.55], [2.72, 53.5524], [2.7, 53.5524], [2.68, 53.5521], [2.66, 53.5493], [2.64, 53.5503], [2.62, 53.5557], [2.6, 53.5557], [2.5968, 53.56], [2.58, 53.5707], [2.5695, 53.58], [2.56, 53.5932], [2.5541, 53.6], [2.54, 53.6098], [2.5202, 53.62], [2.52, 53.6201], [2.5, 53.6205]]}}, {"type": "Feature", "properties": {"level": 1010.0}, "geometry": {"type": "LineString", "coordinates": [[7.4122, 51.42], [7.42, 51.404], [7.44, 51.4177], [7.4423, 51.42], [7.45, 51.44], [7.44, 51.4421], [7.4362, 51.44], [7.42, 51.421], [7.4122, 51.42]]}}, {"type": "Feature", "properties": {"level": 1010.0}, "geometry": {"type": "LineString", "coordinates": [[7.4974, 51.42], [7.5, 51.419], [7.5009, 51.42], [7.5, 51.4209], [7.4974, 51.42]]}}, {"type": "Feature", "properties": {"level": 1010.0}, "geometry": {"type": "LineString", "coordinates": [[8.5, 51.5047], [8.48, 51.5056], [8.46, 51.5059], [8.44, 51.509], [8.42, 51.5072], [8.4, 51.5043], [8.3881, 51.5], [8.38, 51.4943], [8.36, 51.4961], [8.34, 51.4961], [8.32, 51.4876], [8.311, 51.48], [8.3, 51.4757], [8.28, 51.4739], [8.26, 51.4723], [8.2421, 51.46], [8.24, 51.4588], [8.22, 51.46], [8.2, 51.46], [8.18, 51.4564], [8.16, 51.4536], [8.14, 51.4554], [8.123, 51.46], [8.123, 51.48], [8.12, 51.4809], [8.1168, 51.48], [8.1, 51.4746], [8.08, 51.4788], [8.06, 51.4724], [8.04, 51.4712], [8.02, 51.4767], [8.0, 51.4676], [7.9841, 51.46], [8.0, 51.4425], [8.02, 51.4415], [8.0209, 51.44], [8.02, 51.4377], [8.0, 51.4377], [7.9873, 51.42], [7.98, 51.4159], [7.96, 51.4134], [7.94, 51.4198], [7.9396, 51.42], [7.9211, 51.44], [7.92, 51.4406], [7.9, 51.4407], [7.893, 51.44], [7.88, 51.4379], [7.86, 51.4302], [7.8511, 51.42], [7.84, 51.4104], [7.82, 51.409], [7.8, 51.4064], [7.78, 51.4081], [7.7604, 51.4], [7.76, 51.3996], [7.7596, 51.4], [7.74, 51.4067], [7.7212, 51.4], [7.72, 51.3996], [7.7, 51.3996], [7.6981, 51.4], [7.68, 51.4043], [7.66, 51.4004], [7.64, 51.4081], [7.62, 51.4051], [7.6, 51.4114], [7.58, 51.4038], [7.56, 51.4077], [7.54, 51.4075], [7.5317, 51.4], [7.52, 51.3846], [7.5138, 51.38], [7.5, 51.3761], [7.4807, 51.38], [7.48, 51.3813], [7.4792, 51.38], [7.46, 51.3719], [7.44, 51.3705], [7.42, 51.3695], [7.4, 51.3729], [7.38, 51.3661], [7.36, 51.3683], [7.34, 51.3683], [7.32, 51.3664], [7.3028, 51.38], [7.3, 51.3826], [7.28, 51.3823], [7.2728, 51.38], [7.26, 51.3712], [7.2488, 51.36], [7.24, 51.3574], [7.2233, 51.36], [7.2233, 51.38], [7.22, 51.3809], [7.2178, 51.38], [7.2, 51.3743], [7.18, 51.3781], [7.16, 51.3716], [7.14, 51.3665], [7.12, 51.3662], [7.1, 51.3663], [7.08, 51.3615], [7.06, 51.3672], [7.04, 51.3611], [7.02, 51.3614], [7.0, 51.3697], [6.98, 51.3634], [6.96, 51.3701], [6.94, 51.3634], [6.92, 51.3612], [6.9171, 51.36], [6.9, 51.3566], [6.8809, 51.36], [6.88, 51.3604], [6.86, 51.3603], [6.8589, 51.36], [6.84, 51.3557], [6.82, 51.3512], [6.8, 51.3426], [6.7953, 51.34], [6.78, 51.3297], [6.76, 51.3285], [6.7456, 51.32], [6.74, 51.3144], [6.7239, 51.3], [6.72, 51.2963], [6.7035, 51.28], [6.7, 51.2778], [6.68, 51.2749], [6.66, 51.2681], [6.64, 51.2682], [6.62, 51.2705], [6.6, 51.2682], [6.5816, 51.26], [6.58, 51.2592], [6.56, 51.2563], [6.54, 51.2492], [6.5276, 51.24], [6.52, 51.2298], [6.5, 51.2284], [6.48, 51.2273], [6.46, 51.2238], [6.44, 51.2248], [6.42, 51.2231], [6.4, 51.225], [6.38, 51.2269], [6.36, 51.231], [6.34, 51.23], [6.32, 51.2284], [6.301, 51.22], [6.3, 51.2196], [6.28, 51.2121], [6.26, 51.2055], [6.24, 51.2017], [6.2373, 51.2], [6.22, 51.1918], [6.2, 51.1931], [6.18, 51.191], [6.1653, 51.2], [6.16, 51.2023], [6.14, 51.2013], [6.12, 51.2013], [6.1, 51.2053], [6.0862, 51.2], [6.08, 51.1976], [6.06, 51.1947], [6.04, 51.1873], [6.02, 51.1807], [6.0, 51.1844], [5.98, 51.1833], [5.9728, 51.18], [5.96, 51.1741], [5.94, 51.167], [5.92, 51.1637], [5.9068, 51.16], [5.9, 51.1576], [5.8911, 51.16], [5.88, 51.162], [5.86, 51.1624], [5.8538, 51.16], [5.84, 51.1547], [5.82, 51.1567], [5.8, 51.1511], [5.78, 51.1511], [5.76, 51.1498], [5.74, 51.1516], [5.72, 51.1539], [5.7, 51.1541], [5.68, 51.1537], [5.66, 51.1521], [5.64, 51.1483], [5.62, 51.1504], [5.6, 51.1556], [5.5857, 51.14], [5.58, 51.1373], [5.56, 51.1352], [5.54, 51.1303], [5.5203, 51.12], [5.52, 51.1199], [5.5076, 51.12], [5.5, 51.1201], [5.4999, 51.12], [5.48, 51.1113], [5.46, 51.1121], [5.44, 51.1115], [5.42, 51.1148], [5.4, 51.1127], [5.38, 51.1158], [5.36, 51.1131], [5.3531, 51.12], [5.34, 51.1277], [5.32, 51.1204], [5.3, 51.1203], [5.28, 51.1225], [5.26, 51.1231], [5.24, 51.124], [5.22, 51.1258], [5.2, 51.1275], [5.18, 51.1205], [5.169, 51.12], [5.16, 51.1195], [5.14, 51.1084], [5.1269, 51.1], [5.12, 51.0912], [5.1054, 51.08], [5.1, 51.0762], [5.0936, 51.08], [5.08, 51.0936], [5.06, 51.0918], [5.0416, 51.1], [5.04, 51.1004], [5.0363, 51.1], [5.02, 51.0962], [5.0, 51.0878], [4.98, 51.0823], [4.9765, 51.08], [4.96, 51.0633], [4.94, 51.0644], [4.92, 51.0651], [4.9, 51.0629], [4.8921, 51.06], [4.88, 51.0491], [4.8689, 51.04], [4.86, 51.0365], [4.84, 51.0348], [4.82, 51.0281], [4.804, 51.02], [4.8, 51.0179], [4.78, 51.0175], [4.76, 51.0184], [4.74, 51.0177], [4.72, 51.0174], [4.7, 51.0117], [4.68, 51.0018], [4.66, 51.0046], [4.6554, 51.0], [4.64, 50.9947], [4.62, 50.9972], [4.6, 50.9952], [4.58, 50.9908], [4.56, 50.9841], [4.54, 50.9829], [4.5338, 50.98], [4.52, 50.975], [4.5004, 50.98], [4.5, 50.9804], [4.48, 50.9804], [4.4792, 50.98], [4.46, 50.9778], [4.44, 50.976], [4.42, 50.9704], [4.4027, 50.96], [4.4, 50.959], [4.3884, 50.96], [4.38, 50.9612], [4.3779, 50.96], [4.36, 50.9542], [4.34, 50.9522], [4.32, 50.9542], [4.3, 50.9497], [4.28, 50.9441], [4.26, 50.9435], [4.2517, 50.94], [4.24, 50.9367], [4.2257, 50.94], [4.22, 50.943], [4.2096, 50.94], [4.2, 50.9385], [4.1949, 50.94], [4.18, 50.9549], [4.16, 50.9596], [4.14, 50.9595], [4.1389, 50.96], [4.12, 50.9622], [4.1, 50.9623], [4.08, 50.962], [4.06, 50.9629], [4.04, 50.9636], [4.0329, 50.96], [4.02, 50.9543], [4.0, 50.9467], [3.98, 50.9438], [3.9731, 50.94], [3.96, 50.9232], [3.9557, 50.92], [3.94, 50.9143], [3.92, 50.9116], [3.9, 50.9085], [3.88, 50.9027], [3.86, 50.9077], [3.8416, 50.92], [3.84, 50.9209], [3.82, 50.9216], [3.8, 50.9259], [3.78, 50.9327], [3.76, 50.9327], [3.74, 50.9339], [3.72, 50.9313], [3.7, 50.9365], [3.68, 50.9304], [3.66, 50.9323], [3.64, 50.926], [3.62, 50.9228], [3.6, 50.9237], [3.58, 50.9263], [3.5627, 50.92], [3.56, 50.919], [3.5558, 50.92], [3.54, 50.9243], [3.5236, 50.92], [3.52, 50.919], [3.5, 50.9191], [3.4961, 50.92], [3.48, 50.9288], [3.46, 50.9288], [3.44, 50.9324], [3.42, 50.9345], [3.4, 50.9307], [3.38, 50.9296], [3.36, 50.9313], [3.34, 50.9362], [3.32, 50.9378], [3.3148, 50.94], [3.3, 50.955], [3.294, 50.96], [3.28, 50.9666], [3.26, 50.9681], [3.24, 50.9699], [3.22, 50.9736], [3.2, 50.9712], [3.18, 50.9772], [3.1725, 50.98], [3.16, 50.9845], [3.14, 50.9909], [3.12, 50.9958], [3.1, 50.9958], [3.08, 50.9906], [3.06, 50.9854], [3.04, 50.9832], [3.0329, 50.98], [3.02, 50.974], [3.0, 50.9781], [2.98, 50.9771], [2.9763, 50.98], [2.96, 50.9873], [2.94, 50.9975], [2.92, 50.9977], [2.9158, 51.0], [2.9, 51.0056], [2.8814, 51.02], [2.88, 51.0216], [2.86, 51.0229], [2.84, 51.026], [2.82, 51.0236], [2.8, 51.0224], [2.78, 51.0271], [2.7648, 51.04], [2.76, 51.0443], [2.74, 51.0443], [2.72, 51.0527], [2.705, 51.06], [2.7, 51.0639], [2.6866, 51.06], [2.68, 51.0587], [2.6632, 51.06], [2.66, 51.0603], [2.6588, 51.06], [2.64, 51.0551], [2.625, 51.06], [2.62, 51.062], [2.6, 51.0632], [2.58, 51.0685], [2.5632, 51.08], [2.56, 51.0842], [2.545, 51.1], [2.54, 51.1028], [2.52, 51.1043], [2.5, 51.1105]]}}]}