{"type": "FeatureCollection", "features": [{"type": "Feature", "properties": {"level": 1020.0}, "geometry": {"type": "LineString", "coordinates": [[7.84, 51.0353], [7.8329, 51.04], [7.8225, 51.06], [7.8302, 51.08], [7.84, 51.0866], [7.86, 51.0869], [7.88, 51.0894], [7.8999, 51.08], [7.9, 51.0798], [7.906, 51.06], [7.9, 51.0561], [7.8871, 51.04], [7.88, 51.0333], [7.86, 51.0299], [7.84, 51.0353]]}}, {"type": "Feature", "properties": {"level": 1020.0}, "geometry": {"type": "LineString", "coordinates": [[7.96, 51.0798], [7.9553, 51.08], [7.9592, 51.1], [7.96, 51.1002], [7.98, 51.1001], [7.9804, 51.1], [7.9805, 51.08], [7.98, 51.0798], [7.96, 51.0798]]}}, {"type": "Feature", "properties": {"level": 1020.0}, "geometry": {"type": "LineString", "coordinates": [[8.5, 51.5098], [8.48, 51.5037], [8.46, 51.5023], [8.44, 51.5023], [8.4355, 51.5], [8.4271, 51.48], [8.44, 51.4687], [8.4463, 51.46], [8.46, 51.4463], [8.4637, 51.44], [8.46, 51.4348], [8.44, 51.4348], [8.4216, 51.42], [8.42, 51.4192], [8.4, 51.419], [8.38, 51.4103], [8.36, 51.4049], [8.34, 51.4161], [8.32, 51.4161], [8.3001, 51.4], [8.3, 51.3999], [8.28, 51.3999], [8.2799, 51.4], [8.26, 51.408], [8.24, 51.408], [8.22, 51.407], [8.2077, 51.4], [8.2, 51.3923], [8.1809, 51.38], [8.18, 51.3794], [8.16, 51.3781], [8.14, 51.3665], [8.1335, 51.36], [8.1342, 51.34], [8.14, 51.3354], [8.16, 51.3369], [8.1637, 51.32], [8.16, 51.3171], [8.14, 51.3114], [8.12, 51.3087], [8.1, 51.3047], [8.0913, 51.3], [8.08, 51.2944], [8.06, 51.293], [8.04, 51.2818], [8.0372, 51.28], [8.02, 51.2697], [8.0, 51.265], [7.98, 51.2642], [7.96, 51.2653], [7.9477, 51.26], [7.94, 51.2538], [7.9289, 51.26], [7.92, 51.2634], [7.9106, 51.26], [7.9, 51.2527], [7.88, 51.2477], [7.8629, 51.26], [7.86, 51.2608], [7.8587, 51.26], [7.84, 51.2414], [7.832, 51.24], [7.82, 51.2376], [7.8046, 51.22], [7.8, 51.208], [7.7923, 51.2], [7.8, 51.196], [7.8107, 51.18], [7.8, 51.1688], [7.7897, 51.16], [7.78, 51.1564], [7.76, 51.1563], [7.74, 51.1565], [7.72, 51.1547], [7.7, 51.1443], [7.6863, 51.14], [7.68, 51.1388], [7.66, 51.1201], [7.6599, 51.12], [7.64, 51.1038], [7.6203, 51.1], [7.64, 51.089], [7.6459, 51.08], [7.66, 51.0632], [7.6626, 51.06], [7.6742, 51.04], [7.68, 51.0387], [7.6893, 51.04], [7.7, 51.0431], [7.72, 51.0422], [7.7232, 51.04], [7.7275, 51.02], [7.74, 51.0046], [7.7457, 51.0], [7.74, 50.9934], [7.72, 50.9934], [7.717, 50.98], [7.72, 50.9749], [7.7351, 50.96], [7.74, 50.9488], [7.7478, 50.94], [7.74, 50.9279], [7.72, 50.9279], [7.7117, 50.92], [7.72, 50.9112], [7.7274, 50.9], [7.74, 50.8883], [7.7448, 50.88], [7.74, 50.8707], [7.7234, 50.86], [7.7393, 50.84], [7.74, 50.8396], [7.7407, 50.84], [7.76, 50.8499], [7.78, 50.852], [7.8, 50.8464], [7.82, 50.8412], [7.84, 50.8412], [7.8416, 50.84], [7.86, 50.8298], [7.8713, 50.82], [7.88, 50.8131], [7.8885, 50.8], [7.899, 50.78], [7.9, 50.7758], [7.9018, 50.78], [7.92, 50.7891], [7.94, 50.7834], [7.96, 50.7825], [7.98, 50.7833], [8.0, 50.7838], [8.0088, 50.78], [8.0, 50.7782], [7.98, 50.7688], [7.96, 50.772], [7.9538, 50.76], [7.96, 50.7525], [7.9656, 50.74], [7.96, 50.7317], [7.9473, 50.74], [7.94, 50.746], [7.92, 50.7537], [7.9, 50.7532], [7.88, 50.7494], [7.8733, 50.74], [7.86, 50.7297], [7.8437, 50.72], [7.84, 50.712], [7.828, 50.7], [7.84, 50.6841], [7.8415, 50.68], [7.84, 50.677], [7.8345, 50.66], [7.82, 50.6515], [7.8061, 50.64], [7.8, 50.634], [7.78, 50.6328], [7.76, 50.6226], [7.74, 50.6211], [7.7367, 50.62], [7.72, 50.602], [7.7163, 50.6], [7.72, 50.5963], [7.7275, 50.58], [7.74, 50.566], [7.76, 50.5691], [7.78, 50.5639], [7.7863, 50.56], [7.7883, 50.54], [7.78, 50.5301], [7.76, 50.5259], [7.7514, 50.52], [7.74, 50.5148], [7.7209, 50.5]]}}]}