{"type": "FeatureCollection", "features": [{"type": "Feature", "properties": {"level": 1010.0}, "geometry": {"type": "LineString", "coordinates": [[8.5, 53.9673], [8.4846, 53.98]]}}, {"type": "Feature", "properties": {"level": 1015.0}, "geometry": {"type": "LineString", "coordinates": [[8.5, 51.6843], [8.48, 51.6835], [8.46, 51.6936], [8.44, 51.6895], [8.42, 51.6923], [8.4, 51.6982], [8.38, 51.7], [8.38, 51.7], [8.3718, 51.72], [8.36, 51.7321], [8.3495, 51.74], [8.34, 51.7464], [8.3209, 51.76], [8.32, 51.7629], [8.3, 51.7708], [8.28, 51.78], [8.28, 51.78], [8.28, 51.8], [8.26, 51.8105], [8.2456, 51.82], [8.24, 51.8237], [8.22, 51.8312], [8.2, 51.8395], [8.1991, 51.84], [8.18, 51.8519], [8.1695, 51.86], [8.1695, 51.88], [8.16, 51.887], [8.14, 51.8992], [8.1361, 51.9], [8.12, 51.9035], [8.1, 51.9146], [8.0927, 51.92], [8.0803, 51.94], [8.08, 51.9403], [8.0603, 51.96], [8.06, 51.9601], [8.04, 51.9618], [8.02, 51.9708], [8.0003, 51.98], [8.0, 51.9801], [7.9978, 51.98], [7.98, 51.978], [7.9776, 51.98], [7.96, 51.9886], [7.94, 51.9979], [7.92, 51.9979], [7.9182, 52.0], [7.9, 52.0192], [7.8993, 52.02], [7.88, 52.0348], [7.8718, 52.04], [7.8706, 52.06], [7.86, 52.0662], [7.8417, 52.08], [7.84, 52.0825], [7.8215, 52.1], [7.82, 52.102], [7.8, 52.1016], [7.78, 52.1097], [7.76, 52.1186], [7.74, 52.1191], [7.7387, 52.12], [7.72, 52.1312], [7.704, 52.14], [7.7076, 52.16], [7.7, 52.1645], [7.68, 52.1717], [7.66, 52.1783], [7.6574, 52.18], [7.64, 52.1898], [7.6222, 52.2], [7.62, 52.2011], [7.6, 52.2012], [7.58, 52.2098], [7.56, 52.2156], [7.5553, 52.22], [7.54, 52.2335], [7.52, 52.2357], [7.5041, 52.24], [7.5, 52.243], [7.48, 52.243], [7.46, 52.2527], [7.4424, 52.26], [7.4403, 52.28], [7.44, 52.2805], [7.42, 52.2849], [7.4, 52.2849], [7.3978, 52.3], [7.38, 52.3081], [7.36, 52.3159], [7.34, 52.312], [7.3256, 52.32], [7.32, 52.3215], [7.3, 52.3224], [7.29, 52.32], [7.28, 52.3183], [7.2757, 52.32], [7.26, 52.3278], [7.24, 52.3242], [7.22, 52.3308], [7.2, 52.339], [7.1986, 52.34], [7.18, 52.3556], [7.16, 52.358], [7.157, 52.36], [7.14, 52.3794], [7.12, 52.3794], [7.1, 52.3797], [7.0994, 52.38], [7.0829, 52.4], [7.08, 52.4031], [7.0631, 52.42], [7.06, 52.4217], [7.04, 52.4236], [7.02, 52.4316], [7.0068, 52.44], [7.0, 52.444], [6.98, 52.4546], [6.96, 52.4598], [6.9597, 52.46], [6.94, 52.4718], [6.9236, 52.48], [6.9236, 52.5], [6.92, 52.5015], [6.903, 52.5], [6.9, 52.497], [6.88, 52.4997], [6.8794, 52.5], [6.871, 52.52], [6.86, 52.5347], [6.8531, 52.54], [6.84, 52.5467], [6.8238, 52.56], [6.82, 52.5651], [6.8084, 52.58], [6.8, 52.5952], [6.79, 52.6], [6.78, 52.6043], [6.76, 52.6043], [6.7538, 52.62], [6.74, 52.635], [6.7356, 52.64], [6.74, 52.6503], [6.7443, 52.66], [6.7515, 52.68], [6.7445, 52.7], [6.74, 52.7058], [6.72, 52.7129], [6.7, 52.7179], [6.68, 52.7186], [6.6628, 52.72], [6.66, 52.7205], [6.6424, 52.74], [6.64, 52.7443], [6.62, 52.7453], [6.6, 52.7566], [6.5928, 52.76], [6.58, 52.7642], [6.56, 52.7641], [6.54, 52.7702], [6.5212, 52.78], [6.52, 52.7809], [6.5, 52.7821], [6.4863, 52.8], [6.48, 52.812], [6.46, 52.8171], [6.4567, 52.82], [6.44, 52.8339], [6.42, 52.8339], [6.4, 52.8316], [6.3827, 52.84], [6.38, 52.844], [6.36, 52.8491], [6.3428, 52.86], [6.36, 52.8772], [6.3606, 52.88], [6.36, 52.8808], [6.34, 52.8834], [6.32, 52.8955], [6.3122, 52.9], [6.3, 52.9087], [6.2813, 52.92], [6.28, 52.9208], [6.26, 52.9308], [6.24, 52.936], [6.2339, 52.94], [6.22, 52.9572], [6.2174, 52.96], [6.22, 52.9675], [6.2246, 52.98], [6.2389, 53.0], [6.24, 53.0019], [6.26, 53.0148], [6.2661, 53.02], [6.26, 53.0249], [6.251, 53.04], [6.24, 53.0582], [6.2385, 53.06], [6.22, 53.0708], [6.2, 53.0684], [6.18, 53.0677], [6.163, 53.06], [6.16, 53.057], [6.14, 53.0534], [6.12, 53.0497], [6.1, 53.0535], [6.088, 53.06], [6.08, 53.0637], [6.06, 53.0611], [6.04, 53.0629], [6.0302, 53.06], [6.02, 53.0563], [6.0, 53.06], [5.98, 53.06], [5.96, 53.0595], [5.9588, 53.06], [5.94, 53.0712], [5.9301, 53.08], [5.9296, 53.1], [5.92, 53.1119], [5.9054, 53.12], [5.9, 53.1223], [5.8884, 53.12], [5.88, 53.1169], [5.8763, 53.12], [5.86, 53.1283], [5.842, 53.14], [5.84, 53.1413], [5.82, 53.1427], [5.8, 53.1456], [5.7854, 53.16], [5.78, 53.1658], [5.7652, 53.18], [5.76, 53.1826], [5.74, 53.1847], [5.72, 53.1916], [5.7019, 53.2], [5.7, 53.2023], [5.68, 53.2162], [5.6792, 53.22], [5.6684, 53.24], [5.66, 53.2484], [5.6488, 53.26], [5.64, 53.2676], [5.62, 53.2699], [5.6, 53.2737], [5.5906, 53.28], [5.58, 53.2929], [5.56, 53.2929], [5.54, 53.2948], [5.5272, 53.3], [5.52, 53.3071], [5.5109, 53.32], [5.5138, 53.34], [5.5, 53.3559], [5.4925, 53.36], [5.48, 53.3709], [5.4681, 53.38], [5.46, 53.3853], [5.4411, 53.4], [5.4436, 53.42], [5.44, 53.4252], [5.4252, 53.44], [5.42, 53.4474], [5.4147, 53.46], [5.4041, 53.48], [5.4, 53.4871], [5.3905, 53.5], [5.4, 53.5095], [5.4031, 53.52], [5.4, 53.5255], [5.3807, 53.54], [5.38, 53.5406], [5.36, 53.5408], [5.34, 53.5458], [5.32, 53.5498], [5.3, 53.5474], [5.28, 53.5592], [5.26, 53.5589], [5.24, 53.5583], [5.2369, 53.56], [5.22, 53.5702], [5.2083, 53.58], [5.2083, 53.6], [5.2, 53.6142], [5.194, 53.62], [5.2, 53.6391], [5.2003, 53.64], [5.2, 53.6406], [5.18, 53.6446], [5.16, 53.648], [5.1415, 53.66], [5.14, 53.6611], [5.1289, 53.68], [5.1366, 53.7], [5.1333, 53.72], [5.12, 53.733], [5.1055, 53.74], [5.1, 53.742], [5.08, 53.7524], [5.0689, 53.76], [5.06, 53.7689], [5.0518, 53.78], [5.0437, 53.8], [5.04, 53.8037], [5.0254, 53.82], [5.02, 53.8265], [5.0048, 53.84], [5.0, 53.8436], [4.9806, 53.86], [4.98, 53.8612], [4.9689, 53.88], [4.96, 53.8874], [4.9403, 53.9], [4.9468, 53.92], [4.94, 53.9268], [4.9327, 53.94], [4.94, 53.9546], [4.9425, 53.96], [4.9409, 53.98]]}}, {"type": "Feature", "properties": {"level": 1020.0}, "geometry": {"type": "LineString", "coordinates": [[5.1269, 50.5], [5.12, 50.5081], [5.1, 50.5129], [5.0874, 50.52], [5.08, 50.5249], [5.0699, 50.54], [5.06, 50.55], [5.0484, 50.56], [5.04, 50.5658], [5.0257, 50.58], [5.0285, 50.6], [5.02, 50.6076], [5.0048, 50.62], [5.0, 50.6237], [4.98, 50.6247], [4.96, 50.6307], [4.94, 50.6392], [4.92, 50.6392], [4.9193, 50.64], [4.9, 50.6481], [4.8881, 50.66], [4.88, 50.6686], [4.86, 50.679], [4.84, 50.6796], [4.8393, 50.68], [4.82, 50.6908], [4.8037, 50.7], [4.8, 50.7065], [4.78, 50.7091], [4.76, 50.7166], [4.7546, 50.72], [4.7532, 50.74], [4.74, 50.7482], [4.72, 50.7541], [4.7, 50.7557], [4.6933, 50.76], [4.68, 50.7636], [4.6637, 50.76], [4.66, 50.7587], [4.64, 50.7592], [4.639, 50.76], [4.625, 50.78], [4.62, 50.782], [4.6, 50.7933], [4.58, 50.7976], [4.5789, 50.8], [4.58, 50.8036], [4.5842, 50.82], [4.58, 50.8242], [4.56, 50.8302], [4.54, 50.8363], [4.5344, 50.84], [4.52, 50.8542], [4.5091, 50.86], [4.5071, 50.88], [4.5, 50.8855], [4.4859, 50.9], [4.48, 50.9059], [4.46, 50.9076], [4.44, 50.9045], [4.42, 50.9058], [4.4, 50.9129], [4.3934, 50.92], [4.38, 50.932], [4.367, 50.94], [4.36, 50.9442], [4.34, 50.9547], [4.32, 50.9578], [4.316, 50.96], [4.3, 50.9761], [4.2959, 50.98], [4.28, 50.9895], [4.26, 50.994], [4.24, 50.996], [4.2305, 51.0], [4.22, 51.0065], [4.2, 51.0159], [4.18, 51.0179], [4.1757, 51.02], [4.162, 51.04], [4.16, 51.0429], [4.1465, 51.06], [4.14, 51.0654], [4.12, 51.0708], [4.1, 51.0761], [4.0918, 51.08], [4.08, 51.0861], [4.06, 51.0994], [4.0589, 51.1], [4.06, 51.1039], [4.0615, 51.12], [4.0619, 51.14], [4.06, 51.1419], [4.04, 51.1407], [4.0371, 51.14], [4.04, 51.1338], [4.0538, 51.12], [4.04, 51.1131], [4.02, 51.1175], [4.0088, 51.12], [4.0, 51.1245], [3.985, 51.14], [3.98, 51.142], [3.96, 51.1462], [3.94, 51.1518], [3.9308, 51.16], [3.92, 51.164], [3.9, 51.1773], [3.88, 51.18], [3.88, 51.18], [3.86, 51.1877], [3.84, 51.1888], [3.82, 51.1932], [3.8061, 51.2], [3.8, 51.2052], [3.7864, 51.22], [3.78, 51.2264], [3.76, 51.2264], [3.74, 51.2335], [3.7277, 51.24], [3.72, 51.2477], [3.7, 51.2478], [3.68, 51.2547], [3.6703, 51.26], [3.66, 51.2668], [3.64, 51.2761], [3.62, 51.2783], [3.6172, 51.28], [3.62, 51.2979], [3.6221, 51.3], [3.62, 51.3006], [3.6, 51.3009], [3.5889, 51.32], [3.58, 51.328], [3.5641, 51.34], [3.56, 51.3427], [3.54, 51.3496], [3.52, 51.3574], [3.5161, 51.36], [3.52, 51.3717], [3.523, 51.38], [3.52, 51.3822], [3.5043, 51.4], [3.5121, 51.42], [3.5, 51.426], [3.4844, 51.44], [3.48, 51.4427], [3.4634, 51.46], [3.46, 51.4661], [3.4512, 51.48], [3.44, 51.4935], [3.4338, 51.5], [3.4291, 51.52], [3.42, 51.5263], [3.4052, 51.54], [3.4, 51.5492], [3.3921, 51.56], [3.38, 51.5734], [3.3741, 51.58], [3.36, 51.594], [3.352, 51.6], [3.3429, 51.62], [3.34, 51.6222], [3.32, 51.63], [3.3, 51.6341], [3.2969, 51.64], [3.3, 51.6513], [3.3022, 51.66], [3.3, 51.6621], [3.28, 51.6655], [3.26, 51.6788], [3.2581, 51.68], [3.24, 51.6942], [3.2323, 51.7], [3.22, 51.7073], [3.2027, 51.72], [3.2, 51.7227], [3.1858, 51.74], [3.18, 51.7484], [3.16, 51.7545], [3.14, 51.7586], [3.1386, 51.76], [3.14, 51.7753], [3.141, 51.78], [3.14, 51.7818], [3.12, 51.7957], [3.1159, 51.8], [3.12, 51.8115], [3.1234, 51.82], [3.12, 51.8268], [3.1124, 51.84], [3.1156, 51.86], [3.1, 51.8715], [3.089, 51.88], [3.08, 51.8855], [3.0631, 51.9], [3.06, 51.9026], [3.04, 51.9139], [3.0369, 51.92], [3.0237, 51.94], [3.02, 51.9433], [3.0, 51.9486], [2.9822, 51.96], [2.98, 51.9616], [2.96, 51.9766], [2.9556, 51.98], [2.94, 51.9927], [2.9306, 52.0], [2.9306, 52.02], [2.92, 52.0286], [2.9058, 52.04], [2.9, 52.0445], [2.8803, 52.06], [2.88, 52.0602], [2.86, 52.0708], [2.84, 52.0763], [2.8355, 52.08], [2.82, 52.0925], [2.8135, 52.1], [2.8, 52.116], [2.7945, 52.12], [2.78, 52.1312], [2.7641, 52.14], [2.76, 52.1428], [2.74, 52.1503], [2.72, 52.1579], [2.7167, 52.16], [2.7, 52.1722], [2.6884, 52.18], [2.68, 52.1884], [2.6725, 52.2], [2.6692, 52.22], [2.66, 52.2302], [2.652, 52.24], [2.64, 52.2486], [2.6291, 52.26], [2.62, 52.2693], [2.6094, 52.28], [2.6, 52.2938], [2.5956, 52.3], [2.58, 52.3144], [2.571, 52.32], [2.56, 52.3286], [2.5452, 52.34], [2.5406, 52.36], [2.54, 52.3608], [2.5269, 52.38], [2.52, 52.3876], [2.5019, 52.4], [2.5, 52.4026]]}}]}