{"type": "FeatureCollection", "features": [{"type": "Feature", "properties": {"level": 1010.0}, "geometry": {"type": "LineString", "coordinates": [[5.8724, 50.66], [5.88, 50.6461], [5.9, 50.6436], [5.92, 50.6495], [5.9333, 50.66], [5.94, 50.6675], [5.9585, 50.68], [5.946, 50.7], [5.94, 50.7043], [5.92, 50.7149], [5.9, 50.717], [5.8957, 50.72], [5.9, 50.7287], [5.9113, 50.74], [5.9, 50.7445], [5.8812, 50.76], [5.88, 50.7614], [5.8774, 50.76], [5.86, 50.7444], [5.84, 50.7421], [5.8393, 50.74], [5.84, 50.7384], [5.8529, 50.72], [5.86, 50.7102], [5.8681, 50.7], [5.8762, 50.68], [5.8724, 50.66]]}}, {"type": "Feature", "properties": {"level": 1010.0}, "geometry": {"type": "LineString", "coordinates": [[6.6, 50.6944], [6.5905, 50.7], [6.6, 50.7016], [6.6078, 50.7], [6.6, 50.6944]]}}, {"type": "Feature", "properties": {"level": 1010.0}, "geometry": {"type": "LineString", "coordinates": [[6.48, 50.7107], [6.4682, 50.72], [6.46, 50.7258], [6.4458, 50.74], [6.44, 50.7549], [6.42, 50.7552], [6.4, 50.7541], [6.385, 50.76], [6.38, 50.7636], [6.3701, 50.76], [6.36, 50.7571], [6.34, 50.7423], [6.32, 50.7423], [6.3, 50.7583], [6.28, 50.7403], [6.2791, 50.76], [6.28, 50.7605], [6.3, 50.7621], [6.32, 50.7713], [6.3263, 50.78], [6.32, 50.7967], [6.319, 50.8], [6.32, 50.8016], [6.34, 50.8024], [6.3424, 50.8], [6.36, 50.792], [6.3755, 50.8], [6.38, 50.8084], [6.4, 50.8102], [6.4115, 50.8], [6.42, 50.7891], [6.4377, 50.78], [6.44, 50.7755], [6.46, 50.7714], [6.4607, 50.76], [6.48, 50.7481], [6.4881, 50.74], [6.5, 50.7257], [6.505, 50.72], [6.5, 50.7145], [6.48, 50.7107]]}}, {"type": "Feature", "properties": {"level": 1010.0}, "geometry": {"type": "LineString", "coordinates": [[5.92, 50.8761], [5.9113, 50.88], [5.92, 50.8867], [5.94, 50.8889], [5.9544, 50.88], [5.94, 50.8707], [5.92, 50.8761]]}}, {"type": "Feature", "properties": {"level": 1010.0}, "geometry": {"type": "LineString", "coordinates": [[5.72, 50.9191], [5.7191, 50.92], [5.7, 50.9331], [5.6888, 50.94], [5.693, 50.96], [5.7, 50.967], [5.72, 50.9646], [5.74, 50.9687], [5.76, 50.9638], [5.7665, 50.96], [5.76, 50.9515], [5.75, 50.94], [5.74, 50.9289], [5.721, 50.92], [5.72, 50.9191]]}}, {"type": "Feature", "properties": {"level": 1010.0}, "geometry": {"type": "LineString", "coordinates": [[2.5, 52.1237], [2.52, 52.1342], [2.54, 52.1342], [2.56, 52.1388], [2.5622, 52.14], [2.58, 52.1485], [2.6, 52.1549], [2.62, 52.1573], [2.6273, 52.16], [2.64, 52.1648], [2.66, 52.1676], [2.68, 52.1653], [2.7, 52.1711], [2.72, 52.1768], [2.74, 52.1778], [2.7556, 52.18], [2.76, 52.1819], [2.78, 52.1819], [2.7835, 52.18], [2.8, 52.1768], [2.82, 52.1745], [2.84, 52.1719], [2.86, 52.1746], [2.88, 52.1754], [2.8916, 52.18], [2.9, 52.184], [2.92, 52.1863], [2.94, 52.1847], [2.96, 52.1914], [2.98, 52.1975], [3.0, 52.1986], [3.0036, 52.2], [3.02, 52.2141], [3.0246, 52.22], [3.04, 52.2293], [3.0515, 52.24], [3.06, 52.2476], [3.0787, 52.26], [3.08, 52.2615], [3.0959, 52.28], [3.1, 52.2829], [3.1161, 52.3], [3.12, 52.3045], [3.1373, 52.32], [3.14, 52.3243], [3.1557, 52.34], [3.16, 52.3433], [3.18, 52.3512], [3.2, 52.3518], [3.22, 52.3563], [3.2271, 52.36], [3.24, 52.3669], [3.26, 52.3729], [3.28, 52.3769], [3.2869, 52.38], [3.3, 52.386], [3.32, 52.3835], [3.34, 52.3835], [3.3445, 52.38], [3.36, 52.3746], [3.38, 52.3675], [3.4, 52.3663], [3.42, 52.3613], [3.4225, 52.36], [3.4225, 52.34], [3.44, 52.3322], [3.46, 52.3342], [3.48, 52.3373], [3.4835, 52.34], [3.5, 52.3522], [3.507, 52.36], [3.52, 52.3796], [3.5204, 52.38], [3.5333, 52.4], [3.54, 52.4093], [3.5587, 52.42], [3.56, 52.4205], [3.58, 52.4317], [3.6, 52.4308], [3.62, 52.4399], [3.622, 52.44], [3.64, 52.4408], [3.66, 52.4515], [3.672, 52.46], [3.68, 52.4656], [3.6972, 52.48], [3.7, 52.4836], [3.7114, 52.5], [3.72, 52.5072], [3.74, 52.5177], [3.7442, 52.52], [3.76, 52.5279], [3.78, 52.5327], [3.8, 52.5377], [3.804, 52.54], [3.82, 52.5497], [3.8369, 52.56], [3.84, 52.5619], [3.86, 52.5659], [3.88, 52.5732], [3.8938, 52.58], [3.9, 52.5833], [3.92, 52.5857], [3.94, 52.5843], [3.96, 52.5909], [3.98, 52.5968], [4.0, 52.5975], [4.02, 52.5999], [4.04, 52.5998], [4.06, 52.5834], [4.063, 52.58], [4.06, 52.5648], [4.04, 52.5612], [4.0395, 52.56], [4.04, 52.5585], [4.0442, 52.54], [4.04, 52.5328], [4.0326, 52.52], [4.02, 52.5021], [4.0175, 52.5], [4.0145, 52.48], [4.0193, 52.46], [4.02, 52.4582], [4.033, 52.44], [4.02, 52.427], [4.0183, 52.42], [4.02, 52.4178], [4.04, 52.415], [4.06, 52.4154], [4.0789, 52.4], [4.08, 52.3997], [4.0809, 52.4], [4.1, 52.4083], [4.12, 52.4107], [4.14, 52.4158], [4.16, 52.4164], [4.1656, 52.42], [4.18, 52.4283], [4.1977, 52.44], [4.2, 52.4427], [4.2133, 52.46], [4.22, 52.4648], [4.24, 52.4702], [4.26, 52.4785], [4.2627, 52.48], [4.28, 52.4918], [4.2939, 52.5], [4.3, 52.5037], [4.32, 52.5061], [4.34, 52.5139], [4.36, 52.5199], [4.3601, 52.52], [4.38, 52.5342], [4.3884, 52.54], [4.4, 52.5477], [4.4116, 52.56], [4.42, 52.5735], [4.4237, 52.58], [4.44, 52.5999], [4.4401, 52.6], [4.4501, 52.62], [4.46, 52.6398], [4.48, 52.6399], [4.4801, 52.64], [4.48, 52.6403], [4.477, 52.66], [4.48, 52.6648], [4.4965, 52.68], [4.5, 52.6832], [4.5168, 52.7], [4.52, 52.7024], [4.54, 52.7057], [4.56, 52.7168], [4.58, 52.7191], [4.5817, 52.72], [4.6, 52.7312], [4.6196, 52.74], [4.62, 52.7402], [4.6203, 52.74], [4.64, 52.7294], [4.6544, 52.72], [4.66, 52.7126], [4.6731, 52.7], [4.68, 52.6953], [4.7, 52.6949], [4.72, 52.6982], [4.74, 52.6977], [4.76, 52.6885], [4.7738, 52.68], [4.78, 52.6732], [4.7963, 52.66], [4.8, 52.6576], [4.82, 52.6534], [4.84, 52.646], [4.8522, 52.64], [4.86, 52.6302], [4.8656, 52.62], [4.88, 52.6073], [4.8873, 52.6], [4.88, 52.5832], [4.8756, 52.58], [4.86, 52.5737], [4.84, 52.5697], [4.82, 52.5633], [4.8165, 52.56], [4.8, 52.5473], [4.7963, 52.54], [4.8, 52.5325], [4.8071, 52.52], [4.8, 52.5033], [4.7974, 52.5], [4.8, 52.4888], [4.8026, 52.48], [4.8104, 52.46], [4.82, 52.4491], [4.8254, 52.44], [4.84, 52.4254], [4.8439, 52.42], [4.8456, 52.4], [4.846, 52.38], [4.8451, 52.36], [4.8487, 52.34], [4.86, 52.3219], [4.8619, 52.32], [4.88, 52.3055], [4.9, 52.3017], [4.92, 52.3038], [4.9334, 52.3], [4.94, 52.2973], [4.96, 52.2888], [4.98, 52.2888], [5.0, 52.286], [5.02, 52.2891], [5.0352, 52.28], [5.02, 52.2743], [5.0049, 52.26], [5.0, 52.2542], [4.9908, 52.24], [4.98, 52.2286], [4.972, 52.22], [4.96, 52.2111], [4.94, 52.2117], [4.92, 52.2076], [4.9, 52.2041], [4.888, 52.2], [4.8875, 52.18], [4.88, 52.1773], [4.8614, 52.16], [4.8609, 52.14], [4.86, 52.1383], [4.8502, 52.12], [4.84, 52.1038], [4.835, 52.1], [4.82, 52.0915], [4.8078, 52.08], [4.8, 52.0696], [4.7941, 52.06], [4.78, 52.0457], [4.7774, 52.04], [4.78, 52.036], [4.7899, 52.02], [4.8, 52.0037], [4.8033, 52.0], [4.82, 51.9831], [4.8244, 51.98], [4.8233, 51.96], [4.82, 51.953], [4.8106, 51.94], [4.82, 51.9306], [4.8282, 51.92], [4.8336, 51.9], [4.84, 51.894], [4.8564, 51.88], [4.86, 51.878], [4.88, 51.8775], [4.9, 51.8703], [4.92, 51.8676], [4.94, 51.8741], [4.9467, 51.86], [4.96, 51.8437], [4.9622, 51.84], [4.98, 51.8211], [4.9816, 51.82], [5.0, 51.806], [5.0181, 51.8], [5.02, 51.785], [5.04, 51.7812], [5.041, 51.78], [5.04, 51.779], [5.0343, 51.76], [5.04, 51.7537], [5.06, 51.741], [5.0616, 51.74], [5.08, 51.7342], [5.1, 51.7283], [5.12, 51.7245], [5.14, 51.7292], [5.1586, 51.74], [5.16, 51.7406], [5.18, 51.7405], [5.1835, 51.74], [5.2, 51.7373], [5.2043, 51.74], [5.22, 51.748], [5.24, 51.7539], [5.26, 51.7527], [5.28, 51.754], [5.3, 51.754], [5.32, 51.7422], [5.34, 51.7426], [5.36, 51.742], [5.3634, 51.74], [5.3761, 51.72], [5.38, 51.7162], [5.3962, 51.7], [5.4, 51.6979], [5.42, 51.6911], [5.44, 51.6836], [5.4455, 51.68], [5.46, 51.6686], [5.4747, 51.66], [5.48, 51.6564], [5.5, 51.6426], [5.52, 51.6406], [5.5206, 51.64], [5.52, 51.6361], [5.5039, 51.62], [5.52, 51.6093], [5.5278, 51.6], [5.54, 51.5932], [5.56, 51.5813], [5.5614, 51.58], [5.58, 51.568], [5.5871, 51.56], [5.6, 51.5414], [5.6009, 51.54], [5.6052, 51.52], [5.62, 51.5038], [5.623, 51.5], [5.6374, 51.48], [5.6329, 51.46], [5.64, 51.4529], [5.6438, 51.44], [5.64, 51.4344], [5.6273, 51.42], [5.62, 51.4107], [5.6077, 51.4], [5.62, 51.3899], [5.6255, 51.38], [5.6299, 51.36], [5.6299, 51.34], [5.6389, 51.32], [5.64, 51.315], [5.6443, 51.3], [5.64, 51.2907], [5.62, 51.2832], [5.6164, 51.28], [5.62, 51.2739], [5.6289, 51.26], [5.62, 51.2419], [5.6184, 51.24], [5.6, 51.2237], [5.5939, 51.22], [5.58, 51.2077], [5.56, 51.2038], [5.54, 51.204], [5.5327, 51.2], [5.52, 51.1843], [5.5163, 51.18], [5.52, 51.1781], [5.54, 51.1737], [5.56, 51.1667], [5.5672, 51.16], [5.58, 51.148], [5.5851, 51.14], [5.58, 51.129], [5.5732, 51.12], [5.58, 51.1073], [5.6, 51.1073], [5.6016, 51.1], [5.6, 51.0968], [5.5852, 51.08], [5.6, 51.0652], [5.6036, 51.06], [5.6055, 51.04], [5.6079, 51.02], [5.6123, 51.0], [5.6014, 50.98], [5.6, 50.9784], [5.5895, 50.96], [5.58, 50.9488], [5.5683, 50.94], [5.5702, 50.92], [5.58, 50.9087], [5.5839, 50.9], [5.6, 50.8884], [5.62, 50.8853], [5.64, 50.8865], [5.6495, 50.88], [5.66, 50.8728], [5.6724, 50.86], [5.68, 50.8423], [5.7, 50.8497], [5.7161, 50.86], [5.72, 50.8622], [5.7332, 50.88], [5.74, 50.8969], [5.76, 50.8969], [5.7642, 50.88], [5.78, 50.8708], [5.8, 50.8685], [5.82, 50.8692], [5.8287, 50.86], [5.84, 50.8459], [5.8505, 50.84], [5.86, 50.8331], [5.88, 50.8339], [5.9, 50.8277], [5.9077, 50.82], [5.92, 50.8087], [5.94, 50.8075], [5.96, 50.8151], [5.98, 50.8105], [6.0, 50.8075], [6.0171, 50.82], [6.02, 50.8229], [6.04, 50.8215], [6.0417, 50.82], [6.0526, 50.8], [6.06, 50.7925], [6.08, 50.7933], [6.1, 50.7935], [6.12, 50.7917], [6.14, 50.791], [6.158, 50.78], [6.16, 50.7783], [6.18, 50.7782], [6.1818, 50.78], [6.2, 50.7842], [6.212, 50.78], [6.212, 50.76], [6.22, 50.7529], [6.2319, 50.76], [6.24, 50.7622], [6.2424, 50.76], [6.26, 50.7444], [6.28, 50.74], [6.26, 50.7248], [6.24, 50.7235], [6.2335, 50.72], [6.22, 50.7157], [6.2, 50.7058], [6.18, 50.7049], [6.16, 50.7081], [6.1496, 50.72], [6.14, 50.7331], [6.12, 50.7339], [6.1, 50.7295], [6.0807, 50.74], [6.0855, 50.76], [6.08, 50.7659], [6.06, 50.7668], [6.04, 50.7727], [6.02, 50.7668], [6.0, 50.7669], [5.98, 50.7636], [5.96, 50.7627], [5.9578, 50.76], [5.96, 50.7581], [5.98, 50.7575], [6.0, 50.7535], [6.008, 50.74], [6.02, 50.7269], [6.0305, 50.72], [6.04, 50.7028], [6.06, 50.7028], [6.08, 50.7016], [6.0829, 50.7], [6.08, 50.6966], [6.06, 50.6948], [6.0481, 50.68], [6.06, 50.6701], [6.0644, 50.66], [6.06, 50.6514], [6.0486, 50.64], [6.0495, 50.62], [6.04, 50.6119], [6.02, 50.6079], [6.0, 50.6065], [5.9934, 50.6], [5.98, 50.5892], [5.96, 50.5841], [5.94, 50.5885], [5.9205, 50.58], [5.92, 50.5795], [5.9052, 50.56], [5.9, 50.5548], [5.8883, 50.54], [5.88, 50.5235], [5.876, 50.52], [5.86, 50.5107], [5.8493, 50.5]]}}, {"type": "Feature", "properties": {"level": 1010.0}, "geometry": {"type": "LineString", "coordinates": [[3.6126, 53.98], [3.6, 53.9627], [3.5956, 53.96], [3.58, 53.9514], [3.56, 53.9551], [3.54, 53.9577], [3.5333, 53.96], [3.52, 53.9653], [3.5, 53.9644], [3.4903, 53.96], [3.48, 53.9563], [3.4611, 53.96], [3.46, 53.9611], [3.44, 53.9614], [3.42, 53.9731], [3.4176, 53.98]]}}]}